{
"type": "FeatureCollection",
"name": "zones_runs",
"crs": { "type": "name", "properties": { "name": "urn:ogc:def:crs:OGC:1.3:CRS84" } },
"features": [
{ "type": "Feature", "properties": { "area_acres": 481.58367794135847, "lake": "Cocolalla Lake", "layer": "runs", "min_depth_ft": 0.0, "min_shore_dist_ft": 500.0, "run_length_ft": 3000.0, "angle_step_deg": 5.0, "cell_m": 10.0, "depth_source": "none", "docks": 0 }, "geometry": { "type": "Polygon", "coordinates": [ [ [ -116.611118934673087, 48.140324297703607 ], [ -116.611119614168587, 48.140234330112946 ], [ -116.611388450050839, 48.140235239385859 ], [ -116.611524225568857, 48.140055758592382 ], [ -116.611927478018046, 48.140057120842648 ], [ -116.611928834167529, 48.139877185634262 ], [ -116.612063251187521, 48.139877639400453 ], [ -116.612063929022426, 48.139787671792696 ], [ -116.61219834581091, 48.139788125400266 ], [ -116.612334117323172, 48.139608643625188 ], [ -116.612602949977344, 48.139609550048661 ], [ -116.612738719607506, 48.139430067784929 ], [ -116.613007551342164, 48.139430973259564 ], [ -116.613008903687629, 48.13925103800851 ], [ -116.613278410194269, 48.139161975218208 ], [ -116.613279761580472, 48.138982039952928 ], [ -116.613414176285204, 48.138982492132989 ], [ -116.613414851738511, 48.138892524496804 ], [ -116.613549266211706, 48.13889297651825 ], [ -116.613549941426839, 48.138803008879229 ], [ -116.613819444655675, 48.138713944804415 ], [ -116.613820794130092, 48.138534009513585 ], [ -116.613955207673868, 48.138534461057809 ], [ -116.613957231156192, 48.13826455810662 ], [ -116.614091643998776, 48.138265009489409 ], [ -116.614092992500815, 48.138085074178662 ], [ -116.614227404877042, 48.138085525401422 ], [ -116.614228752896196, 48.137905590082177 ], [ -116.614363164806093, 48.137906041144916 ], [ -116.614364512342377, 48.137726105817137 ], [ -116.614498923785916, 48.137726556719869 ], [ -116.614501617879597, 48.137366686041595 ], [ -116.614367207375338, 48.137366235144519 ], [ -116.614373271006329, 48.136556526047904 ], [ -116.614507679397249, 48.136556976932233 ], [ -116.614510373319277, 48.136197106179985 ], [ -116.614644780774285, 48.136197556901486 ], [ -116.614647473704281, 48.135837686120809 ], [ -116.61478188022339, 48.135838136679489 ], [ -116.614783899181873, 48.135568233574801 ], [ -116.614918304999861, 48.135568683972075 ], [ -116.614919650486087, 48.135388748559009 ], [ -116.615054055837803, 48.135389198796268 ], [ -116.615055400841271, 48.135209263374698 ], [ -116.6151898057267, 48.135209713451964 ], [ -116.615191150247384, 48.135029778021881 ], [ -116.615325554666541, 48.135030227939161 ], [ -116.615327570718492, 48.13476032477913 ], [ -116.615461974436556, 48.134760774535003 ], [ -116.615465333283382, 48.134310935899435 ], [ -116.615330930739233, 48.134310486150611 ], [ -116.615332274724466, 48.13413055068925 ], [ -116.615064143042389, 48.134039682995777 ], [ -116.615066832838352, 48.133679812061608 ], [ -116.614932431947523, 48.133679361851179 ], [ -116.614937140606983, 48.133049587671472 ], [ -116.615071539854455, 48.13305003787201 ], [ -116.615074229505424, 48.132690166875243 ], [ -116.615208627817154, 48.13269061691296 ], [ -116.615209972153338, 48.132510681403218 ], [ -116.615479439541261, 48.132421613241711 ], [ -116.615616522961247, 48.132062191744559 ], [ -116.6158859873007, 48.13197312261471 ], [ -116.615887329236685, 48.131793187068084 ], [ -116.616021725220634, 48.131793636148785 ], [ -116.616022395948946, 48.131703668371948 ], [ -116.616156791701428, 48.131704117294085 ], [ -116.616157462191708, 48.131614149514405 ], [ -116.61629185771271, 48.131614598277984 ], [ -116.616292527964973, 48.131524630495484 ], [ -116.616426923254537, 48.131525079100513 ], [ -116.616562658103064, 48.131345591973464 ], [ -116.616831447759623, 48.131346488392168 ], [ -116.616832117063055, 48.131256520599756 ], [ -116.616966511661516, 48.131256968571982 ], [ -116.616967180726917, 48.131167000776742 ], [ -116.61723596946419, 48.131167896246929 ], [ -116.617371700550308, 48.130988408143146 ], [ -116.617774882282148, 48.130989749689967 ], [ -116.617775549929306, 48.130899781882043 ], [ -116.618044337297448, 48.130900675458065 ], [ -116.618045004471867, 48.130810707645914 ], [ -116.618583244540602, 48.130722525087435 ], [ -116.61858391076953, 48.130632557266836 ], [ -116.618718303767366, 48.130633003186347 ], [ -116.618718969758319, 48.13054303536294 ], [ -116.618988420812514, 48.130453958900098 ], [ -116.618989751839152, 48.130274023240538 ], [ -116.619124143907854, 48.130274468683048 ], [ -116.619126139719199, 48.130004565178851 ], [ -116.619260531086951, 48.130005010460017 ], [ -116.619262526164789, 48.129735106938824 ], [ -116.619396916831661, 48.129735552058655 ], [ -116.619398246397779, 48.129555616367973 ], [ -116.619532636598478, 48.129556061327868 ], [ -116.619534630219107, 48.129286157776967 ], [ -116.619669019718884, 48.12928660257554 ], [ -116.619671012606062, 48.129016699007657 ], [ -116.619805401404975, 48.129017143644909 ], [ -116.619806729510714, 48.128837207923084 ], [ -116.619941117843439, 48.128837652400414 ], [ -116.620079487602084, 48.128298289504251 ], [ -116.620213874533079, 48.128298733658951 ], [ -116.620215201178539, 48.128118797906005 ], [ -116.620349587643389, 48.128119241900784 ], [ -116.62035157688311, 48.12784933825651 ], [ -116.620485962647095, 48.127849782089982 ], [ -116.620624323989716, 48.127310418422667 ], [ -116.620758708352042, 48.127310861933537 ], [ -116.620895741158733, 48.126951433685257 ], [ -116.621165169654887, 48.1268623520034 ], [ -116.62116649291076, 48.126682416185439 ], [ -116.621435919532686, 48.126593333859702 ], [ -116.621437241830407, 48.126413398027658 ], [ -116.621571623865321, 48.12641384058189 ], [ -116.621572284774629, 48.126323872662354 ], [ -116.621706666578106, 48.126324315058071 ], [ -116.62170732724951, 48.126234347135707 ], [ -116.621841708821549, 48.126234789372923 ], [ -116.62184236925502, 48.12614482144776 ], [ -116.621976750595636, 48.126145263526467 ], [ -116.622112451858015, 48.125965769587893 ], [ -116.622381213616691, 48.125966652954162 ], [ -116.622516912998449, 48.125787158527487 ], [ -116.622785673837825, 48.125788040945501 ], [ -116.622786332612435, 48.125698073003527 ], [ -116.623055092995358, 48.125698954790302 ], [ -116.623055751297414, 48.125608986844142 ], [ -116.623324511223927, 48.125609867999692 ], [ -116.623325169053388, 48.125519900049341 ], [ -116.623863344893962, 48.125431692512237 ], [ -116.623864001778315, 48.125341724553522 ], [ -116.623998381055287, 48.125342164263017 ], [ -116.623999694345017, 48.125162228338539 ], [ -116.624134073155872, 48.125162667888169 ], [ -116.624134729561263, 48.125072699922413 ], [ -116.62426910814068, 48.12507313931355 ], [ -116.624404798585743, 48.124893642606303 ], [ -116.624673554821996, 48.124894520597493 ], [ -116.624809243386565, 48.124715023402189 ], [ -116.62507799870346, 48.124715900445196 ], [ -116.625078653450132, 48.124625932462706 ], [ -116.625347408310517, 48.124626808874517 ], [ -116.625348062584692, 48.124536840887835 ], [ -116.625617470790246, 48.124447748677625 ], [ -116.625618778383938, 48.12426781269167 ], [ -116.625484401884336, 48.124267374884028 ], [ -116.625486363954806, 48.123997470898566 ], [ -116.625351988162379, 48.123997032937936 ], [ -116.625353950907908, 48.123727128943806 ], [ -116.625219575822626, 48.123726690830196 ], [ -116.625220884772915, 48.123546754829732 ], [ -116.625086510160145, 48.123546316561772 ], [ -116.625087819566872, 48.123366380558359 ], [ -116.62495344542657, 48.123365942136061 ], [ -116.624954755289778, 48.123186006129728 ], [ -116.624820381621959, 48.123185567553058 ], [ -116.624821691941605, 48.123005631543791 ], [ -116.624687318746268, 48.123005192812776 ], [ -116.624688629522339, 48.122825256800567 ], [ -116.624554256799499, 48.122824817915202 ], [ -116.624422507470499, 48.122464506842299 ], [ -116.624154420226802, 48.122373660288694 ], [ -116.624155732834922, 48.122193724267596 ], [ -116.623887647471491, 48.122102877092367 ], [ -116.623888960998798, 48.121922941068256 ], [ -116.623754590641525, 48.12192250125409 ], [ -116.623755247634989, 48.121832533241289 ], [ -116.623620877515563, 48.121832093271408 ], [ -116.623622191962042, 48.121652157244291 ], [ -116.623354110358989, 48.121561308825846 ], [ -116.623355425724611, 48.121381372795717 ], [ -116.623221056787955, 48.121380932361468 ], [ -116.623222372609916, 48.12120099632844 ], [ -116.623088004145686, 48.121200555739847 ], [ -116.623089320423986, 48.121020619703884 ], [ -116.62295495243221, 48.121020178960975 ], [ -116.622956269166835, 48.120840242922071 ], [ -116.622821901647512, 48.120839802024854 ], [ -116.622823218838434, 48.120659865983036 ], [ -116.622688851791537, 48.120659424931489 ], [ -116.622691487073098, 48.120299552836329 ], [ -116.622557120967855, 48.12029911163323 ], [ -116.622562393252764, 48.119579367385704 ], [ -116.622428029027532, 48.119578926036596 ], [ -116.622431984513142, 48.119039117799531 ], [ -116.622566347330832, 48.119039559140326 ], [ -116.622568983318303, 48.118679686948298 ], [ -116.62270334520089, 48.118680128126478 ], [ -116.62270598019839, 48.118320255906156 ], [ -116.622571619254089, 48.118319814733518 ], [ -116.622578867811157, 48.117330166025511 ], [ -116.622713226175165, 48.117330607182922 ], [ -116.62271717836154, 48.116790798715911 ], [ -116.622851535321416, 48.11679123970795 ], [ -116.622854827548537, 48.116341399272748 ], [ -116.622989183338859, 48.116341840100787 ], [ -116.622991157932773, 48.116071935818439 ], [ -116.6231255130227, 48.116072376485285 ], [ -116.623126828933437, 48.115892440287169 ], [ -116.623396195666189, 48.115803353040185 ], [ -116.62339948302504, 48.115353512499098 ], [ -116.623533836248285, 48.115353952683684 ], [ -116.623537122353923, 48.114904112100128 ], [ -116.623402770303358, 48.114903671922448 ], [ -116.623404085192149, 48.114723735681828 ], [ -116.623136039947411, 48.114632886741134 ], [ -116.623137355754977, 48.114452950497522 ], [ -116.623003004886741, 48.114452509855575 ], [ -116.623005637401278, 48.114092637356784 ], [ -116.622871287474354, 48.114092196563327 ], [ -116.622875237556556, 48.113552387780793 ], [ -116.623009586076364, 48.113552828565957 ], [ -116.62302735367787, 48.111123688373617 ], [ -116.623161695869385, 48.111124128964398 ], [ -116.623164326968848, 48.110764256249603 ], [ -116.623298668225672, 48.110764696677819 ], [ -116.623299983287097, 48.110584760309116 ], [ -116.623434324078204, 48.110585200577539 ], [ -116.623434981369599, 48.110495232389681 ], [ -116.623704319311756, 48.110406144260629 ], [ -116.623705632940556, 48.110226207872259 ], [ -116.623839972803424, 48.110226647664057 ], [ -116.623840629378535, 48.110136679466372 ], [ -116.623974969010121, 48.110137119099754 ], [ -116.623976281681749, 48.109957182697336 ], [ -116.624110620847617, 48.109957622170938 ], [ -116.624111276944149, 48.109867653966219 ], [ -116.62384259908454, 48.109866774864749 ], [ -116.623843255646776, 48.109776806661344 ], [ -116.623574578269, 48.109775926934532 ], [ -116.623573921237821, 48.109865895135151 ], [ -116.623439582319264, 48.109865455034814 ], [ -116.623303928394066, 48.110044951168888 ], [ -116.623035249635237, 48.11004407017753 ], [ -116.623034591656506, 48.110134038368372 ], [ -116.622900252047444, 48.110133597635752 ], [ -116.622764595536609, 48.110313093117973 ], [ -116.622495915396726, 48.110312210862062 ], [ -116.622495256470458, 48.110402179043092 ], [ -116.622225916476054, 48.110491264333113 ], [ -116.622224597669444, 48.110671200682525 ], [ -116.622090256672891, 48.110670758999404 ], [ -116.622089597030254, 48.110760727170579 ], [ -116.621955255802462, 48.110760285329064 ], [ -116.621954595922119, 48.110850253497425 ], [ -116.621685252654729, 48.110939337504661 ], [ -116.621683931939941, 48.111119273828749 ], [ -116.621549589783939, 48.111118831510552 ], [ -116.621548929187185, 48.111208799669079 ], [ -116.621414586799943, 48.11120835719246 ], [ -116.621413925965456, 48.111298325348173 ], [ -116.621279583346947, 48.111297882713131 ], [ -116.621278922274769, 48.111387850866024 ], [ -116.621144579425021, 48.111387408072559 ], [ -116.621143918115109, 48.111477376222652 ], [ -116.621009575034094, 48.111476933270751 ], [ -116.621008913486463, 48.11156690141803 ], [ -116.620874570174195, 48.11156645830772 ], [ -116.620873908388816, 48.111656426452164 ], [ -116.620739564845337, 48.111655983183411 ], [ -116.620738902822211, 48.111745951325062 ], [ -116.620604559047464, 48.111745507897872 ], [ -116.620603896786648, 48.111835476036717 ], [ -116.620469552780634, 48.111835032451104 ], [ -116.620468890282055, 48.111925000587121 ], [ -116.620334546044802, 48.111924556843071 ], [ -116.620333883308504, 48.112014524976274 ], [ -116.620199538839984, 48.112014081073788 ], [ -116.620063867954386, 48.112193573270837 ], [ -116.619795178095643, 48.11219268467508 ], [ -116.619659505330802, 48.11237217638417 ], [ -116.619390814553597, 48.11237128684057 ], [ -116.61925513990947, 48.11255077806166 ], [ -116.618986448213803, 48.112549887570225 ], [ -116.618985783109721, 48.112639855679525 ], [ -116.61871642538172, 48.112728932662193 ], [ -116.618706441345267, 48.114078454067652 ], [ -116.61857209152214, 48.114078008248498 ], [ -116.618569428050392, 48.114437880563635 ], [ -116.618435077292432, 48.114437434581845 ], [ -116.61829672841786, 48.114976796856212 ], [ -116.618162376259249, 48.114976350551892 ], [ -116.618025356749072, 48.115335776326361 ], [ -116.617755983255961, 48.115424850973817 ], [ -116.617753981288487, 48.115694755123087 ], [ -116.617619627266649, 48.115694308179314 ], [ -116.617618292136257, 48.115874244268909 ], [ -116.617483937648586, 48.115873797165271 ], [ -116.617482602035992, 48.116053733246382 ], [ -116.617348247082532, 48.116053285982865 ], [ -116.617346910987735, 48.11623322205547 ], [ -116.617212555568443, 48.116232774632081 ], [ -116.617211218991486, 48.116412710696189 ], [ -116.617076863106348, 48.116412263112942 ], [ -116.617074188974925, 48.116772135218454 ], [ -116.616939832154856, 48.116771687472522 ], [ -116.61693715703278, 48.117131559549662 ], [ -116.616802799277764, 48.117131111641029 ], [ -116.616799454128611, 48.117580951698415 ], [ -116.61666509520407, 48.117580503625689 ], [ -116.616661748800126, 48.118030343640477 ], [ -116.616527388706004, 48.118029895403659 ], [ -116.616523371505622, 48.11856970336602 ], [ -116.616657733007187, 48.118570151611294 ], [ -116.616655055746293, 48.118930023563387 ], [ -116.616789418189484, 48.118930471657201 ], [ -116.616785403607281, 48.119470279551095 ], [ -116.61665103975659, 48.119469831448853 ], [ -116.616648362364515, 48.119829703344038 ], [ -116.616513997578707, 48.119829255079082 ], [ -116.61637695347487, 48.120188678518211 ], [ -116.616107551735169, 48.120277749150532 ], [ -116.616106211109852, 48.120457685064096 ], [ -116.615971844694997, 48.120457236160931 ], [ -116.61597050358732, 48.120637172066004 ], [ -116.615836136706548, 48.120636723002939 ], [ -116.615834795116527, 48.120816658899493 ], [ -116.615700427769809, 48.120816209676526 ], [ -116.615698414656308, 48.121086113506465 ], [ -116.615429007051461, 48.121175182518442 ], [ -116.615427664014305, 48.121355118389467 ], [ -116.615158254535856, 48.121444186757529 ], [ -116.615156910540492, 48.121624122614364 ], [ -116.615022541098739, 48.121623672593238 ], [ -116.61502052437713, 48.121893576363604 ], [ -116.614886154234824, 48.121893126181142 ], [ -116.614883464288084, 48.122252997849401 ], [ -116.614749093210548, 48.122252547504189 ], [ -116.614747075012019, 48.1225224512362 ], [ -116.614612703233917, 48.122522000729653 ], [ -116.614610011317851, 48.122881872346781 ], [ -116.614475638604503, 48.122881421677477 ], [ -116.614465539929711, 48.124230940017739 ], [ -116.614331163700044, 48.12423048917011 ], [ -116.614328469656115, 48.12459036066781 ], [ -116.614194092491132, 48.124589909657402 ], [ -116.614192744980059, 48.124769845394873 ], [ -116.613923315491547, 48.124858910760871 ], [ -116.613921967022037, 48.125038846484145 ], [ -116.613652535659568, 48.125127911206079 ], [ -116.61351545729525, 48.125487330808419 ], [ -116.613246022885448, 48.125576394562131 ], [ -116.61324467201635, 48.125756330248464 ], [ -116.613110291827198, 48.125755877962746 ], [ -116.613108940475541, 48.125935813640538 ], [ -116.612974559820344, 48.125935361194855 ], [ -116.612837474548016, 48.126294779919263 ], [ -116.612568034744044, 48.126383842056327 ], [ -116.612566681468593, 48.126563777702856 ], [ -116.612432299183936, 48.126563324618758 ], [ -116.612431622306531, 48.126653292438469 ], [ -116.612297239790507, 48.126652839195813 ], [ -116.612296562675127, 48.126742807012675 ], [ -116.612162179927736, 48.12674235361149 ], [ -116.612161502574352, 48.126832321425503 ], [ -116.612027119595595, 48.126831867865768 ], [ -116.612026442004222, 48.126921835676931 ], [ -116.611756997523216, 48.127010895890145 ], [ -116.611619900856752, 48.127370313063871 ], [ -116.611350453328114, 48.127459372308707 ], [ -116.611349095748608, 48.127639307895457 ], [ -116.611079646345772, 48.127728366496108 ], [ -116.611078287807516, 48.127908302068619 ], [ -116.610808836530424, 48.12799736002507 ], [ -116.61080747703339, 48.128177295583349 ], [ -116.610673090567502, 48.128176840430953 ], [ -116.610672410579284, 48.128266808206533 ], [ -116.610538023882029, 48.128266352895594 ], [ -116.610537343655793, 48.128356320668317 ], [ -116.6102678891029, 48.128445377340626 ], [ -116.610266527694918, 48.128625312873226 ], [ -116.610132140068842, 48.128624857085178 ], [ -116.610131459125142, 48.128714824847911 ], [ -116.609997071267713, 48.128714368901299 ], [ -116.609995708900854, 48.128894304419653 ], [ -116.609726250599323, 48.128983359803478 ], [ -116.609589134444136, 48.129342774377925 ], [ -116.60931967309466, 48.129431828793201 ], [ -116.609182552892463, 48.129791242843417 ], [ -116.608913088494987, 48.129880296290118 ], [ -116.608911722285796, 48.130060231748551 ], [ -116.608642256013866, 48.130149284550946 ], [ -116.60864088884567, 48.130329219995097 ], [ -116.608371420699285, 48.130418272153179 ], [ -116.608370052572042, 48.130598207583049 ], [ -116.608100582551174, 48.130687259096788 ], [ -116.608099213464897, 48.130867194512369 ], [ -116.607964820024335, 48.130866736174248 ], [ -116.607964135241446, 48.130956703878468 ], [ -116.607694662645201, 48.131045754427831 ], [ -116.607693292123656, 48.131225689823403 ], [ -116.607558897754217, 48.131225231008095 ], [ -116.607556841242499, 48.131495134086457 ], [ -116.607422446172194, 48.131494675109678 ], [ -116.607420388925988, 48.131764578170895 ], [ -116.607285993154818, 48.13176411903266 ], [ -116.607283935174138, 48.132034022076766 ], [ -116.607149538702075, 48.132033562777039 ], [ -116.607148166228626, 48.132213498129794 ], [ -116.606878685644361, 48.132302546724461 ], [ -116.606877312211708, 48.132482482062912 ], [ -116.606607829752761, 48.132571530013188 ], [ -116.606606455360918, 48.132751465337314 ], [ -116.606472057027645, 48.132751005240287 ], [ -116.606471369591915, 48.132840972898769 ], [ -116.606336971027275, 48.132840512643142 ], [ -116.606336283353386, 48.132930480298761 ], [ -116.606201884557365, 48.132930019884533 ], [ -116.60606610946779, 48.133109494614352 ], [ -116.605527823360205, 48.13319761838838 ], [ -116.605527134264264, 48.133287586029638 ], [ -116.605392734549426, 48.133287124666687 ], [ -116.605392045215353, 48.133377092305061 ], [ -116.605257645269106, 48.133376630783509 ], [ -116.605256955696873, 48.13346659841902 ], [ -116.605122555519273, 48.133466136738861 ], [ -116.605121865708867, 48.1335561043715 ], [ -116.604852374610942, 48.13364514816513 ], [ -116.604850994034194, 48.133825083417499 ], [ -116.604581501061475, 48.133914126566616 ], [ -116.604580119525309, 48.134094061804632 ], [ -116.604445717721219, 48.134093599328509 ], [ -116.604445026713293, 48.134183566943946 ], [ -116.604310624677808, 48.134183104309223 ], [ -116.604309933431693, 48.134273071921776 ], [ -116.604175531164813, 48.134272609128438 ], [ -116.604174839680553, 48.134362576738098 ], [ -116.604040437182277, 48.134362113786146 ], [ -116.604039745459843, 48.134452081392965 ], [ -116.603770247808541, 48.134541122617122 ], [ -116.603768863407581, 48.134721057817792 ], [ -116.603634459980356, 48.13472059438854 ], [ -116.603633767540018, 48.134810561985283 ], [ -116.603499363881397, 48.134810098397409 ], [ -116.603498671202871, 48.134900065991268 ], [ -116.603229170274773, 48.134989105930643 ], [ -116.6032277839616, 48.135169041105442 ], [ -116.603093379374002, 48.135168577040247 ], [ -116.603092685977543, 48.135258544624051 ], [ -116.602823182473557, 48.135347583598723 ], [ -116.602821794724449, 48.135527518753392 ], [ -116.602687389207901, 48.135527054210847 ], [ -116.602686000975595, 48.135706989356919 ], [ -116.60255159499286, 48.135706524654303 ], [ -116.602549511914503, 48.135976427358358 ], [ -116.60241510523079, 48.135975962494193 ], [ -116.602411632191433, 48.136425800298532 ], [ -116.602546040049177, 48.136426265169995 ], [ -116.602545345665902, 48.136516232728042 ], [ -116.602813467944117, 48.136607129561909 ], [ -116.602812080099795, 48.136787064676746 ], [ -116.602946488906966, 48.136787529082518 ], [ -116.602945795214509, 48.136877496639251 ], [ -116.603080204259896, 48.136877960889308 ], [ -116.60307951079885, 48.136967928446069 ], [ -116.603213920082439, 48.136968392540396 ], [ -116.603213226852816, 48.137058360097221 ], [ -116.603347636374622, 48.137058824035819 ], [ -116.603480660369627, 48.137239222932422 ], [ -116.603749480369473, 48.137240150029569 ], [ -116.603748788068913, 48.137330117587929 ], [ -116.603883198308736, 48.137330580902187 ], [ -116.604016224879956, 48.13751097917752 ], [ -116.604285046315837, 48.13751190502596 ], [ -116.604284354944369, 48.137601872585869 ], [ -116.604418765902238, 48.137602335275766 ], [ -116.604551795049673, 48.137782732929836 ], [ -116.604820617921604, 48.137783657529525 ], [ -116.604953648944232, 48.137964054717969 ], [ -116.60522247277575, 48.137964978380374 ], [ -116.605221783031126, 48.138054945943317 ], [ -116.605490607345828, 48.138055868979883 ], [ -116.605623641417822, 48.13823626539272 ], [ -116.605892466692083, 48.138237187491967 ], [ -116.60589177811147, 48.13832715505788 ], [ -116.606026190988501, 48.138327615873187 ], [ -116.606025502639341, 48.138417583439121 ], [ -116.60615991575456, 48.138418044098678 ], [ -116.60615922763688, 48.138508011664648 ], [ -116.606293640990316, 48.138508472168461 ], [ -116.60629295310406, 48.138598439734459 ], [ -116.606561092870791, 48.138689327840865 ], [ -116.60655971802079, 48.138869262971511 ], [ -116.606827859669551, 48.138960150456462 ], [ -116.606826485738708, 48.139140085584344 ], [ -116.606960900752838, 48.13914054531233 ], [ -116.606958153790103, 48.139500415556768 ], [ -116.607226985707229, 48.139501334552719 ], [ -116.607226299427822, 48.139591302113161 ], [ -116.607629548033245, 48.139592679432475 ], [ -116.607628862455016, 48.139682646995823 ], [ -116.607897695345159, 48.139683564425617 ], [ -116.607897010233245, 48.1397735319904 ], [ -116.608300260298165, 48.139774906960461 ], [ -116.608299575887486, 48.139864874528158 ], [ -116.608702826687136, 48.139866248087799 ], [ -116.60870214297762, 48.13995621565838 ], [ -116.609105394511985, 48.139957587807586 ], [ -116.60910471150369, 48.140047555381038 ], [ -116.609642381202434, 48.140049382718331 ], [ -116.609641699130194, 48.14013935029611 ], [ -116.610044952143951, 48.140140719152839 ], [ -116.610044270772931, 48.140230686733489 ], [ -116.611118934673087, 48.140324297703607 ] ] ] } }
]
}
