{
"type": "FeatureCollection",
"name": "spokane_river_95_bridge_to_post_falls_dam",
"crs": { "type": "name", "properties": { "name": "urn:ogc:def:crs:OGC:1.3:CRS84" } },
"features": [
{ "type": "Feature", "properties": { }, "geometry": { "type": "MultiPolygon", "coordinates": [ [ [ [ -116.934317499470183, 47.700831196421262, 0.0 ], [ -116.934414966678503, 47.70088052973405, 0.0 ], [ -116.934374299945588, 47.700924396508206, 0.0 ], [ -116.934343401493066, 47.70092650342314, 0.0 ], [ -116.934280900308877, 47.700836077096795, 0.0 ], [ -116.934284966982176, 47.700831129314274, 0.0 ], [ -116.934317499470183, 47.700831196421262, 0.0 ] ] ], [ [ [ -116.934674966969496, 47.700820196309188, 0.0 ], [ -116.934691166289042, 47.700858596635364, 0.0 ], [ -116.934723767049007, 47.70090799642454, 0.0 ], [ -116.934748167088756, 47.701077996731634, 0.0 ], [ -116.934642566533824, 47.701083529709578, 0.0 ], [ -116.934544966374858, 47.701017729432991, 0.0 ], [ -116.934504367015577, 47.700847596529101, 0.0 ], [ -116.934577499761176, 47.700803796192751, 0.0 ], [ -116.934674966969496, 47.700820196309188, 0.0 ] ] ], [ [ [ -116.847944584615078, 47.696975408264699, 0.0 ], [ -116.848145973427052, 47.696936588500002, 0.0 ], [ -116.848245926273776, 47.69686546480704, 0.0 ], [ -116.84832204861263, 47.696859118780473, 0.0 ], [ -116.848471776210928, 47.696922117087034, 0.0 ], [ -116.848592547514357, 47.697195720129905, 0.0 ], [ -116.849064769401338, 47.697164128646072, 0.0 ], [ -116.849590379063969, 47.697203323704038, 0.0 ], [ -116.849900351735883, 47.697207991291926, 0.0 ], [ -116.850388812468282, 47.697170637880284, 0.0 ], [ -116.851373888839149, 47.697175606566994, 0.0 ], [ -116.851863241598622, 47.697183639417176, 0.0 ], [ -116.852762703133024, 47.697219841038127, 0.0 ], [ -116.854008133731128, 47.697041875692982, 0.0 ], [ -116.854084469869036, 47.69700349008933, 0.0 ], [ -116.854166221051472, 47.69701032402029, 0.0 ], [ -116.854294151029393, 47.697015754041274, 0.0 ], [ -116.854534359638066, 47.697108186442307, 0.0 ], [ -116.854948916870313, 47.697092482879448, 0.0 ], [ -116.855478563561832, 47.697039275862487, 0.0 ], [ -116.855920124151538, 47.697013940205117, 0.0 ], [ -116.856030761560262, 47.69694977450218, 0.0 ], [ -116.855979867507827, 47.696853929379543, 0.0 ], [ -116.856359906975285, 47.696725657962439, 0.0 ], [ -116.856711238082923, 47.69661009950746, 0.0 ], [ -116.856927134686714, 47.696491773459357, 0.0 ], [ -116.857112113973415, 47.696531900738549, 0.0 ], [ -116.857205641170893, 47.69649257457835, 0.0 ], [ -116.857690152909271, 47.696363304045356, 0.0 ], [ -116.857840525497949, 47.696377111741278, 0.0 ], [ -116.859090484503412, 47.696128860455119, 0.0 ], [ -116.860326808879478, 47.695937660389291, 0.0 ], [ -116.860446340507806, 47.695942539104394, 0.0 ], [ -116.861038543180769, 47.695833653377804, 0.0 ], [ -116.861639529580572, 47.695759581835006, 0.0 ], [ -116.861711672382725, 47.695739979837008, 0.0 ], [ -116.861813076906955, 47.695582692581795, 0.0 ], [ -116.862195667589816, 47.695479176426353, 0.0 ], [ -116.862551772344844, 47.695430589558235, 0.0 ], [ -116.86416070442607, 47.695312572218839, 0.0 ], [ -116.864704770874511, 47.695798773716433, 0.0 ], [ -116.864940306447053, 47.696054984625007, 0.0 ], [ -116.865206267059961, 47.696304287092957, 0.0 ], [ -116.865635961803093, 47.696557457920122, 0.0 ], [ -116.867438319131267, 47.697331081238119, 0.0 ], [ -116.867914613081439, 47.697521069400501, 0.0 ], [ -116.868472806436046, 47.697736499204119, 0.0 ], [ -116.86994535898576, 47.698172610103185, 0.0 ], [ -116.870071451010602, 47.698362262066546, 0.0 ], [ -116.871074153225663, 47.698605664156851, 0.0 ], [ -116.871515796460372, 47.698600123056231, 0.0 ], [ -116.872350059169804, 47.69858615270865, 0.0 ], [ -116.872962313138217, 47.698367408391007, 0.0 ], [ -116.873267763691018, 47.698314267971512, 0.0 ], [ -116.873486575327945, 47.698009462538408, 0.0 ], [ -116.873632707868467, 47.697742460595961, 0.0 ], [ -116.873726088640566, 47.697349017547133, 0.0 ], [ -116.873844380593795, 47.697040235381316, 0.0 ], [ -116.874160234535907, 47.69663328957725, 0.0 ], [ -116.874467304751164, 47.69637972611568, 0.0 ], [ -116.874869552369063, 47.696130009842129, 0.0 ], [ -116.875218908979704, 47.695926536505908, 0.0 ], [ -116.875517617676309, 47.695681060733378, 0.0 ], [ -116.875737879194091, 47.695485033475428, 0.0 ], [ -116.875808342146641, 47.695282663494488, 0.0 ], [ -116.87581901503053, 47.695268977039809, 0.0 ], [ -116.875919032555956, 47.69514071623486, 0.0 ], [ -116.875773419241668, 47.694938098830768, 0.0 ], [ -116.875410278881319, 47.694879560951499, 0.0 ], [ -116.875185527583739, 47.694844537352914, 0.0 ], [ -116.875087184518023, 47.694829212215936, 0.0 ], [ -116.874900449024949, 47.694696037033538, 0.0 ], [ -116.874922109203098, 47.694477879222944, 0.0 ], [ -116.874923530337853, 47.694463561915818, 0.0 ], [ -116.875185725213115, 47.694449107955755, 0.0 ], [ -116.875205765728793, 47.694448002670534, 0.0 ], [ -116.875244816392495, 47.694440093350451, 0.0 ], [ -116.875459543389823, 47.694396600835873, 0.0 ], [ -116.87592156849999, 47.694319382501995, 0.0 ], [ -116.876244368215879, 47.694260375933709, 0.0 ], [ -116.876616164742288, 47.694227711241588, 0.0 ], [ -116.876821189934546, 47.694406931150304, 0.0 ], [ -116.877441122701995, 47.694076725279444, 0.0 ], [ -116.877535475451225, 47.694176205190864, 0.0 ], [ -116.877708471212031, 47.694516585936334, 0.0 ], [ -116.878495655014021, 47.694437500645904, 0.0 ], [ -116.879032152257906, 47.694399492840411, 0.0 ], [ -116.879671621586155, 47.69421071226725, 0.0 ], [ -116.880174628737933, 47.69421813730191, 0.0 ], [ -116.880836793103526, 47.694215311798189, 0.0 ], [ -116.881535888108772, 47.694151309533389, 0.0 ], [ -116.882028198122129, 47.69412478978608, 0.0 ], [ -116.882476450262402, 47.694030315041779, 0.0 ], [ -116.882908714187224, 47.694038771024523, 0.0 ], [ -116.883240141323085, 47.693973798688759, 0.0 ], [ -116.883417048348605, 47.693947047875803, 0.0 ], [ -116.883708890323163, 47.69380430549446, 0.0 ], [ -116.883854081429305, 47.693718830389443, 0.0 ], [ -116.883939703452299, 47.693621262117901, 0.0 ], [ -116.884119608155899, 47.693586417860416, 0.0 ], [ -116.884899774318924, 47.693587928280571, 0.0 ], [ -116.885494282967201, 47.693760302125149, 0.0 ], [ -116.885716215351422, 47.693804905911165, 0.0 ], [ -116.88619851543757, 47.693750504379196, 0.0 ], [ -116.886705251496082, 47.693684979638192, 0.0 ], [ -116.886834510082309, 47.693558958196455, 0.0 ], [ -116.886999921367149, 47.693511545588493, 0.0 ], [ -116.887128469385999, 47.693491934884911, 0.0 ], [ -116.887307768625135, 47.693538766439772, 0.0 ], [ -116.887433598341929, 47.693616947930039, 0.0 ], [ -116.887395989474243, 47.693695443721381, 0.0 ], [ -116.887485432930447, 47.693735331897173, 0.0 ], [ -116.887666170372356, 47.693611276299187, 0.0 ], [ -116.887844524583798, 47.69373499329312, 0.0 ], [ -116.888159694907969, 47.693942716180061, 0.0 ], [ -116.888644445598217, 47.694324479040112, 0.0 ], [ -116.888574087748538, 47.694382829498643, 0.0 ], [ -116.888676690625346, 47.694447145288422, 0.0 ], [ -116.888802164609274, 47.694408630195078, 0.0 ], [ -116.888962124916972, 47.694469130664935, 0.0 ], [ -116.889148739137468, 47.694492539357761, 0.0 ], [ -116.889320654224974, 47.694496738591347, 0.0 ], [ -116.889447356205892, 47.694480933871539, 0.0 ], [ -116.889798386377905, 47.694389192756603, 0.0 ], [ -116.889876364636137, 47.694512633397885, 0.0 ], [ -116.890037428075004, 47.694514918941024, 0.0 ], [ -116.890635345829807, 47.694441033568609, 0.0 ], [ -116.891122103356395, 47.694403855939541, 0.0 ], [ -116.891139498333558, 47.694280817128856, 0.0 ], [ -116.891314541354873, 47.694208365037028, 0.0 ], [ -116.891671764512452, 47.694076133935567, 0.0 ], [ -116.891713067252567, 47.694277529680711, 0.0 ], [ -116.891851353009102, 47.6942700677712, 0.0 ], [ -116.891856271285278, 47.694048143045237, 0.0 ], [ -116.892188270647978, 47.694052483801876, 0.0 ], [ -116.89243520673979, 47.694013979300699, 0.0 ], [ -116.892673090508495, 47.693939133642516, 0.0 ], [ -116.892997486530646, 47.693921017184763, 0.0 ], [ -116.893298689848791, 47.693955800149283, 0.0 ], [ -116.893753557182791, 47.694060333320792, 0.0 ], [ -116.894017769674164, 47.694129738809693, 0.0 ], [ -116.894404342588686, 47.694006290610915, 0.0 ], [ -116.894507499726018, 47.694227683427982, 0.0 ], [ -116.894250774692551, 47.694478950042964, 0.0 ], [ -116.894391768869639, 47.694546160129129, 0.0 ], [ -116.894625935409707, 47.69429782635931, 0.0 ], [ -116.894699037612597, 47.694481931529879, 0.0 ], [ -116.894742836770888, 47.694586456390944, 0.0 ], [ -116.894779842869028, 47.694627368749522, 0.0 ], [ -116.894838095920264, 47.694658569964076, 0.0 ], [ -116.894948374002851, 47.694660607598685, 0.0 ], [ -116.895014860113648, 47.694745140342675, 0.0 ], [ -116.895167671628329, 47.694846426844165, 0.0 ], [ -116.895407447249028, 47.694974216757146, 0.0 ], [ -116.895667893104388, 47.695077011376775, 0.0 ], [ -116.895487163747319, 47.695271866577471, 0.0 ], [ -116.895821983820014, 47.695400273985065, 0.0 ], [ -116.89621029856788, 47.695554124474874, 0.0 ], [ -116.896390263458628, 47.695602561280076, 0.0 ], [ -116.896474167902809, 47.695450955925125, 0.0 ], [ -116.896676370588423, 47.695619386272405, 0.0 ], [ -116.896856239359451, 47.695709522356367, 0.0 ], [ -116.897329059524409, 47.695876395563097, 0.0 ], [ -116.897813284700206, 47.696079447672851, 0.0 ], [ -116.898002195912895, 47.696134615250031, 0.0 ], [ -116.898212072905977, 47.696067554739237, 0.0 ], [ -116.89838654549709, 47.696078846073057, 0.0 ], [ -116.898575248300631, 47.696071151036911, 0.0 ], [ -116.89868524521053, 47.696159365455941, 0.0 ], [ -116.898660875713489, 47.696288849320986, 0.0 ], [ -116.898582232701969, 47.696490306655797, 0.0 ], [ -116.898633681913239, 47.696526484573454, 0.0 ], [ -116.89894885223741, 47.696748146022678, 0.0 ], [ -116.899082448788135, 47.696962404862013, 0.0 ], [ -116.899187973884565, 47.697130956086099, 0.0 ], [ -116.899392688259709, 47.697309887291816, 0.0 ], [ -116.899653408101258, 47.697361861236892, 0.0 ], [ -116.899925033490334, 47.697376698920181, 0.0 ], [ -116.900156546407047, 47.697366248272481, 0.0 ], [ -116.900380837767187, 47.697514506400125, 0.0 ], [ -116.90071278951919, 47.697703198227615, 0.0 ], [ -116.900929260146469, 47.697823488299086, 0.0 ], [ -116.901362151993666, 47.697980493701522, 0.0 ], [ -116.901867278271197, 47.698054470190158, 0.0 ], [ -116.901970269220229, 47.69806212623925, 0.0 ], [ -116.902069334531419, 47.697977677470746, 0.0 ], [ -116.902791771361024, 47.698038268117145, 0.0 ], [ -116.902968187906396, 47.698044601908194, 0.0 ], [ -116.903001216264457, 47.698162343413038, 0.0 ], [ -116.903563538276103, 47.698186308492254, 0.0 ], [ -116.903984231900083, 47.698174191128487, 0.0 ], [ -116.904451157320153, 47.698221952582216, 0.0 ], [ -116.904968958826302, 47.698255682491677, 0.0 ], [ -116.905392687857628, 47.698228037256627, 0.0 ], [ -116.905738641649961, 47.698216855215861, 0.0 ], [ -116.906062874178716, 47.698216631514555, 0.0 ], [ -116.906412151737612, 47.698185703893785, 0.0 ], [ -116.906828766111872, 47.69811908677385, 0.0 ], [ -116.906760512116577, 47.69794451510198, 0.0 ], [ -116.907157965425839, 47.697867565628663, 0.0 ], [ -116.907574657953518, 47.697743403173, 0.0 ], [ -116.907629327625088, 47.697815035348555, 0.0 ], [ -116.907766478809407, 47.69779336940401, 0.0 ], [ -116.907917457760888, 47.697778662433535, 0.0 ], [ -116.908346999790396, 47.697670816833281, 0.0 ], [ -116.908780347981761, 47.697600533938534, 0.0 ], [ -116.909156048586411, 47.697526102746686, 0.0 ], [ -116.909436841282982, 47.697387845469237, 0.0 ], [ -116.909503637312568, 47.697402339123464, 0.0 ], [ -116.909579531479352, 47.697394408485614, 0.0 ], [ -116.909666300650969, 47.697359436154052, 0.0 ], [ -116.909933121849889, 47.697277135632461, 0.0 ], [ -116.909884653248739, 47.697119525919604, 0.0 ], [ -116.910304568931679, 47.696949472800426, 0.0 ], [ -116.910874898525805, 47.696676087336371, 0.0 ], [ -116.910985376034361, 47.696781148324789, 0.0 ], [ -116.91108493811393, 47.696714201708645, 0.0 ], [ -116.91143634378173, 47.696539733559554, 0.0 ], [ -116.911846636711346, 47.69649102433754, 0.0 ], [ -116.912004278467293, 47.696427522467225, 0.0 ], [ -116.912230852446555, 47.696329633373651, 0.0 ], [ -116.912329041002067, 47.696290457006768, 0.0 ], [ -116.91257732995669, 47.696185271686758, 0.0 ], [ -116.912688079654828, 47.696144697325053, 0.0 ], [ -116.912889883488447, 47.696026902289489, 0.0 ], [ -116.913026891840644, 47.695982995117106, 0.0 ], [ -116.913180857690449, 47.695948397915267, 0.0 ], [ -116.91338317086884, 47.695921480634205, 0.0 ], [ -116.913882658421315, 47.695848579166714, 0.0 ], [ -116.914226166999455, 47.695764363826584, 0.0 ], [ -116.914525454211073, 47.695742158912047, 0.0 ], [ -116.914600460842351, 47.695724240793709, 0.0 ], [ -116.915119447226388, 47.695677833231635, 0.0 ], [ -116.915273982608113, 47.695675132360314, 0.0 ], [ -116.915306736979986, 47.695627670283052, 0.0 ], [ -116.91541582659147, 47.695583693846842, 0.0 ], [ -116.915506981338282, 47.695576926842676, 0.0 ], [ -116.915657845305418, 47.695582488821948, 0.0 ], [ -116.915725437242344, 47.695568843560778, 0.0 ], [ -116.91575817993612, 47.695533646896521, 0.0 ], [ -116.915766468691245, 47.695492026018393, 0.0 ], [ -116.915749604618426, 47.695436626187906, 0.0 ], [ -116.91570902322546, 47.695335327530977, 0.0 ], [ -116.915661373887843, 47.695268767232406, 0.0 ], [ -116.915630214025583, 47.695167385414585, 0.0 ], [ -116.915627718505746, 47.694872854319641, 0.0 ], [ -116.915642008905266, 47.694599083090779, 0.0 ], [ -116.915784987460839, 47.694554152268907, 0.0 ], [ -116.915810381037304, 47.694430720795538, 0.0 ], [ -116.915781365453611, 47.694347301294179, 0.0 ], [ -116.915707514954121, 47.694324627177693, 0.0 ], [ -116.915709435552188, 47.694104396296815, 0.0 ], [ -116.915722667736318, 47.693934736039573, 0.0 ], [ -116.915778809746627, 47.693755149299456, 0.0 ], [ -116.915904178627684, 47.693667977463683, 0.0 ], [ -116.916015416110994, 47.693637706819281, 0.0 ], [ -116.916130219905995, 47.693639194865867, 0.0 ], [ -116.916236668470546, 47.693604090620134, 0.0 ], [ -116.9165026317784, 47.693468837743936, 0.0 ], [ -116.916622324205136, 47.69357075737647, 0.0 ], [ -116.916680244879743, 47.693535913689907, 0.0 ], [ -116.916964200544413, 47.693439269591323, 0.0 ], [ -116.917089996125213, 47.693406582012678, 0.0 ], [ -116.917292389253689, 47.693380408353491, 0.0 ], [ -116.917672417941361, 47.693327446666402, 0.0 ], [ -116.917794428021551, 47.69331876805532, 0.0 ], [ -116.917845863758103, 47.693188929742128, 0.0 ], [ -116.918201168114237, 47.693204376897064, 0.0 ], [ -116.918534360439622, 47.693179910081717, 0.0 ], [ -116.91889718189806, 47.693198996061021, 0.0 ], [ -116.919202699824496, 47.69316317923338, 0.0 ], [ -116.919365987491986, 47.693155936654847, 0.0 ], [ -116.919511935877892, 47.693145829815649, 0.0 ], [ -116.919620420923181, 47.693168292814875, 0.0 ], [ -116.919657169204825, 47.693147413412078, 0.0 ], [ -116.919662159346245, 47.693099964755184, 0.0 ], [ -116.920509488051465, 47.693117167861068, 0.0 ], [ -116.920849479725248, 47.69333625588142, 0.0 ], [ -116.921201596858708, 47.693475930929694, 0.0 ], [ -116.921388393437226, 47.693677661550808, 0.0 ], [ -116.921611349900843, 47.694059957835407, 0.0 ], [ -116.921749953661006, 47.694252470817702, 0.0 ], [ -116.922028856302191, 47.694554585191533, 0.0 ], [ -116.922311049472285, 47.694832341214294, 0.0 ], [ -116.922459027152399, 47.69496541991149, 0.0 ], [ -116.922713401294772, 47.695212665790542, 0.0 ], [ -116.92289877404356, 47.695390189952235, 0.0 ], [ -116.923065511241759, 47.695683011261693, 0.0 ], [ -116.923625027814779, 47.696132126624789, 0.0 ], [ -116.924108538829941, 47.696354545525118, 0.0 ], [ -116.924311700916292, 47.696567532053351, 0.0 ], [ -116.924515208854018, 47.696783240896423, 0.0 ], [ -116.924644992056372, 47.696841958627367, 0.0 ], [ -116.924666413282637, 47.696979779008259, 0.0 ], [ -116.924690089280261, 47.697087040774264, 0.0 ], [ -116.924624547298805, 47.697164475087746, 0.0 ], [ -116.924549952994255, 47.697199417924224, 0.0 ], [ -116.924422111949553, 47.697314600215783, 0.0 ], [ -116.924561507125418, 47.697440796986299, 0.0 ], [ -116.924766727252091, 47.697514198050904, 0.0 ], [ -116.924811490302702, 47.697579251224745, 0.0 ], [ -116.924780886497615, 47.697666081571093, 0.0 ], [ -116.924690125212862, 47.697828375906838, 0.0 ], [ -116.924551497198237, 47.697978397550386, 0.0 ], [ -116.924520275352208, 47.698171885794011, 0.0 ], [ -116.924781579098678, 47.698432673922525, 0.0 ], [ -116.924907721429207, 47.698530053626889, 0.0 ], [ -116.924905613981537, 47.698597126085403, 0.0 ], [ -116.924944367302885, 47.698770415651538, 0.0 ], [ -116.925015226412498, 47.699040358489952, 0.0 ], [ -116.92502928414838, 47.699111191432387, 0.0 ], [ -116.925179980130565, 47.699208267576154, 0.0 ], [ -116.925338891206025, 47.699296294707466, 0.0 ], [ -116.925467553310881, 47.699396233818469, 0.0 ], [ -116.925637782260608, 47.699528403666648, 0.0 ], [ -116.925562281555912, 47.69961612131609, 0.0 ], [ -116.925623683202232, 47.699670424832163, 0.0 ], [ -116.925928074641291, 47.699780851480384, 0.0 ], [ -116.926405435790016, 47.699984040134034, 0.0 ], [ -116.926613508966014, 47.700044280817089, 0.0 ], [ -116.926734475203872, 47.699957963485915, 0.0 ], [ -116.927337965208352, 47.700260397269382, 0.0 ], [ -116.927767590781215, 47.700447830717749, 0.0 ], [ -116.92763974793985, 47.700582194909899, 0.0 ], [ -116.927814515178397, 47.700773769704583, 0.0 ], [ -116.92794022631756, 47.7007905785186, 0.0 ], [ -116.928154545479714, 47.700761805898061, 0.0 ], [ -116.928279684392052, 47.700780182966312, 0.0 ], [ -116.928705945774141, 47.700804102104215, 0.0 ], [ -116.929226479955446, 47.7007928269079, 0.0 ], [ -116.929459952097773, 47.700652181778075, 0.0 ], [ -116.929926501123759, 47.70070933778171, 0.0 ], [ -116.930205692124147, 47.700593684774311, 0.0 ], [ -116.930443459111871, 47.700539237727405, 0.0 ], [ -116.930725808588818, 47.700544241762749, 0.0 ], [ -116.931321040380922, 47.700602083467629, 0.0 ], [ -116.931462633734313, 47.700583187614924, 0.0 ], [ -116.9318307741175, 47.700492500727286, 0.0 ], [ -116.93211898600002, 47.700408715484087, 0.0 ], [ -116.932511348556559, 47.700334441862815, 0.0 ], [ -116.932572157314766, 47.700211146801138, 0.0 ], [ -116.93270676986009, 47.700172528350926, 0.0 ], [ -116.932845068193032, 47.700058108093849, 0.0 ], [ -116.933152301003375, 47.700032330748442, 0.0 ], [ -116.933264529328454, 47.700033310767836, 0.0 ], [ -116.933339903370651, 47.69980848561427, 0.0 ], [ -116.933705619200936, 47.699722881902446, 0.0 ], [ -116.934016171286203, 47.699479365320293, 0.0 ], [ -116.933986290624929, 47.699357406787406, 0.0 ], [ -116.934054219430081, 47.699282559125649, 0.0 ], [ -116.934139790249091, 47.699257750548192, 0.0 ], [ -116.93425282256635, 47.699262176722399, 0.0 ], [ -116.934481254261641, 47.699287698708851, 0.0 ], [ -116.934707083537532, 47.699349064119986, 0.0 ], [ -116.934859701914405, 47.699364028200591, 0.0 ], [ -116.934888289001705, 47.699511039438377, 0.0 ], [ -116.935035229127678, 47.699512763104799, 0.0 ], [ -116.935353663031279, 47.699512951130124, 0.0 ], [ -116.935676353152687, 47.699395540964687, 0.0 ], [ -116.935788884210041, 47.699416411819861, 0.0 ], [ -116.935799195072846, 47.699341442116626, 0.0 ], [ -116.936299948351561, 47.699470028132438, 0.0 ], [ -116.936402699450412, 47.699597751697027, 0.0 ], [ -116.936475410886118, 47.699575257610896, 0.0 ], [ -116.936840171807262, 47.699505335196569, 0.0 ], [ -116.936993348936213, 47.69952517519387, 0.0 ], [ -116.937280885285631, 47.699446047319491, 0.0 ], [ -116.937487213933366, 47.699465824462685, 0.0 ], [ -116.937587368002667, 47.699607013289295, 0.0 ], [ -116.937867194111988, 47.699782616853845, 0.0 ], [ -116.937927025503186, 47.699792304642045, 0.0 ], [ -116.938029223239795, 47.699695094764195, 0.0 ], [ -116.938377484804107, 47.699780966350581, 0.0 ], [ -116.938758288737887, 47.699891475591954, 0.0 ], [ -116.938897447656856, 47.699875223909757, 0.0 ], [ -116.939014491850159, 47.699850775943474, 0.0 ], [ -116.939087378457359, 47.699790335525492, 0.0 ], [ -116.939108895803372, 47.699726646021361, 0.0 ], [ -116.939092642584939, 47.699610162556738, 0.0 ], [ -116.938866735155599, 47.699559037268408, 0.0 ], [ -116.938786404209637, 47.699581229675012, 0.0 ], [ -116.93866461152173, 47.69953231954991, 0.0 ], [ -116.938686610364726, 47.699453463749066, 0.0 ], [ -116.938798959962369, 47.699396296695234, 0.0 ], [ -116.938973167550458, 47.699347119170106, 0.0 ], [ -116.939253706023806, 47.699399582611491, 0.0 ], [ -116.939330151756167, 47.699586530652212, 0.0 ], [ -116.939478173453736, 47.699565022635234, 0.0 ], [ -116.939750248000479, 47.699611261082161, 0.0 ], [ -116.939933506115068, 47.699734632530458, 0.0 ], [ -116.940018379841433, 47.699790748453545, 0.0 ], [ -116.940258892978974, 47.699880403336678, 0.0 ], [ -116.940748889830459, 47.700030162735089, 0.0 ], [ -116.940915971083427, 47.700105436758932, 0.0 ], [ -116.941206046071827, 47.700191307064863, 0.0 ], [ -116.941386522103969, 47.700221903398067, 0.0 ], [ -116.942059353065233, 47.70037208199377, 0.0 ], [ -116.942179162273007, 47.700403669115644, 0.0 ], [ -116.94239962052184, 47.700535948860121, 0.0 ], [ -116.94296877691616, 47.700799067260846, 0.0 ], [ -116.943437189048026, 47.700851785577825, 0.0 ], [ -116.943832936456559, 47.70086953688719, 0.0 ], [ -116.944220166937868, 47.700851765627057, 0.0 ], [ -116.944317664688938, 47.700779767023292, 0.0 ], [ -116.944227332798889, 47.700544756252796, 0.0 ], [ -116.944099092003881, 47.700372963461369, 0.0 ], [ -116.944097808311355, 47.700184648877666, 0.0 ], [ -116.944294005759289, 47.700225974000382, 0.0 ], [ -116.94432235479303, 47.700140246431431, 0.0 ], [ -116.944319130739487, 47.70000312664574, 0.0 ], [ -116.944169923265733, 47.699961942817602, 0.0 ], [ -116.94429732233931, 47.699676928916851, 0.0 ], [ -116.944360101102959, 47.69960243599887, 0.0 ], [ -116.94450144921629, 47.699541799408159, 0.0 ], [ -116.944605736434255, 47.699517030856555, 0.0 ], [ -116.94466026147704, 47.699665111167306, 0.0 ], [ -116.94509068385554, 47.699652514109601, 0.0 ], [ -116.945181437953735, 47.69963226788181, 0.0 ], [ -116.945381926653795, 47.699536927075627, 0.0 ], [ -116.945527769038506, 47.699527381316948, 0.0 ], [ -116.946000190351484, 47.699683219583576, 0.0 ], [ -116.946100825019471, 47.699708657327164, 0.0 ], [ -116.946387587021121, 47.699670658805097, 0.0 ], [ -116.946522496908784, 47.69968083209276, 0.0 ], [ -116.946590590105643, 47.69971004484011, 0.0 ], [ -116.946469560087422, 47.699918502670506, 0.0 ], [ -116.946366319406778, 47.699974715128086, 0.0 ], [ -116.94618077957135, 47.700010593780561, 0.0 ], [ -116.946202732600256, 47.700151279938638, 0.0 ], [ -116.946124730087519, 47.700212120166846, 0.0 ], [ -116.946128989898597, 47.700264796152588, 0.0 ], [ -116.946268428193633, 47.700284238051097, 0.0 ], [ -116.946276853492677, 47.70044663850129, 0.0 ], [ -116.946348390830309, 47.700551129036455, 0.0 ], [ -116.946306697323053, 47.700647931651751, 0.0 ], [ -116.946440522045862, 47.700710902406783, 0.0 ], [ -116.946583108037643, 47.70083793976994, 0.0 ], [ -116.946447512735389, 47.700877844246385, 0.0 ], [ -116.946599376527431, 47.700977014340488, 0.0 ], [ -116.946749446383848, 47.701202462596413, 0.0 ], [ -116.946882962086207, 47.701387640666916, 0.0 ], [ -116.946951662544208, 47.701407962387691, 0.0 ], [ -116.947530462353114, 47.70162997186489, 0.0 ], [ -116.948040791672796, 47.701793491389239, 0.0 ], [ -116.948339151823035, 47.702005224222894, 0.0 ], [ -116.948578070450949, 47.702150719654632, 0.0 ], [ -116.948632763478699, 47.702172829343489, 0.0 ], [ -116.948782218887445, 47.702056056322164, 0.0 ], [ -116.948965714157296, 47.702115499019392, 0.0 ], [ -116.949146369852514, 47.702212795066956, 0.0 ], [ -116.949327021056149, 47.702292791108974, 0.0 ], [ -116.94938020491422, 47.702359645925171, 0.0 ], [ -116.949341139877447, 47.702430084423668, 0.0 ], [ -116.949355265885316, 47.702484308835579, 0.0 ], [ -116.94931671737983, 47.7025799253664, 0.0 ], [ -116.949063034940238, 47.703134195153332, 0.0 ], [ -116.949118824810952, 47.703266611245404, 0.0 ], [ -116.949282314599387, 47.703322461601402, 0.0 ], [ -116.949436696369176, 47.70321819304619, 0.0 ], [ -116.94962434365226, 47.702854690880578, 0.0 ], [ -116.949729143808241, 47.702556392744754, 0.0 ], [ -116.949915800249542, 47.702541758454558, 0.0 ], [ -116.950374656103421, 47.702740707551193, 0.0 ], [ -116.95074221707327, 47.703006092740836, 0.0 ], [ -116.951110732053962, 47.703297430662346, 0.0 ], [ -116.951240210727448, 47.703561194070055, 0.0 ], [ -116.95136517087505, 47.703704394578033, 0.0 ], [ -116.951732075176437, 47.703751175852396, 0.0 ], [ -116.951893370380631, 47.703739147439435, 0.0 ], [ -116.952597371085659, 47.703660321578525, 0.0 ], [ -116.952663815873947, 47.703798965446389, 0.0 ], [ -116.953403447356408, 47.703895362435148, 0.0 ], [ -116.953518503577982, 47.703682127755229, 0.0 ], [ -116.954014757195438, 47.704328151324432, 0.0 ], [ -116.953883925659156, 47.704448145006175, 0.0 ], [ -116.953938434532262, 47.70452932490489, 0.0 ], [ -116.954057764938, 47.704607271682903, 0.0 ], [ -116.954041933927726, 47.70473445068189, 0.0 ], [ -116.953829083511067, 47.704861971529532, 0.0 ], [ -116.953597425067272, 47.704954659636172, 0.0 ], [ -116.95314004784035, 47.705053467122447, 0.0 ], [ -116.952969850331684, 47.70509753108535, 0.0 ], [ -116.952950170938749, 47.705207127722026, 0.0 ], [ -116.953057233052633, 47.70539737191033, 0.0 ], [ -116.953755447708886, 47.705782725116961, 0.0 ], [ -116.953961651490786, 47.705910408431031, 0.0 ], [ -116.954079574236445, 47.706055198384483, 0.0 ], [ -116.954336734054536, 47.70616247593636, 0.0 ], [ -116.954350396531694, 47.706256808401768, 0.0 ], [ -116.954492004258128, 47.706387523347921, 0.0 ], [ -116.954504671401935, 47.706540802201395, 0.0 ], [ -116.954435168748404, 47.706752458325717, 0.0 ], [ -116.954106362896539, 47.707020514912351, 0.0 ], [ -116.953955437843973, 47.707189350374627, 0.0 ], [ -116.953860971907005, 47.707351595116748, 0.0 ], [ -116.953738871096959, 47.70769234382157, 0.0 ], [ -116.953723438040385, 47.707852169657045, 0.0 ], [ -116.953791930987549, 47.708047770801478, 0.0 ], [ -116.953909576153748, 47.708174064301815, 0.0 ], [ -116.953935685687497, 47.708256111873794, 0.0 ], [ -116.953898154074921, 47.708360271821498, 0.0 ], [ -116.953974309651471, 47.708432641986832, 0.0 ], [ -116.953367795917714, 47.708498445598138, 0.0 ], [ -116.953483487248207, 47.709085431170784, 0.0 ], [ -116.953039186796914, 47.7091058206139, 0.0 ], [ -116.95269903971456, 47.709108468200441, 0.0 ], [ -116.952579586239651, 47.709088061228634, 0.0 ], [ -116.952502942877928, 47.709049564808609, 0.0 ], [ -116.952398771542633, 47.708931395141029, 0.0 ], [ -116.95252877123896, 47.708508599028683, 0.0 ], [ -116.95252327175281, 47.708371567142358, 0.0 ], [ -116.952467953497603, 47.708233362200808, 0.0 ], [ -116.952213823696994, 47.708196806746912, 0.0 ], [ -116.952042994672667, 47.708143162536011, 0.0 ], [ -116.951956486910817, 47.707910550917482, 0.0 ], [ -116.951666904199172, 47.707499995315445, 0.0 ], [ -116.951478862555717, 47.707267716320153, 0.0 ], [ -116.951312158595172, 47.707099591997995, 0.0 ], [ -116.951082717193515, 47.706959111380471, 0.0 ], [ -116.950744339792294, 47.706722543469247, 0.0 ], [ -116.950777738256221, 47.705759305171142, 0.0 ], [ -116.949725503834699, 47.705112307324335, 0.0 ], [ -116.949454068888457, 47.705042002421713, 0.0 ], [ -116.949061025408952, 47.704873834649135, 0.0 ], [ -116.94884179066554, 47.704716416562889, 0.0 ], [ -116.948538267897334, 47.704657252494066, 0.0 ], [ -116.948339087144319, 47.704680101660649, 0.0 ], [ -116.947849892488378, 47.704636852242793, 0.0 ], [ -116.947787684154946, 47.704622692483298, 0.0 ], [ -116.947372953547841, 47.704835410077109, 0.0 ], [ -116.947005795921541, 47.705089030348155, 0.0 ], [ -116.945847902554618, 47.704637395709561, 0.0 ], [ -116.944880969457529, 47.704264528421277, 0.0 ], [ -116.945478797380773, 47.703625423576071, 0.0 ], [ -116.945141689299049, 47.703510686865613, 0.0 ], [ -116.944134010417301, 47.702821009891842, 0.0 ], [ -116.943664470001437, 47.702511475429766, 0.0 ], [ -116.943022785427686, 47.701985981260002, 0.0 ], [ -116.942304901259973, 47.70227359601175, 0.0 ], [ -116.942011233010433, 47.702120241736665, 0.0 ], [ -116.941217072891931, 47.70189694120328, 0.0 ], [ -116.941321794894492, 47.701660953061868, 0.0 ], [ -116.940830750607347, 47.701547997291762, 0.0 ], [ -116.940453919922092, 47.701475127268949, 0.0 ], [ -116.940096138910732, 47.70140118344365, 0.0 ], [ -116.939408882802624, 47.701362099153364, 0.0 ], [ -116.939166008892485, 47.701430877666567, 0.0 ], [ -116.938880662635768, 47.701376723497191, 0.0 ], [ -116.938479375316874, 47.701349680851415, 0.0 ], [ -116.938373940950285, 47.701296886863034, 0.0 ], [ -116.938166445391019, 47.701315247419522, 0.0 ], [ -116.937881851024173, 47.701357149607041, 0.0 ], [ -116.937732872620842, 47.701395867536938, 0.0 ], [ -116.93739874694586, 47.701420245858671, 0.0 ], [ -116.937291167402364, 47.701476005090512, 0.0 ], [ -116.936836789650215, 47.701435695411661, 0.0 ], [ -116.936486966813945, 47.701445596302584, 0.0 ], [ -116.936357127017715, 47.701449978762632, 0.0 ], [ -116.93626762247608, 47.701521264269417, 0.0 ], [ -116.936141033682873, 47.701521938958166, 0.0 ], [ -116.936044780098499, 47.701341323993333, 0.0 ], [ -116.935978566177212, 47.701363606930023, 0.0 ], [ -116.935617492840336, 47.701259095654493, 0.0 ], [ -116.935311022699679, 47.700856288396736, 0.0 ], [ -116.935101441252314, 47.700733465528408, 0.0 ], [ -116.934863747926457, 47.700757949959431, 0.0 ], [ -116.934545011290595, 47.700787128247406, 0.0 ], [ -116.934261371832903, 47.700807823220764, 0.0 ], [ -116.934280900308877, 47.700836077096795, 0.0 ], [ -116.934244366724585, 47.700880529734057, 0.0 ], [ -116.934293166804068, 47.700929929502443, 0.0 ], [ -116.934343401493066, 47.70092650342314, 0.0 ], [ -116.93464089117586, 47.701356912618863, 0.0 ], [ -116.934521725161801, 47.701533099734995, 0.0 ], [ -116.934272777742081, 47.701614313796718, 0.0 ], [ -116.934063986812163, 47.701657123790312, 0.0 ], [ -116.933723410335105, 47.701843309249909, 0.0 ], [ -116.933356253607144, 47.701948874302467, 0.0 ], [ -116.932915358669092, 47.701898381858868, 0.0 ], [ -116.932736315449787, 47.701899783822839, 0.0 ], [ -116.93218866472337, 47.701927991765452, 0.0 ], [ -116.932019966502878, 47.701994110097779, 0.0 ], [ -116.930799165913243, 47.702076743537127, 0.0 ], [ -116.930257418914849, 47.702008181701849, 0.0 ], [ -116.930088455691347, 47.701970137700521, 0.0 ], [ -116.929803212740879, 47.701905424324373, 0.0 ], [ -116.929512749680285, 47.70188773805517, 0.0 ], [ -116.929133874429425, 47.701915662467911, 0.0 ], [ -116.928760080948138, 47.701993928126925, 0.0 ], [ -116.928552208994759, 47.70201201276128, 0.0 ], [ -116.927830188983464, 47.702020046075475, 0.0 ], [ -116.927681420785902, 47.70205863595222, 0.0 ], [ -116.927449195505147, 47.702126922649668, 0.0 ], [ -116.927005022614608, 47.702161168738741, 0.0 ], [ -116.927027975468434, 47.702240057926289, 0.0 ], [ -116.927163113528195, 47.702302833301999, 0.0 ], [ -116.927282123235372, 47.702517439298404, 0.0 ], [ -116.927378717281229, 47.702625792365716, 0.0 ], [ -116.927600695479512, 47.702726258908299, 0.0 ], [ -116.927776243354018, 47.702861568780861, 0.0 ], [ -116.927837570440147, 47.703002273240742, 0.0 ], [ -116.927768172889486, 47.703059221123624, 0.0 ], [ -116.927483185958891, 47.703167397143481, 0.0 ], [ -116.927417466111024, 47.703282208967885, 0.0 ], [ -116.92740806434324, 47.703392330533163, 0.0 ], [ -116.927476266236241, 47.703530900755815, 0.0 ], [ -116.927570223726747, 47.703572345342302, 0.0 ], [ -116.92761293951682, 47.703630065803083, 0.0 ], [ -116.927503259712211, 47.703690108822052, 0.0 ], [ -116.927324248832278, 47.703685183678147, 0.0 ], [ -116.927169630805579, 47.703661482285668, 0.0 ], [ -116.927048075272921, 47.703587186698975, 0.0 ], [ -116.926911092073553, 47.703541383417324, 0.0 ], [ -116.926801587440437, 47.703496217277312, 0.0 ], [ -116.926780074586006, 47.703385290686683, 0.0 ], [ -116.926721745177971, 47.703252766683441, 0.0 ], [ -116.926831456423614, 47.703183314697576, 0.0 ], [ -116.927016802222923, 47.703048841137289, 0.0 ], [ -116.927156884610014, 47.702996378345446, 0.0 ], [ -116.927109435596705, 47.70286725089192, 0.0 ], [ -116.926984365854636, 47.70278929425745, 0.0 ], [ -116.926882566071697, 47.702750530207929, 0.0 ], [ -116.926608905998506, 47.702697931092921, 0.0 ], [ -116.926423146974159, 47.70261390817992, 0.0 ], [ -116.926566571992424, 47.702432266846408, 0.0 ], [ -116.926437434678732, 47.702319914879823, 0.0 ], [ -116.926151298802878, 47.702399397494908, 0.0 ], [ -116.926161439884112, 47.702167454873823, 0.0 ], [ -116.925941997629891, 47.702088146016514, 0.0 ], [ -116.925614716219044, 47.70193425253737, 0.0 ], [ -116.925678405874365, 47.701802832997416, 0.0 ], [ -116.925532673084149, 47.701740200904254, 0.0 ], [ -116.92535536630831, 47.701704714590875, 0.0 ], [ -116.925209450261775, 47.701637389192882, 0.0 ], [ -116.925070418005234, 47.701564873566774, 0.0 ], [ -116.924961129866091, 47.701495231313999, 0.0 ], [ -116.924857361874373, 47.701555177039566, 0.0 ], [ -116.924194587552691, 47.701304115615024, 0.0 ], [ -116.924047097657763, 47.701203530860049, 0.0 ], [ -116.923766353470242, 47.700893857416617, 0.0 ], [ -116.923591808115575, 47.700768963989709, 0.0 ], [ -116.923181471168533, 47.700474235403384, 0.0 ], [ -116.923045208418046, 47.700300261681441, 0.0 ], [ -116.922893490153029, 47.700180317700145, 0.0 ], [ -116.92271291440791, 47.700124887785528, 0.0 ], [ -116.922626921380697, 47.700025147163423, 0.0 ], [ -116.922251764256814, 47.699694930922774, 0.0 ], [ -116.922177751162224, 47.699563349150942, 0.0 ], [ -116.922037917608463, 47.699473341250297, 0.0 ], [ -116.921920381138378, 47.699446402210228, 0.0 ], [ -116.921745409982279, 47.699320336047805, 0.0 ], [ -116.921633540983322, 47.69925008983801, 0.0 ], [ -116.921520696413964, 47.699179330843876, 0.0 ], [ -116.921370278909535, 47.699136789066209, 0.0 ], [ -116.921313057124237, 47.699072795260435, 0.0 ], [ -116.921197275063918, 47.699090830727322, 0.0 ], [ -116.921008763601534, 47.698948797704944, 0.0 ], [ -116.921189660045243, 47.698957913101779, 0.0 ], [ -116.921320363122433, 47.698925345063799, 0.0 ], [ -116.921439591120205, 47.698854990100116, 0.0 ], [ -116.92146773803303, 47.698695267269187, 0.0 ], [ -116.921388526387901, 47.69847225134022, 0.0 ], [ -116.921367013533484, 47.698235704162968, 0.0 ], [ -116.921455834457205, 47.698028740222121, 0.0 ], [ -116.921544200833381, 47.697862612122961, 0.0 ], [ -116.921697457014105, 47.697754788462078, 0.0 ], [ -116.921920232018039, 47.69772027405736, 0.0 ], [ -116.921937076327922, 47.697650742752877, 0.0 ], [ -116.922085404351023, 47.697567789717048, 0.0 ], [ -116.922030421167435, 47.697334863063389, 0.0 ], [ -116.921887923210534, 47.697120709143014, 0.0 ], [ -116.921785512573194, 47.697044865497894, 0.0 ], [ -116.921653962384681, 47.697096621442526, 0.0 ], [ -116.921505069321285, 47.697015752832023, 0.0 ], [ -116.921334233110429, 47.696962092881883, 0.0 ], [ -116.921060282881385, 47.696895075153677, 0.0 ], [ -116.920521536256032, 47.696805129758879, 0.0 ], [ -116.920276468660006, 47.696819636876548, 0.0 ], [ -116.92007525412123, 47.69684365819743, 0.0 ], [ -116.919978064492298, 47.696825409129026, 0.0 ], [ -116.91993258817935, 47.6967848086624, 0.0 ], [ -116.91969338748045, 47.696777314462508, 0.0 ], [ -116.919479567781579, 47.696774019916376, 0.0 ], [ -116.91922319937926, 47.696800827322065, 0.0 ], [ -116.918791599309429, 47.696780465714745, 0.0 ], [ -116.918674525471729, 47.696774488492878, 0.0 ], [ -116.918481010393222, 47.696722024828368, 0.0 ], [ -116.918201977496295, 47.696700908629907, 0.0 ], [ -116.918085259391418, 47.696705578076646, 0.0 ], [ -116.917879969196193, 47.696754724839565, 0.0 ], [ -116.917666829521977, 47.696764914416185, 0.0 ], [ -116.917500106696835, 47.696783381167023, 0.0 ], [ -116.917429825203939, 47.696799682786747, 0.0 ], [ -116.9171904753847, 47.696928144474853, 0.0 ], [ -116.916961883789298, 47.696961641840865, 0.0 ], [ -116.916834371527969, 47.696967941904362, 0.0 ], [ -116.916628182119126, 47.697086475462754, 0.0 ], [ -116.916349734025459, 47.697331792257586, 0.0 ], [ -116.916134138357265, 47.697334548062429, 0.0 ], [ -116.915979525720459, 47.697417015969677, 0.0 ], [ -116.915807692379644, 47.697370638935347, 0.0 ], [ -116.915798554716574, 47.697252284382749, 0.0 ], [ -116.91568302238791, 47.697200429436585, 0.0 ], [ -116.915621190448547, 47.697193269041122, 0.0 ], [ -116.915524392485125, 47.69721750180328, 0.0 ], [ -116.915471491596364, 47.697538827285406, 0.0 ], [ -116.91533944284285, 47.697601067200388, 0.0 ], [ -116.915256894854764, 47.697625998091709, 0.0 ], [ -116.915073149853299, 47.697627285295638, 0.0 ], [ -116.914958764673216, 47.697633005462698, 0.0 ], [ -116.914848210807818, 47.697786660728489, 0.0 ], [ -116.914666162723933, 47.697812556477125, 0.0 ], [ -116.91439212445998, 47.69792845084396, 0.0 ], [ -116.914265733296148, 47.698024816970722, 0.0 ], [ -116.913953594786051, 47.698121422340634, 0.0 ], [ -116.913816348380308, 47.698128138832821, 0.0 ], [ -116.913721184452385, 47.698299376745879, 0.0 ], [ -116.91348955205973, 47.698337612664723, 0.0 ], [ -116.913251993481154, 47.698070360284632, 0.0 ], [ -116.913119845014648, 47.697966511095935, 0.0 ], [ -116.912941564465058, 47.69799306516542, 0.0 ], [ -116.912781337357728, 47.698144239305279, 0.0 ], [ -116.91268754425893, 47.698238050002708, 0.0 ], [ -116.91256830817629, 47.698267977588173, 0.0 ], [ -116.912506518457803, 47.6982922527772, 0.0 ], [ -116.912616562978428, 47.698488967788649, 0.0 ], [ -116.91250641515154, 47.698636821273958, 0.0 ], [ -116.912502237087168, 47.698710830688505, 0.0 ], [ -116.912468771249564, 47.698764304438448, 0.0 ], [ -116.912340220535768, 47.698800572071534, 0.0 ], [ -116.912269623734218, 47.698721079132852, 0.0 ], [ -116.912231192908038, 47.698730885013752, 0.0 ], [ -116.911887886450856, 47.698740458729517, 0.0 ], [ -116.911540560931115, 47.698886197853774, 0.0 ], [ -116.911171163804809, 47.698951402881548, 0.0 ], [ -116.91077799456113, 47.698953129589363, 0.0 ], [ -116.910692000635621, 47.698991142539946, 0.0 ], [ -116.910712492105574, 47.699067668352434, 0.0 ], [ -116.910605933946584, 47.699110377052705, 0.0 ], [ -116.91051578890611, 47.699141308961671, 0.0 ], [ -116.910363125613472, 47.699181169997324, 0.0 ], [ -116.910330321834238, 47.699227891849183, 0.0 ], [ -116.910210013163194, 47.699294905369747, 0.0 ], [ -116.909987709774782, 47.699325614681833, 0.0 ], [ -116.909753597133644, 47.699345789083097, 0.0 ], [ -116.909437483578415, 47.699366617032659, 0.0 ], [ -116.909388565819611, 47.699378410061883, 0.0 ], [ -116.909225976143091, 47.69937522994659, 0.0 ], [ -116.908966799607214, 47.699412079369338, 0.0 ], [ -116.908663018124216, 47.699424855442047, 0.0 ], [ -116.908597717789576, 47.699251052943694, 0.0 ], [ -116.90845503477972, 47.699260054625519, 0.0 ], [ -116.908109363956711, 47.699239240538901, 0.0 ], [ -116.907608423828421, 47.699265150680745, 0.0 ], [ -116.907457270603757, 47.699381848939183, 0.0 ], [ -116.907129552611707, 47.699411989286283, 0.0 ], [ -116.907011284014644, 47.699353227291979, 0.0 ], [ -116.906939296621061, 47.699358915831247, 0.0 ], [ -116.906902928326758, 47.699557065724711, 0.0 ], [ -116.906743372260948, 47.699604299925284, 0.0 ], [ -116.906620774682565, 47.699586797272971, 0.0 ], [ -116.906493178877909, 47.699432083244425, 0.0 ], [ -116.906423713953615, 47.699429846888101, 0.0 ], [ -116.906196694409971, 47.699436756678651, 0.0 ], [ -116.905646909286432, 47.699436482802128, 0.0 ], [ -116.905049143346915, 47.699422515096977, 0.0 ], [ -116.904517013711938, 47.699402309287038, 0.0 ], [ -116.904152913950867, 47.699383280595484, 0.0 ], [ -116.903543053094367, 47.699338243861547, 0.0 ], [ -116.902876880445959, 47.699338550990802, 0.0 ], [ -116.90272330536331, 47.699327686595467, 0.0 ], [ -116.902533281138005, 47.699386552607102, 0.0 ], [ -116.902399833707605, 47.699381564179838, 0.0 ], [ -116.902325254674381, 47.699446815745567, 0.0 ], [ -116.902000118440469, 47.699460472083587, 0.0 ], [ -116.901802800793348, 47.699431199947185, 0.0 ], [ -116.901771209739749, 47.699324675760948, 0.0 ], [ -116.901614018938091, 47.699327462898935, 0.0 ], [ -116.901393894862565, 47.699240120211904, 0.0 ], [ -116.901183804968753, 47.699203485295875, 0.0 ], [ -116.90061024503288, 47.699016184615537, 0.0 ], [ -116.900462117334101, 47.69897027635124, 0.0 ], [ -116.900268754969204, 47.699155443003647, 0.0 ], [ -116.899912207344727, 47.699051478686066, 0.0 ], [ -116.899745759404041, 47.698984189159937, 0.0 ], [ -116.899547723104703, 47.698791049757105, 0.0 ], [ -116.899378192145974, 47.698627314044444, 0.0 ], [ -116.899247257303415, 47.698558147915264, 0.0 ], [ -116.899093231266505, 47.698506286408119, 0.0 ], [ -116.89860890817431, 47.698283004857167, 0.0 ], [ -116.898701383444603, 47.698177396105606, 0.0 ], [ -116.898592519310299, 47.698123222837083, 0.0 ], [ -116.898483035338387, 47.698212369097739, 0.0 ], [ -116.898109018176598, 47.698056404305476, 0.0 ], [ -116.897907759620324, 47.697998190969912, 0.0 ], [ -116.897654119401551, 47.697854711785254, 0.0 ], [ -116.897502092116113, 47.697733985261948, 0.0 ], [ -116.897384605053404, 47.697674087743181, 0.0 ], [ -116.897253106967156, 47.697563945634279, 0.0 ], [ -116.897112859290033, 47.697536821202775, 0.0 ], [ -116.896986080053992, 47.697551955093132, 0.0 ], [ -116.896899676496716, 47.697588438809063, 0.0 ], [ -116.896811885940622, 47.697633596766281, 0.0 ], [ -116.896679757237052, 47.697744382630816, 0.0 ], [ -116.896656661551091, 47.697863527490711, 0.0 ], [ -116.896789621196305, 47.698065278018447, 0.0 ], [ -116.896889683637482, 47.698148681898189, 0.0 ], [ -116.896798854979124, 47.698299815683399, 0.0 ], [ -116.896615109977631, 47.698408462886, 0.0 ], [ -116.896386451008595, 47.698413484054569, 0.0 ], [ -116.896191066535962, 47.698401097698437, 0.0 ], [ -116.89604007590637, 47.698367273566035, 0.0 ], [ -116.895944682908066, 47.698441286386142, 0.0 ], [ -116.895857038777336, 47.69855969809467, 0.0 ], [ -116.895923918350249, 47.698621318291885, 0.0 ], [ -116.89602475873248, 47.698701333145976, 0.0 ], [ -116.896072618275852, 47.69881033138396, 0.0 ], [ -116.89601863940878, 47.698913138392527, 0.0 ], [ -116.895867744898908, 47.698944081905708, 0.0 ], [ -116.895776308979379, 47.698924190297113, 0.0 ], [ -116.895590575107875, 47.698759733724543, 0.0 ], [ -116.895469353748496, 47.698620074038629, 0.0 ], [ -116.895304715913127, 47.698469715063517, 0.0 ], [ -116.89529766952802, 47.698388812306938, 0.0 ], [ -116.895320641246457, 47.698310462638005, 0.0 ], [ -116.895634280841392, 47.698038566185026, 0.0 ], [ -116.895794648984236, 47.697790088223329, 0.0 ], [ -116.89585544696267, 47.697564588934696, 0.0 ], [ -116.895931063550023, 47.697297790281056, 0.0 ], [ -116.895970529235413, 47.697189521063784, 0.0 ], [ -116.895960310899056, 47.697146951059658, 0.0 ], [ -116.89590496838936, 47.697097303443854, 0.0 ], [ -116.895653784164551, 47.696924739294076, 0.0 ], [ -116.895222962035746, 47.696718508989541, 0.0 ], [ -116.895123881453159, 47.696664495033048, 0.0 ], [ -116.895180334280582, 47.696607577046372, 0.0 ], [ -116.895113703541, 47.696560415708078, 0.0 ], [ -116.894706949075285, 47.696048217681962, 0.0 ], [ -116.894078165207318, 47.695801871820713, 0.0 ], [ -116.893522131402676, 47.695981614760505, 0.0 ], [ -116.893022415678089, 47.695851136732792, 0.0 ], [ -116.892757041665078, 47.69579486722678, 0.0 ], [ -116.892477270352984, 47.695767236407214, 0.0 ], [ -116.891790948492769, 47.695734877995591, 0.0 ], [ -116.891289728988411, 47.695753353576038, 0.0 ], [ -116.890533368180428, 47.695747222056653, 0.0 ], [ -116.889913530634374, 47.695751825079824, 0.0 ], [ -116.8898928235688, 47.69562089542444, 0.0 ], [ -116.889511065624163, 47.695640410400806, 0.0 ], [ -116.889464302923756, 47.695757375552517, 0.0 ], [ -116.889064289415941, 47.695780734087684, 0.0 ], [ -116.888742009824597, 47.695761823790406, 0.0 ], [ -116.888718508998437, 47.695587778717766, 0.0 ], [ -116.888581750377924, 47.695556110076417, 0.0 ], [ -116.888309182656087, 47.69546464777369, 0.0 ], [ -116.888145044284002, 47.695467623157924, 0.0 ], [ -116.887885264080253, 47.695475052850632, 0.0 ], [ -116.887516666454559, 47.695471289029378, 0.0 ], [ -116.887166629819262, 47.69550946172216, 0.0 ], [ -116.886690222681395, 47.695486999731457, 0.0 ], [ -116.88628480311219, 47.695482878574815, 0.0 ], [ -116.886032269617829, 47.695505568512665, 0.0 ], [ -116.885917480195872, 47.695506814654145, 0.0 ], [ -116.885680068941014, 47.695505444563629, 0.0 ], [ -116.885512334612841, 47.69550631704405, 0.0 ], [ -116.885324437598129, 47.695534382125651, 0.0 ], [ -116.885178393092488, 47.695541246480637, 0.0 ], [ -116.884947643743786, 47.695559388374527, 0.0 ], [ -116.884835520521605, 47.695557297567689, 0.0 ], [ -116.884638139094108, 47.695523738836556, 0.0 ], [ -116.884500082407982, 47.69552194248277, 0.0 ], [ -116.884268891088155, 47.69553788171941, 0.0 ], [ -116.884127317497686, 47.69554160200255, 0.0 ], [ -116.883870887111627, 47.695566141474522, 0.0 ], [ -116.8837480766325, 47.6955661082199, 0.0 ], [ -116.883564720601541, 47.695548854528433, 0.0 ], [ -116.883417741848021, 47.695550828642212, 0.0 ], [ -116.88314922462979, 47.695535740727458, 0.0 ], [ -116.883020293030341, 47.695536215361386, 0.0 ], [ -116.882802772272484, 47.695535838677415, 0.0 ], [ -116.882632355574898, 47.695543281057617, 0.0 ], [ -116.882393392929544, 47.695563603242576, 0.0 ], [ -116.882287406099067, 47.69556674912652, 0.0 ], [ -116.882066079179353, 47.695566842843959, 0.0 ], [ -116.881846602789139, 47.695578605291956, 0.0 ], [ -116.881703194838863, 47.695556003661714, 0.0 ], [ -116.881561480212895, 47.695561745218029, 0.0 ], [ -116.88135280965723, 47.695589334427133, 0.0 ], [ -116.881228184581261, 47.695606435134252, 0.0 ], [ -116.881238717327946, 47.695752163670775, 0.0 ], [ -116.880935769481539, 47.695770216006551, 0.0 ], [ -116.880866001824998, 47.695802492771712, 0.0 ], [ -116.880736639932508, 47.69585059559293, 0.0 ], [ -116.880142771782999, 47.695921760575466, 0.0 ], [ -116.880016240481993, 47.69593282036962, 0.0 ], [ -116.879715806121737, 47.695949400987146, 0.0 ], [ -116.879592959709981, 47.695926898071455, 0.0 ], [ -116.879513617809152, 47.6959839268427, 0.0 ], [ -116.879262170377984, 47.696040378136303, 0.0 ], [ -116.879141526635323, 47.695829461507358, 0.0 ], [ -116.878938427431066, 47.69588588273696, 0.0 ], [ -116.878393443802679, 47.695960763087577, 0.0 ], [ -116.877867134352456, 47.696240601795047, 0.0 ], [ -116.877585407407992, 47.696335316801218, 0.0 ], [ -116.877223751962816, 47.696455351251792, 0.0 ], [ -116.877115520242441, 47.696514628018868, 0.0 ], [ -116.876776081032546, 47.69677303378954, 0.0 ], [ -116.876532220772262, 47.697041169506463, 0.0 ], [ -116.876435873763086, 47.697144550755866, 0.0 ], [ -116.876259657542022, 47.697311155156065, 0.0 ], [ -116.876135131280691, 47.697475205769869, 0.0 ], [ -116.875929391029473, 47.697674691138353, 0.0 ], [ -116.875776692702544, 47.697880838458083, 0.0 ], [ -116.875733304074316, 47.697964974200111, 0.0 ], [ -116.875612993606637, 47.698083639108432, 0.0 ], [ -116.875468269624477, 47.698317176082924, 0.0 ], [ -116.875415018392729, 47.698395467095899, 0.0 ], [ -116.875326540625466, 47.698534283369611, 0.0 ], [ -116.875251623825704, 47.698628168334821, 0.0 ], [ -116.875117004093894, 47.698731656473313, 0.0 ], [ -116.875029013213464, 47.698836204254313, 0.0 ], [ -116.874785228411682, 47.699106712041697, 0.0 ], [ -116.874628222662963, 47.699283389221875, 0.0 ], [ -116.87455134484091, 47.699371251779297, 0.0 ], [ -116.874390724271493, 47.699376644070156, 0.0 ], [ -116.87431975017752, 47.699420134849213, 0.0 ], [ -116.874271332780339, 47.69948751631393, 0.0 ], [ -116.874157798304836, 47.699549146297102, 0.0 ], [ -116.87400722090031, 47.699641376508779, 0.0 ], [ -116.873886016608893, 47.699687567126084, 0.0 ], [ -116.873804224103978, 47.699699574104379, 0.0 ], [ -116.87370152420911, 47.69971890134336, 0.0 ], [ -116.873508275031909, 47.699764501217139, 0.0 ], [ -116.873412889220134, 47.69978289314691, 0.0 ], [ -116.873269714831835, 47.699794987767319, 0.0 ], [ -116.873154295690867, 47.699818374722639, 0.0 ], [ -116.872755040361142, 47.69991371380496, 0.0 ], [ -116.87248886864414, 47.699921074546815, 0.0 ], [ -116.87249770267664, 47.700086100594611, 0.0 ], [ -116.872397510878059, 47.700079839600711, 0.0 ], [ -116.872224935528806, 47.700076924332762, 0.0 ], [ -116.871609592254146, 47.700066249323804, 0.0 ], [ -116.871573906679501, 47.699872269332701, 0.0 ], [ -116.871413184600428, 47.699875843603081, 0.0 ], [ -116.871389405296554, 47.700072325318821, 0.0 ], [ -116.871043907848374, 47.700072032099172, 0.0 ], [ -116.870904850439018, 47.700066932495403, 0.0 ], [ -116.870818657985836, 47.700053284175716, 0.0 ], [ -116.870850198733791, 47.699859289626495, 0.0 ], [ -116.870691489779261, 47.699843741664537, 0.0 ], [ -116.870643137060796, 47.70003284403434, 0.0 ], [ -116.870425598336638, 47.700024370886382, 0.0 ], [ -116.870336595953233, 47.700012270273405, 0.0 ], [ -116.870069260917944, 47.69994092647751, 0.0 ], [ -116.869951664260725, 47.69991499551125, 0.0 ], [ -116.869299442448707, 47.699900579336969, 0.0 ], [ -116.869233391122478, 47.699866327530842, 0.0 ], [ -116.869166443277607, 47.699860253325532, 0.0 ], [ -116.869138464349774, 47.699875254138718, 0.0 ], [ -116.869117228176449, 47.699896551634332, 0.0 ], [ -116.868938607165376, 47.6998885161792, 0.0 ], [ -116.867818193308693, 47.699764165070604, 0.0 ], [ -116.867665888443867, 47.699715040490965, 0.0 ], [ -116.867530637196353, 47.699686941384698, 0.0 ], [ -116.867398252472938, 47.699648373331023, 0.0 ], [ -116.867300913723739, 47.699644242830011, 0.0 ], [ -116.867106815638607, 47.699619694394855, 0.0 ], [ -116.867056880986894, 47.699645503382513, 0.0 ], [ -116.866964688685897, 47.699642676963784, 0.0 ], [ -116.866906153563676, 47.699682651881922, 0.0 ], [ -116.866802276875816, 47.699670988906469, 0.0 ], [ -116.866748460603759, 47.699715073742865, 0.0 ], [ -116.866696325079602, 47.699758871971007, 0.0 ], [ -116.8666487404207, 47.699750386082286, 0.0 ], [ -116.866547943157613, 47.699708419122352, 0.0 ], [ -116.866463319162904, 47.699648594003264, 0.0 ], [ -116.866390280740418, 47.699532420515283, 0.0 ], [ -116.866332668187979, 47.699522826993743, 0.0 ], [ -116.866298024659073, 47.699502051705302, 0.0 ], [ -116.86631806697136, 47.699447685137145, 0.0 ], [ -116.866365522272858, 47.699390444922223, 0.0 ], [ -116.866335926377531, 47.699336677986153, 0.0 ], [ -116.866247149471235, 47.699271503064942, 0.0 ], [ -116.86614632346209, 47.699230718895045, 0.0 ], [ -116.866074939736336, 47.699191681344516, 0.0 ], [ -116.866016369579825, 47.699214145366845, 0.0 ], [ -116.865970932792777, 47.699214586110401, 0.0 ], [ -116.865945496097169, 47.699173240839208, 0.0 ], [ -116.865965836650162, 47.699150955152497, 0.0 ], [ -116.865945414350477, 47.699128023152198, 0.0 ], [ -116.865860476843721, 47.699156754957912, 0.0 ], [ -116.865777975568022, 47.699140581038478, 0.0 ], [ -116.865685766199078, 47.699112314756405, 0.0 ], [ -116.865750650613734, 47.699068608487131, 0.0 ], [ -116.865682970641885, 47.699002633359626, 0.0 ], [ -116.865924240160908, 47.698906336149605, 0.0 ], [ -116.865905217436463, 47.698800922734506, 0.0 ], [ -116.865648247162909, 47.698680701423285, 0.0 ], [ -116.865458232819051, 47.698560655771765, 0.0 ], [ -116.865148781169992, 47.69836908614586, 0.0 ], [ -116.865057161095862, 47.698317104740433, 0.0 ], [ -116.865476186548349, 47.698049398200624, 0.0 ], [ -116.865272340844058, 47.697939154706944, 0.0 ], [ -116.864964232176334, 47.697899143385051, 0.0 ], [ -116.864901931316453, 47.69784961680142, 0.0 ], [ -116.864846973285665, 47.697786596640562, 0.0 ], [ -116.864743776622461, 47.697738473235077, 0.0 ], [ -116.864726634970211, 47.697647939200962, 0.0 ], [ -116.864531286430207, 47.697554577268498, 0.0 ], [ -116.864253724075411, 47.697571104769601, 0.0 ], [ -116.864140834590287, 47.697487981712591, 0.0 ], [ -116.864017618072651, 47.697438710487155, 0.0 ], [ -116.863974938215179, 47.697436176578606, 0.0 ], [ -116.863936727476258, 47.697432772640234, 0.0 ], [ -116.863842278607294, 47.697442828466166, 0.0 ], [ -116.86371715766127, 47.697484560243979, 0.0 ], [ -116.863643667386185, 47.697552235630241, 0.0 ], [ -116.863596616326546, 47.69758840374196, 0.0 ], [ -116.86351857608453, 47.697606952427506, 0.0 ], [ -116.863429951891902, 47.697625239917095, 0.0 ], [ -116.863340770743747, 47.697593269605939, 0.0 ], [ -116.863302639954867, 47.697536241385627, 0.0 ], [ -116.863255994933738, 47.697523923141596, 0.0 ], [ -116.863179604896928, 47.697543445870217, 0.0 ], [ -116.863133597679635, 47.697562064101376, 0.0 ], [ -116.863041034374461, 47.697549851064878, 0.0 ], [ -116.862787589090104, 47.697508108456375, 0.0 ], [ -116.862553385719096, 47.697475506259394, 0.0 ], [ -116.862490955501812, 47.697084681581273, 0.0 ], [ -116.86223983505738, 47.697093966595148, 0.0 ], [ -116.862288185080928, 47.697456423054582, 0.0 ], [ -116.861812063607303, 47.697470378589706, 0.0 ], [ -116.861483481435926, 47.697490400138747, 0.0 ], [ -116.861383176449621, 47.697254136905542, 0.0 ], [ -116.86124886034834, 47.697260792443949, 0.0 ], [ -116.860949001808208, 47.697312313586167, 0.0 ], [ -116.860780403300708, 47.697332609083475, 0.0 ], [ -116.860752804360274, 47.697334745164746, 0.0 ], [ -116.860810312708125, 47.697580616423942, 0.0 ], [ -116.86032924511052, 47.697697371657974, 0.0 ], [ -116.859998005722559, 47.697792874838669, 0.0 ], [ -116.859888759804207, 47.697634334988784, 0.0 ], [ -116.859759352097626, 47.697660746540791, 0.0 ], [ -116.859115639127978, 47.697864363655547, 0.0 ], [ -116.858933154462861, 47.697924924203576, 0.0 ], [ -116.858534491122924, 47.698089680267799, 0.0 ], [ -116.858315361482397, 47.698106433719452, 0.0 ], [ -116.85816295690455, 47.698146929165929, 0.0 ], [ -116.857896725000458, 47.698226506414507, 0.0 ], [ -116.857418894931115, 47.698314605941206, 0.0 ], [ -116.857143135495093, 47.698398942313766, 0.0 ], [ -116.856651759729658, 47.69852564008702, 0.0 ], [ -116.85650903449897, 47.698547242849486, 0.0 ], [ -116.856359580886846, 47.698645115687881, 0.0 ], [ -116.85615132625118, 47.698639789826629, 0.0 ], [ -116.855986438684127, 47.698632637488579, 0.0 ], [ -116.855815563845738, 47.698627629642182, 0.0 ], [ -116.85558397996212, 47.698632673764173, 0.0 ], [ -116.855300159044731, 47.698613219157885, 0.0 ], [ -116.855202791549388, 47.698613236691067, 0.0 ], [ -116.855014380698336, 47.698686142757538, 0.0 ], [ -116.854864174297987, 47.698692065951505, 0.0 ], [ -116.854372701514478, 47.698606863670506, 0.0 ], [ -116.854225752405341, 47.698602367912457, 0.0 ], [ -116.853967351115543, 47.69856902758584, 0.0 ], [ -116.853827909227249, 47.698564823238854, 0.0 ], [ -116.853553053496412, 47.698494481089689, 0.0 ], [ -116.853416046042554, 47.698497489553795, 0.0 ], [ -116.853136482241297, 47.698530684823503, 0.0 ], [ -116.852960487904099, 47.698525186036548, 0.0 ], [ -116.852705500212366, 47.698524970196289, 0.0 ], [ -116.852529393585769, 47.698527586881376, 0.0 ], [ -116.852212561378309, 47.698555190845212, 0.0 ], [ -116.852049503679524, 47.698570933870727, 0.0 ], [ -116.85189497278941, 47.698634023820965, 0.0 ], [ -116.851534256981992, 47.698637742069444, 0.0 ], [ -116.851064528818256, 47.69868329754437, 0.0 ], [ -116.850854040072477, 47.698643560674299, 0.0 ], [ -116.85050042904065, 47.698684739497928, 0.0 ], [ -116.850080264524379, 47.698734124418372, 0.0 ], [ -116.84958297874266, 47.698896486166646, 0.0 ], [ -116.849329169640612, 47.699038515703982, 0.0 ], [ -116.849125924909259, 47.699155644935779, 0.0 ], [ -116.84885184981438, 47.699222995303849, 0.0 ], [ -116.848569766238754, 47.699317417714425, 0.0 ], [ -116.848434028104379, 47.699349288421026, 0.0 ], [ -116.847983657736691, 47.699502055937366, 0.0 ], [ -116.847618379385963, 47.699592943455443, 0.0 ], [ -116.847378013572111, 47.699613695733547, 0.0 ], [ -116.846871019697133, 47.699752778406562, 0.0 ], [ -116.846555449622656, 47.699820464149468, 0.0 ], [ -116.846215695104092, 47.699904680797907, 0.0 ], [ -116.845876562219743, 47.699963043753876, 0.0 ], [ -116.845732840757421, 47.699964810934929, 0.0 ], [ -116.84556492496958, 47.700000626718186, 0.0 ], [ -116.845649171671838, 47.700174438809235, 0.0 ], [ -116.845311627907236, 47.700245294998474, 0.0 ], [ -116.844865648504623, 47.700321037256337, 0.0 ], [ -116.844531070977069, 47.70037425422494, 0.0 ], [ -116.844387621704271, 47.700404200535068, 0.0 ], [ -116.844321181407565, 47.700263275648048, 0.0 ], [ -116.843962557776464, 47.700323709472059, 0.0 ], [ -116.843662631862671, 47.700465990855342, 0.0 ], [ -116.843540442119405, 47.700500124376063, 0.0 ], [ -116.843403773330394, 47.700588259962579, 0.0 ], [ -116.843225081352401, 47.700627770450396, 0.0 ], [ -116.842610688495313, 47.7006748978812, 0.0 ], [ -116.842325810260803, 47.700668234314634, 0.0 ], [ -116.842051204261608, 47.700633397789019, 0.0 ], [ -116.841719795990358, 47.700588597312965, 0.0 ], [ -116.841355580346601, 47.700542998764526, 0.0 ], [ -116.841151705896252, 47.70047661076643, 0.0 ], [ -116.841050570866628, 47.700456924087916, 0.0 ], [ -116.840812465214043, 47.700374667148353, 0.0 ], [ -116.840668847057998, 47.70026282463553, 0.0 ], [ -116.840527755862851, 47.700222459002347, 0.0 ], [ -116.840397026734493, 47.700231455679877, 0.0 ], [ -116.840284649289075, 47.700160865485067, 0.0 ], [ -116.840169764645694, 47.700130965587498, 0.0 ], [ -116.839895765009331, 47.700043993038506, 0.0 ], [ -116.839756763295526, 47.699954721134475, 0.0 ], [ -116.839397110195122, 47.699886550089161, 0.0 ], [ -116.839295647280409, 47.699845158798219, 0.0 ], [ -116.839337729758185, 47.699703168942349, 0.0 ], [ -116.839199601206872, 47.699671512473813, 0.0 ], [ -116.838872123064974, 47.699532245186219, 0.0 ], [ -116.838446676454851, 47.699468685956901, 0.0 ], [ -116.838057052861586, 47.699382879151337, 0.0 ], [ -116.837714333004314, 47.69928055976056, 0.0 ], [ -116.837300384829788, 47.699190426826874, 0.0 ], [ -116.836892223602362, 47.699077364133096, 0.0 ], [ -116.836552792477292, 47.699000051159956, 0.0 ], [ -116.836206084998466, 47.698916681894552, 0.0 ], [ -116.835751964164473, 47.698828895958755, 0.0 ], [ -116.83514211318942, 47.698732875331046, 0.0 ], [ -116.83498743048402, 47.698732756831028, 0.0 ], [ -116.834938884627746, 47.698747530642038, 0.0 ], [ -116.83489039626366, 47.698858797812242, 0.0 ], [ -116.83457677822831, 47.698857733732666, 0.0 ], [ -116.834022302102355, 47.698776458545083, 0.0 ], [ -116.833938832442769, 47.698730441243121, 0.0 ], [ -116.833843148390272, 47.698707663228937, 0.0 ], [ -116.8336210120885, 47.698669634956829, 0.0 ], [ -116.831963426353212, 47.698517025823499, 0.0 ], [ -116.831619332073515, 47.698470388582543, 0.0 ], [ -116.831262652396688, 47.698430273073321, 0.0 ], [ -116.830718763814659, 47.698414121903191, 0.0 ], [ -116.830519998083304, 47.698400967105719, 0.0 ], [ -116.830129335139304, 47.698375931385179, 0.0 ], [ -116.830037856100645, 47.698328196674787, 0.0 ], [ -116.829928355060773, 47.698357186479342, 0.0 ], [ -116.828999745890329, 47.698303540606304, 0.0 ], [ -116.828614261733932, 47.698317079951991, 0.0 ], [ -116.828194812276635, 47.698268392946652, 0.0 ], [ -116.827924511004269, 47.698233686015186, 0.0 ], [ -116.827621329595885, 47.698233782146247, 0.0 ], [ -116.827111756657715, 47.698183046078874, 0.0 ], [ -116.826714575537977, 47.698149158322074, 0.0 ], [ -116.825869194380275, 47.69814138015677, 0.0 ], [ -116.825647412014746, 47.698109083073859, 0.0 ], [ -116.825364652906018, 47.698124922365373, 0.0 ], [ -116.825122971060296, 47.698122811709602, 0.0 ], [ -116.824923644780228, 47.69813912016577, 0.0 ], [ -116.82469521218664, 47.698184964469867, 0.0 ], [ -116.824628326325509, 47.69818934659942, 0.0 ], [ -116.824542598301321, 47.698179189949506, 0.0 ], [ -116.824400116514084, 47.698156778081355, 0.0 ], [ -116.824287637559053, 47.698119763924957, 0.0 ], [ -116.824175229570912, 47.698060826349419, 0.0 ], [ -116.823935826751097, 47.698070256898063, 0.0 ], [ -116.823691494875277, 47.69805239701676, 0.0 ], [ -116.823584706747553, 47.698076226716182, 0.0 ], [ -116.823451395861071, 47.698109849705844, 0.0 ], [ -116.823294084685145, 47.698135836588477, 0.0 ], [ -116.823025990573441, 47.69814707487425, 0.0 ], [ -116.822891562182747, 47.698147120219176, 0.0 ], [ -116.822458629013042, 47.69811785943736, 0.0 ], [ -116.82208458759672, 47.698052454453737, 0.0 ], [ -116.821806093688963, 47.69791428140249, 0.0 ], [ -116.821399139797279, 47.697613829206333, 0.0 ], [ -116.82105357317883, 47.697403851851512, 0.0 ], [ -116.820891644662353, 47.697353716561594, 0.0 ], [ -116.82077310207913, 47.69725266468199, 0.0 ], [ -116.820273078232432, 47.697051883225363, 0.0 ], [ -116.819947117345066, 47.696962367980639, 0.0 ], [ -116.819733660565589, 47.696879855822139, 0.0 ], [ -116.819562636606832, 47.696691312168895, 0.0 ], [ -116.81944496269449, 47.696673967552705, 0.0 ], [ -116.819194904058747, 47.696696900027803, 0.0 ], [ -116.819077492454497, 47.696667006003665, 0.0 ], [ -116.818901722696111, 47.696579001640963, 0.0 ], [ -116.818790041445027, 47.696423533796491, 0.0 ], [ -116.818599983982068, 47.696401457341942, 0.0 ], [ -116.818539935198601, 47.696379799274617, 0.0 ], [ -116.81840664407504, 47.696369922815649, 0.0 ], [ -116.818328041487675, 47.696360154581754, 0.0 ], [ -116.818116987701558, 47.696281165198954, 0.0 ], [ -116.818024921164721, 47.696227562536485, 0.0 ], [ -116.81797098541675, 47.696153504250319, 0.0 ], [ -116.817887295669934, 47.696115545460735, 0.0 ], [ -116.817793560063294, 47.69616640567363, 0.0 ], [ -116.817654618536608, 47.696130948215966, 0.0 ], [ -116.817243557547442, 47.695947413586723, 0.0 ], [ -116.816785421244134, 47.695745524869331, 0.0 ], [ -116.816267517330004, 47.69546864921498, 0.0 ], [ -116.816339979932394, 47.695401127119084, 0.0 ], [ -116.816290810645299, 47.695382500860717, 0.0 ], [ -116.816217754256527, 47.695441921540215, 0.0 ], [ -116.816075080229837, 47.695378820471873, 0.0 ], [ -116.815299540390541, 47.694961343456725, 0.0 ], [ -116.815240101563148, 47.694900910068007, 0.0 ], [ -116.815192362394015, 47.694884612087108, 0.0 ], [ -116.815281910953104, 47.694777784153004, 0.0 ], [ -116.815233762152161, 47.694764363001937, 0.0 ], [ -116.814800720286314, 47.694516382776953, 0.0 ], [ -116.814638432443715, 47.694451568847789, 0.0 ], [ -116.814391866457797, 47.694339868417565, 0.0 ], [ -116.814084732462149, 47.694220849736965, 0.0 ], [ -116.813778523731273, 47.694087021192452, 0.0 ], [ -116.813462037375189, 47.693899197250808, 0.0 ], [ -116.813225565758131, 47.693783078068151, 0.0 ], [ -116.813056179428145, 47.693677914899496, 0.0 ], [ -116.812786213227369, 47.693473313386434, 0.0 ], [ -116.812373666424733, 47.693175235482052, 0.0 ], [ -116.811845845109872, 47.692781947833836, 0.0 ], [ -116.811573555865792, 47.692545716476253, 0.0 ], [ -116.811274151873178, 47.69239581464678, 0.0 ], [ -116.811065187568374, 47.692353397942178, 0.0 ], [ -116.810707251148486, 47.692178507051032, 0.0 ], [ -116.810576673835413, 47.692033113188984, 0.0 ], [ -116.810168623100779, 47.691827247504392, 0.0 ], [ -116.809986592084869, 47.69182731159966, 0.0 ], [ -116.80964088353258, 47.691653914303522, 0.0 ], [ -116.809617052126413, 47.691554179244825, 0.0 ], [ -116.809425993041913, 47.691422859917182, 0.0 ], [ -116.809122728988498, 47.691274233755394, 0.0 ], [ -116.808607732920962, 47.691058050425667, 0.0 ], [ -116.808177690529817, 47.690846233829419, 0.0 ], [ -116.807829322964338, 47.690681633259764, 0.0 ], [ -116.807432734732714, 47.690542851710987, 0.0 ], [ -116.80689995741244, 47.690361561974264, 0.0 ], [ -116.806568419783758, 47.690222956748144, 0.0 ], [ -116.806295242105847, 47.69006264632003, 0.0 ], [ -116.805929577479574, 47.689860812219685, 0.0 ], [ -116.805545737240166, 47.689684276054564, 0.0 ], [ -116.80477169938402, 47.68935740362528, 0.0 ], [ -116.804354945770882, 47.689232356180881, 0.0 ], [ -116.803721275067772, 47.68902648064973, 0.0 ], [ -116.803239784363683, 47.688845572049573, 0.0 ], [ -116.802830196611566, 47.688710458613507, 0.0 ], [ -116.802508847674872, 47.688581865413852, 0.0 ], [ -116.802051045544857, 47.688442743872052, 0.0 ], [ -116.801616886174756, 47.688315375765406, 0.0 ], [ -116.801470164339406, 47.68845035235077, 0.0 ], [ -116.801003857858575, 47.68832831057302, 0.0 ], [ -116.800415492788531, 47.688135050667526, 0.0 ], [ -116.799386937957891, 47.687668809686947, 0.0 ], [ -116.798918437791116, 47.687334989043705, 0.0 ], [ -116.798647870617415, 47.687092809711132, 0.0 ], [ -116.798174588718396, 47.686626212297369, 0.0 ], [ -116.802334767647565, 47.685039308400768, 0.0 ], [ -116.803820493092587, 47.686253181722115, 0.0 ], [ -116.805662790416605, 47.687447368464021, 0.0 ], [ -116.806802811800978, 47.688051836374115, 0.0 ], [ -116.807023358084678, 47.688218131791096, 0.0 ], [ -116.807091876184657, 47.688288499897752, 0.0 ], [ -116.807357949086978, 47.68835185747799, 0.0 ], [ -116.807304946688603, 47.688576506475087, 0.0 ], [ -116.807435497052197, 47.688612570755502, 0.0 ], [ -116.807862690885585, 47.688794044355845, 0.0 ], [ -116.807910307883816, 47.68885809431579, 0.0 ], [ -116.808028156069341, 47.688843760952793, 0.0 ], [ -116.808223468676729, 47.689190611751563, 0.0 ], [ -116.808257437570887, 47.689455698862304, 0.0 ], [ -116.808989510628521, 47.689772920937436, 0.0 ], [ -116.809290364501976, 47.689792513689333, 0.0 ], [ -116.809547288063143, 47.689716838375439, 0.0 ], [ -116.809823468809057, 47.68968411943802, 0.0 ], [ -116.810184659825225, 47.689776220158819, 0.0 ], [ -116.810311093209862, 47.689812382175042, 0.0 ], [ -116.810467718971225, 47.689819350081471, 0.0 ], [ -116.810611356890234, 47.689930281348602, 0.0 ], [ -116.81086509951696, 47.690030766913516, 0.0 ], [ -116.81116259728455, 47.690130718341877, 0.0 ], [ -116.811306327730009, 47.690222500811295, 0.0 ], [ -116.811266158663756, 47.690390939580872, 0.0 ], [ -116.811573795715944, 47.690503296694835, 0.0 ], [ -116.811889426875879, 47.690900167947845, 0.0 ], [ -116.812165655232477, 47.690989564197722, 0.0 ], [ -116.812369181136518, 47.691078353799476, 0.0 ], [ -116.812477382314185, 47.691321151956792, 0.0 ], [ -116.812577508535725, 47.691536246989223, 0.0 ], [ -116.812734143280252, 47.691724199771734, 0.0 ], [ -116.812840510098113, 47.691815319134641, 0.0 ], [ -116.812988113180751, 47.691951517771898, 0.0 ], [ -116.813226469463302, 47.692229537387611, 0.0 ], [ -116.813303281708286, 47.692296973495026, 0.0 ], [ -116.813531712505267, 47.69234499550145, 0.0 ], [ -116.813712123858693, 47.69239059335905, 0.0 ], [ -116.813850891112239, 47.69242104491763, 0.0 ], [ -116.814157165420127, 47.692395875113348, 0.0 ], [ -116.814545905969439, 47.692748107962963, 0.0 ], [ -116.814693136251265, 47.692782309421183, 0.0 ], [ -116.815001853078414, 47.692705549449343, 0.0 ], [ -116.815115905881854, 47.692729817553506, 0.0 ], [ -116.815231900842917, 47.692885540088938, 0.0 ], [ -116.815319720145084, 47.692953830940745, 0.0 ], [ -116.815622936587786, 47.69325411831322, 0.0 ], [ -116.815994116869916, 47.693480836479857, 0.0 ], [ -116.816205727611489, 47.693696495813299, 0.0 ], [ -116.816267618839618, 47.69376700527225, 0.0 ], [ -116.816469102873029, 47.693825494214558, 0.0 ], [ -116.816933742978989, 47.69421037487561, 0.0 ], [ -116.817541563761495, 47.694483897823702, 0.0 ], [ -116.817860933709611, 47.694631118724985, 0.0 ], [ -116.818271419777005, 47.694751076077146, 0.0 ], [ -116.818688742922049, 47.69489300807227, 0.0 ], [ -116.819316358081778, 47.694957136400291, 0.0 ], [ -116.81937791154337, 47.69495679417637, 0.0 ], [ -116.819449842343133, 47.6949792648604, 0.0 ], [ -116.819595649693525, 47.695096248424932, 0.0 ], [ -116.820102198004136, 47.695451480139482, 0.0 ], [ -116.820722629336601, 47.695823497478266, 0.0 ], [ -116.821155520285458, 47.695972792085982, 0.0 ], [ -116.821442473628267, 47.696050385860936, 0.0 ], [ -116.821658938865653, 47.696069422419733, 0.0 ], [ -116.821785901358027, 47.696122979898142, 0.0 ], [ -116.821941096103131, 47.696253773462317, 0.0 ], [ -116.822090585647885, 47.696301127951884, 0.0 ], [ -116.822246768539799, 47.696322877349473, 0.0 ], [ -116.822544076762881, 47.696370842441965, 0.0 ], [ -116.822581049623338, 47.696395378500569, 0.0 ], [ -116.822658601181786, 47.696427262481116, 0.0 ], [ -116.822777915417859, 47.696449496730231, 0.0 ], [ -116.822905839107548, 47.696446226348122, 0.0 ], [ -116.823035398629401, 47.696481420582479, 0.0 ], [ -116.823152803945476, 47.696616898422207, 0.0 ], [ -116.823229022404092, 47.696659079486309, 0.0 ], [ -116.823299368575661, 47.696664581493131, 0.0 ], [ -116.823409328654634, 47.696639206353687, 0.0 ], [ -116.823541845430412, 47.696587294568431, 0.0 ], [ -116.823694178143, 47.696570085956466, 0.0 ], [ -116.823862835040984, 47.696584256367871, 0.0 ], [ -116.824506403381903, 47.696653386420145, 0.0 ], [ -116.82458679271835, 47.696656138633188, 0.0 ], [ -116.824676332294302, 47.696652834405512, 0.0 ], [ -116.824899792712785, 47.696601009698654, 0.0 ], [ -116.825051829879698, 47.696549800440835, 0.0 ], [ -116.825261947621257, 47.696504035113186, 0.0 ], [ -116.825480811360464, 47.696488431130355, 0.0 ], [ -116.82588985742845, 47.696516089984812, 0.0 ], [ -116.826241553252103, 47.696576882457975, 0.0 ], [ -116.827157731535635, 47.696772027105844, 0.0 ], [ -116.827866222918757, 47.696815102873686, 0.0 ], [ -116.828264355354335, 47.696819399867749, 0.0 ], [ -116.828378529430339, 47.696819336987865, 0.0 ], [ -116.828462638690382, 47.696834689352187, 0.0 ], [ -116.82857608243603, 47.69686488437781, 0.0 ], [ -116.828719119382072, 47.696912120412783, 0.0 ], [ -116.828785988175227, 47.696955122906751, 0.0 ], [ -116.828878508361257, 47.696979852166393, 0.0 ], [ -116.828960318832515, 47.696968634185794, 0.0 ], [ -116.829056145717132, 47.696937807399699, 0.0 ], [ -116.829128258874889, 47.696891966835928, 0.0 ], [ -116.829186078938136, 47.696828007156377, 0.0 ], [ -116.829213504503755, 47.696765155657516, 0.0 ], [ -116.829286484535785, 47.696741209877352, 0.0 ], [ -116.829492318211763, 47.696768509456476, 0.0 ], [ -116.829854217998701, 47.696788088092468, 0.0 ], [ -116.830212737425228, 47.696796478934218, 0.0 ], [ -116.830463632392494, 47.696755587020647, 0.0 ], [ -116.830634606045578, 47.696653242521471, 0.0 ], [ -116.83078647882077, 47.696493207008864, 0.0 ], [ -116.830924546286681, 47.696427406984988, 0.0 ], [ -116.831304207563406, 47.69635489559991, 0.0 ], [ -116.831802418609854, 47.696326561904009, 0.0 ], [ -116.831964573501807, 47.696321518768151, 0.0 ], [ -116.83211913044309, 47.696331425467271, 0.0 ], [ -116.8324165725151, 47.696379814994714, 0.0 ], [ -116.832972406893788, 47.696500884448824, 0.0 ], [ -116.833279480702288, 47.696538908256585, 0.0 ], [ -116.833663828489875, 47.696613530707332, 0.0 ], [ -116.834364552140741, 47.696820349112194, 0.0 ], [ -116.83487122082559, 47.696926240548351, 0.0 ], [ -116.835071160655019, 47.696984835986569, 0.0 ], [ -116.835350312129577, 47.697062440952315, 0.0 ], [ -116.835600809143173, 47.697162068738685, 0.0 ], [ -116.835769599890114, 47.697333968243029, 0.0 ], [ -116.835912861414997, 47.697438518222064, 0.0 ], [ -116.836193142970174, 47.697548082592739, 0.0 ], [ -116.836656065497309, 47.697650306228311, 0.0 ], [ -116.836849525778604, 47.697683463947335, 0.0 ], [ -116.837035763604959, 47.697743343921843, 0.0 ], [ -116.837551084862667, 47.697989268272899, 0.0 ], [ -116.837796592633183, 47.698058745316487, 0.0 ], [ -116.839033747950893, 47.698235739229659, 0.0 ], [ -116.84052834605599, 47.698285502448705, 0.0 ], [ -116.840658211005064, 47.698303195381335, 0.0 ], [ -116.840816749279625, 47.698349264451082, 0.0 ], [ -116.841235244726079, 47.698369274175342, 0.0 ], [ -116.841649037492061, 47.698370370913096, 0.0 ], [ -116.842057786217694, 47.698339609043018, 0.0 ], [ -116.842320520082083, 47.698286281774607, 0.0 ], [ -116.842973172187143, 47.698276333729716, 0.0 ], [ -116.843579642801771, 47.698447011905259, 0.0 ], [ -116.843865218128926, 47.698526839602572, 0.0 ], [ -116.844241948202878, 47.698487196325438, 0.0 ], [ -116.844922954731558, 47.69833283574593, 0.0 ], [ -116.845130871600702, 47.69827506226131, 0.0 ], [ -116.845201415401647, 47.697997722404409, 0.0 ], [ -116.846454963176669, 47.697520669151231, 0.0 ], [ -116.847588298400368, 47.69739358501004, 0.0 ], [ -116.847722329735689, 47.697133916864637, 0.0 ], [ -116.847944584615078, 47.696975408264699, 0.0 ] ] ] ] } }
]
}
