{
"type": "FeatureCollection",
"name": "spokane_river_post_falls_to_stateline",
"crs": { "type": "name", "properties": { "name": "urn:ogc:def:crs:OGC:1.3:CRS84" } },
"features": [
{ "type": "Feature", "properties": { }, "geometry": { "type": "Polygon", "coordinates": [ [ [ -117.039850195437793, 47.696602592631962 ], [ -117.03944412877172, 47.696295392632472 ], [ -117.039005395439062, 47.696009992632924 ], [ -117.038908128772576, 47.695905925966365 ], [ -117.038859395439317, 47.695828992633153 ], [ -117.038794395439425, 47.695768725966623 ], [ -117.038713195439541, 47.695669925966726 ], [ -117.038599395439689, 47.695571192633565 ], [ -117.038509995439824, 47.695494392633684 ], [ -117.0383231954401, 47.695368192633914 ], [ -117.038177128773725, 47.695258525967397 ], [ -117.037917195440784, 47.695055525967689 ], [ -117.037470528774818, 47.694649525968323 ], [ -117.037031995442135, 47.694237992635649 ], [ -117.036682728776043, 47.693925392636118 ], [ -117.03645539544307, 47.693760725969696 ], [ -117.036154795443494, 47.693546725970059 ], [ -117.035708328777574, 47.693190125970602 ], [ -117.035342795444762, 47.692932325971015 ], [ -117.035050395445253, 47.692773125971243 ], [ -117.034912328778773, 47.692701792638054 ], [ -117.034741795445726, 47.692624925971465 ], [ -117.034522395446061, 47.692559125971563 ], [ -117.034254328779809, 47.692493192638381 ], [ -117.034018795446812, 47.692465725971701 ], [ -117.033823928780464, 47.692465725971701 ], [ -117.033531328780896, 47.692482125971708 ], [ -117.032921995448518, 47.692558725971594 ], [ -117.032645728782327, 47.692607992638159 ], [ -117.032280128782872, 47.692690192638054 ], [ -117.031695128783767, 47.692832592637842 ], [ -117.031337528784334, 47.692964192637632 ], [ -117.030906928784987, 47.693156125970631 ], [ -117.030118728786192, 47.69348499263679 ], [ -117.029687928786885, 47.693671392636524 ], [ -117.029175928787652, 47.693939992636096 ], [ -117.028680195455124, 47.69421959263564 ], [ -117.028257595455784, 47.694488325968564 ], [ -117.027859195456358, 47.694789792634758 ], [ -117.027688595456638, 47.694915925967905 ], [ -117.027428528790381, 47.695063925967709 ], [ -117.027160328790799, 47.695206525967478 ], [ -117.026981395457767, 47.695343592633947 ], [ -117.02661572879164, 47.695628592633511 ], [ -117.026412395458621, 47.695826125966491 ], [ -117.026201128792295, 47.696072792632762 ], [ -117.025940795459348, 47.69636339263235 ], [ -117.025696928793081, 47.69662119263193 ], [ -117.025493728793379, 47.69678559263167 ], [ -117.025322995460328, 47.696900792631538 ], [ -117.025030395460774, 47.697021392631314 ], [ -117.024567195461486, 47.697147392631109 ], [ -117.024152795462143, 47.697262525964277 ], [ -117.023421395463288, 47.697459725963995 ], [ -117.023047595463893, 47.697558325963811 ], [ -117.022511195464688, 47.6977225926302 ], [ -117.022121128798631, 47.697782925963459 ], [ -117.021617328799394, 47.697826525963421 ], [ -117.020934795467156, 47.697924992629908 ], [ -117.020130395468371, 47.69799612596313 ], [ -117.01926912880306, 47.698067125963071 ], [ -117.018627195470742, 47.698061325963067 ], [ -117.018131728804804, 47.698033792629751 ], [ -117.017936728805125, 47.69801172596312 ], [ -117.017311128806099, 47.697923725963285 ], [ -117.016579928807246, 47.697841192630051 ], [ -117.016092528807974, 47.697742325963532 ], [ -117.015572595475476, 47.69765432596369 ], [ -117.014752128810088, 47.697478525963966 ], [ -117.014549128810344, 47.697401725964085 ], [ -117.013972328811292, 47.697209392631009 ], [ -117.013704395478328, 47.697099592631226 ], [ -117.013558195478595, 47.697017192631343 ], [ -117.013144128812556, 47.696764792631711 ], [ -117.01282739547969, 47.696572725965375 ], [ -117.012681195479956, 47.696501325965478 ], [ -117.012575595480087, 47.696429992632261 ], [ -117.012185928814063, 47.696095325966091 ], [ -117.011869328814555, 47.69583179263315 ], [ -117.01160952881493, 47.695601392633527 ], [ -117.011252395482188, 47.695272125967399 ], [ -117.011025128815859, 47.695123925967607 ], [ -117.010878928816041, 47.695030525967752 ], [ -117.010659728816407, 47.69484392596803 ], [ -117.010521795483257, 47.694739725968191 ], [ -117.010148195483865, 47.694514725968531 ], [ -117.010018328817409, 47.69443792596865 ], [ -117.009807128817727, 47.694355525968774 ], [ -117.009652795484655, 47.694256725968941 ], [ -117.009433728818294, 47.694081125969205 ], [ -117.009319995485171, 47.694009592635993 ], [ -117.009246995485285, 47.693971192636063 ], [ -117.009116995485485, 47.693921925969448 ], [ -117.008930328819062, 47.693762725969691 ], [ -117.008686928819486, 47.693455525970208 ], [ -117.008605728819575, 47.693373125970304 ], [ -117.008491995486452, 47.693290792637121 ], [ -117.008289128820081, 47.693164525970644 ], [ -117.007818128820801, 47.692939392637641 ], [ -117.007541995487941, 47.692840592637815 ], [ -117.007013995488776, 47.692708725971329 ], [ -117.006616128822728, 47.692626192638166 ], [ -117.006485995489584, 47.692620725971494 ], [ -117.006242395489934, 47.692620592638157 ], [ -117.00599872882367, 47.692636925971442 ], [ -117.00586859549054, 47.692675192638085 ], [ -117.005600328824244, 47.692762925971294 ], [ -117.005299728824752, 47.692850525971153 ], [ -117.005055928825129, 47.692932592637653 ], [ -117.004730795492279, 47.69307519263748 ], [ -117.004291795492975, 47.693343725970337 ], [ -117.004047928826637, 47.693480592636838 ], [ -117.003836595493681, 47.693590192636634 ], [ -117.003673928827254, 47.693699925969831 ], [ -117.003389395494352, 47.6938807259695 ], [ -117.003080528828221, 47.694121925969164 ], [ -117.002754995495366, 47.694456392635288 ], [ -117.002486595495796, 47.694724992634924 ], [ -117.002275128829424, 47.694966192634524 ], [ -117.002185728829545, 47.695026525967748 ], [ -117.002079995496388, 47.695114325967616 ], [ -117.002014928829851, 47.695201992634182 ], [ -117.001925328829998, 47.695388392633838 ], [ -117.001843995496756, 47.695443192633768 ], [ -117.001681395497044, 47.6955637926336 ], [ -117.001502328830611, 47.69578312596655 ], [ -117.001193395497765, 47.696024325966214 ], [ -117.001030795498025, 47.696095525966086 ], [ -117.000689528831927, 47.696183192632638 ], [ -117.000048328832847, 47.696830925964946 ], [ -116.999731928833398, 47.697182125964396 ], [ -116.999472395500447, 47.697626392630404 ], [ -116.999204795500873, 47.697972125963176 ], [ -116.99877459550153, 47.698257592629425 ], [ -116.998449995502042, 47.698718592628659 ], [ -116.998271728835618, 47.69906419262815 ], [ -116.998174728835821, 47.69938779262764 ], [ -116.998369795502185, 47.699563325960689 ], [ -116.998524128835257, 47.699546725960715 ], [ -116.998791528834829, 47.698866392628474 ], [ -116.99888072883472, 47.698756725961971 ], [ -116.998970528834533, 47.699135125961384 ], [ -116.998549128835251, 47.699958125960109 ], [ -116.998305395502271, 47.700117325959866 ], [ -116.998102995502578, 47.70064952595903 ], [ -116.998013795502686, 47.700808592625435 ], [ -116.99762432883665, 47.701220125958116 ], [ -116.997112928837467, 47.701620792624162 ], [ -116.99676359550466, 47.701840392623865 ], [ -116.996187128838855, 47.702158792623379 ], [ -116.994830595507665, 47.702516125956159 ], [ -116.994042595508873, 47.702598725956015 ], [ -116.992978328843833, 47.702807725955658 ], [ -116.991889528845547, 47.702747925955734 ], [ -116.99118239551332, 47.702671392622548 ], [ -116.990735395513994, 47.702578392622677 ], [ -116.990020128848471, 47.702331925956408 ], [ -116.989686795515638, 47.702123592623416 ], [ -116.989272395516252, 47.702134792623376 ], [ -116.988386995517672, 47.702436792622898 ], [ -116.988021595518219, 47.702678392622538 ], [ -116.987648528852105, 47.703331192621526 ], [ -116.987339795519276, 47.703430125954696 ], [ -116.9871449955196, 47.703638592621076 ], [ -116.98716952885286, 47.703836125954062 ], [ -116.987218395519449, 47.703934792620608 ], [ -116.986860995520033, 47.704099525953666 ], [ -116.987251528852781, 47.704570992619608 ], [ -116.987089195519673, 47.704708192619414 ], [ -116.986975928853155, 47.705234925951913 ], [ -116.986699795520281, 47.705465325951536 ], [ -116.986391328854097, 47.705662925951223 ], [ -116.985570595522006, 47.705838792617612 ], [ -116.985148195522697, 47.705915792617525 ], [ -116.984636195523493, 47.705904992617555 ], [ -116.984213595524125, 47.70582292595099 ], [ -116.983920928857927, 47.705652992617964 ], [ -116.983278795525564, 47.705592925951343 ], [ -116.982579728860003, 47.705220192618583 ], [ -116.982018395527504, 47.704490925953053 ], [ -116.981709328861385, 47.704145525953599 ], [ -116.981335195528587, 47.703811125954132 ], [ -116.981245595528719, 47.703553392621195 ], [ -116.981204795528811, 47.703328392621536 ], [ -116.980895795529293, 47.703163992621796 ], [ -116.980408328863362, 47.703065525955253 ], [ -116.979920728864087, 47.703010792622017 ], [ -116.979457528864842, 47.702983525955403 ], [ -116.978124728866945, 47.702753725955752 ], [ -116.977677928867593, 47.702786792622362 ], [ -116.977303995534839, 47.702781392622391 ], [ -116.976060928870154, 47.702847725955614 ], [ -116.975410795537812, 47.702847925955616 ], [ -116.975069595538343, 47.702985125955415 ], [ -116.97461479553904, 47.703111392621842 ], [ -116.974192395539674, 47.703533925954559 ], [ -116.973810928873618, 47.703983792620534 ], [ -116.973551128874007, 47.704395325953215 ], [ -116.973388928874272, 47.704729792619382 ], [ -116.97338912887426, 47.704932792619047 ], [ -116.973275395541137, 47.705102925952133 ], [ -116.973210528874517, 47.705305792618454 ], [ -116.973194395541213, 47.705492325951525 ], [ -116.973113328874717, 47.705634992617952 ], [ -116.973219128874533, 47.705920192617484 ], [ -116.973065128874794, 47.706424792616765 ], [ -116.972367195542503, 47.707851192614498 ], [ -116.972042395543056, 47.708268125947207 ], [ -116.971701195543559, 47.708421792613649 ], [ -116.971319528877473, 47.708761992613113 ], [ -116.970255395545777, 47.709316325945565 ], [ -116.969629728880093, 47.709590725945141 ], [ -116.968955328881123, 47.709793792611492 ], [ -116.968353995548725, 47.709903725944699 ], [ -116.967744595549661, 47.710040992611141 ], [ -116.967029595550812, 47.710123525944311 ], [ -116.966355128885198, 47.710233392610796 ], [ -116.965761995552782, 47.71044739261049 ], [ -116.964957528887354, 47.710579325943627 ], [ -116.96454312888801, 47.710809725943243 ], [ -116.963909328888988, 47.711018325942931 ], [ -116.96343812888972, 47.711232325942596 ], [ -116.963202528890079, 47.711555992608787 ], [ -116.962967128890455, 47.711824792608354 ], [ -116.962885928890572, 47.711983925941411 ], [ -116.962130195558416, 47.712269325941008 ], [ -116.961601995559263, 47.712422992607401 ], [ -116.961171328893215, 47.712510925940592 ], [ -116.961057528893434, 47.712620592607095 ], [ -116.960610595560738, 47.712664525940397 ], [ -116.960179928894789, 47.712779792606852 ], [ -116.959554195562433, 47.712862192606728 ], [ -116.958912128896714, 47.712840392606786 ], [ -116.958400128897566, 47.712791192606865 ], [ -116.95804252889809, 47.712714392606976 ], [ -116.957449128898986, 47.712637725940397 ], [ -116.957018328899679, 47.71254459260723 ], [ -116.956989696407874, 47.71252641308871 ], [ -116.956990254804111, 47.711847770900519 ], [ -116.957050728899617, 47.712023525941383 ], [ -116.957270195565968, 47.712308725940936 ], [ -116.957611595565425, 47.712352392607549 ], [ -116.957765928898539, 47.712237192607688 ], [ -116.957993395564827, 47.712303125940934 ], [ -116.958318595564322, 47.712472992607324 ], [ -116.959293995562803, 47.712483792607323 ], [ -116.959765195562071, 47.712384992607497 ], [ -116.960179728894786, 47.712357525940824 ], [ -116.960911195560314, 47.712346392607515 ], [ -116.96157752889259, 47.712077525941304 ], [ -116.961983728891994, 47.711984125941456 ], [ -116.962316928891426, 47.71183052594165 ], [ -116.962463128891216, 47.711523192608809 ], [ -116.963096595556905, 47.711040525942899 ], [ -116.96332399555655, 47.710755192609987 ], [ -116.963803395555843, 47.710480792610433 ], [ -116.964209728888534, 47.710387525943936 ], [ -116.964640395554525, 47.710321592610683 ], [ -116.96483532888756, 47.710189925944228 ], [ -116.965290328886866, 47.709992325944533 ], [ -116.965745395552815, 47.70987152594472 ], [ -116.966419928885102, 47.709783592611529 ], [ -116.966679928884687, 47.709712192611612 ], [ -116.966500928884969, 47.709553192611843 ], [ -116.965988795552391, 47.709273592612305 ], [ -116.965135328887058, 47.708939192612824 ], [ -116.964842728887504, 47.70885699261293 ], [ -116.964322595555018, 47.70883519261298 ], [ -116.964013795555488, 47.708906592612898 ], [ -116.963851328889064, 47.709010792612737 ], [ -116.963705195555974, 47.70924119261236 ], [ -116.963697128889294, 47.709350992612201 ], [ -116.962868195557292, 47.709367525945481 ], [ -116.962470128891184, 47.709438925945392 ], [ -116.961242928893114, 47.709291192612277 ], [ -116.960470728894336, 47.708951325946138 ], [ -116.959787728895378, 47.708254792613893 ], [ -116.959413795562625, 47.708018992614242 ], [ -116.958869395563454, 47.708008125947629 ], [ -116.958601128897214, 47.70794239261437 ], [ -116.958324928897653, 47.707925992614371 ], [ -116.958202995564477, 47.708035725947575 ], [ -116.95822739556445, 47.708183792614008 ], [ -116.958211195564502, 47.708282525947197 ], [ -116.958097528898008, 47.708271592613869 ], [ -116.958048728898063, 47.708107125947429 ], [ -116.957886128898323, 47.707942525947715 ], [ -116.957536595565557, 47.707871325947792 ], [ -116.95713032889951, 47.707860392614528 ], [ -116.956993560979996, 47.707829125313957 ], [ -116.956994687841075, 47.706459229010562 ], [ -116.957251528899292, 47.706423325950084 ], [ -116.957682328898656, 47.706593325949818 ], [ -116.957982995564876, 47.706565725949879 ], [ -116.958210595564481, 47.706796125949495 ], [ -116.958365128897583, 47.707103192615705 ], [ -116.958730995563712, 47.707470592615081 ], [ -116.95918612889632, 47.707678992614774 ], [ -116.959746928895456, 47.707898325947781 ], [ -116.960527328894216, 47.708446592613598 ], [ -116.96142959555948, 47.70893459261282 ], [ -116.961714128892368, 47.708929125946156 ], [ -116.961762728892325, 47.708758992613127 ], [ -116.961486328892761, 47.708627392613323 ], [ -116.961551328892668, 47.708539592613462 ], [ -116.961478128892736, 47.708314725947098 ], [ -116.960762595560524, 47.707629325948183 ], [ -116.960420995561023, 47.706982192615847 ], [ -116.960315328894566, 47.70668052594965 ], [ -116.960510328894273, 47.706674992616342 ], [ -116.960656528894063, 47.706559725949823 ], [ -116.960867595560387, 47.706241592617005 ], [ -116.961062528893422, 47.706038592617347 ], [ -116.960932528893565, 47.705945392617473 ], [ -116.960526128894244, 47.705841192617648 ], [ -116.960095328894923, 47.705578125951369 ], [ -116.959599328895663, 47.704898125952418 ], [ -116.959363528896063, 47.704678725952753 ], [ -116.959038528896542, 47.704437392619809 ], [ -116.958843328896819, 47.704239992620096 ], [ -116.958810795563565, 47.704091925953662 ], [ -116.959509728895796, 47.704217925953515 ], [ -116.959948595561784, 47.704338525953283 ], [ -116.960102928894912, 47.704486592619723 ], [ -116.960412128894404, 47.705051525952165 ], [ -116.960631528894055, 47.705320125951808 ], [ -116.960932328893605, 47.705594392618025 ], [ -116.961241328893095, 47.705835592617618 ], [ -116.962005195558604, 47.706202992617072 ], [ -116.962297928891473, 47.706312592616882 ], [ -116.962387328891339, 47.706515525949882 ], [ -116.962338795558082, 47.706778792616205 ], [ -116.962135728891738, 47.707042125949101 ], [ -116.961802728892224, 47.707404192615229 ], [ -116.961469595559436, 47.707546925948343 ], [ -116.961485928892714, 47.707843125947875 ], [ -116.961933128892042, 47.708210392613985 ], [ -116.962087728891802, 47.70858339261337 ], [ -116.962298995558172, 47.708687592613231 ], [ -116.962949128890429, 47.708769725946411 ], [ -116.963379928889822, 47.708692792613192 ], [ -116.964208595555206, 47.708451325946903 ], [ -116.964688128887772, 47.708412725946964 ], [ -116.96499692888726, 47.708538925946748 ], [ -116.965565928886406, 47.708725192613151 ], [ -116.966029328885668, 47.708900592612906 ], [ -116.96646819555167, 47.709169192612471 ], [ -116.967175328883911, 47.709388392612126 ], [ -116.967646728883139, 47.709360925945525 ], [ -116.968150595549062, 47.709393592612116 ], [ -116.968776195548102, 47.709278325945647 ], [ -116.969328728880555, 47.70905879261268 ], [ -116.969921795546341, 47.708882992612928 ], [ -116.970246795545791, 47.708685525946571 ], [ -116.970506595545416, 47.708345392613744 ], [ -116.971318795544178, 47.707725325948047 ], [ -116.97169239554357, 47.707319325948667 ], [ -116.971927728876565, 47.706951725949239 ], [ -116.972130595542865, 47.706512925949937 ], [ -116.972219728876112, 47.706106992617208 ], [ -116.972154595542861, 47.705947925950795 ], [ -116.972048995542991, 47.705997325950705 ], [ -116.971829595543355, 47.706024925950658 ], [ -116.971861995543293, 47.705854792617629 ], [ -116.972065128876309, 47.705816392617685 ], [ -116.972195128876137, 47.705717592617816 ], [ -116.972259995542672, 47.705503725951473 ], [ -116.972389795542483, 47.705273325951843 ], [ -116.972373195542502, 47.704883792619107 ], [ -116.972397395542501, 47.704565725952925 ], [ -116.97252719554227, 47.704291392620057 ], [ -116.97266512887542, 47.70386352595402 ], [ -116.973022395541477, 47.703528792621228 ], [ -116.973436595540875, 47.703320192621568 ], [ -116.973728928873754, 47.703051392621944 ], [ -116.973907528873454, 47.702782592622377 ], [ -116.974354328872778, 47.702590392622717 ], [ -116.975564795537522, 47.702310325956425 ], [ -116.976028128870169, 47.702441792622892 ], [ -116.976442395536196, 47.702353792623057 ], [ -116.976612995535888, 47.702342792623092 ], [ -116.97700312886866, 47.702452392622881 ], [ -116.977173728868365, 47.702359125956377 ], [ -116.977067995535194, 47.702232925956601 ], [ -116.976994595535345, 47.702057525956832 ], [ -116.977100328868531, 47.702040992623559 ], [ -116.977311728868173, 47.702145192623391 ], [ -116.97783979553401, 47.702172392623304 ], [ -116.978627995532818, 47.702259925956518 ], [ -116.97888819553242, 47.702369392623041 ], [ -116.979139995532023, 47.702319992623067 ], [ -116.979310528865099, 47.702210192623276 ], [ -116.980049995530578, 47.702253792623203 ], [ -116.980740728862827, 47.702264525956537 ], [ -116.981098328862302, 47.702335725956395 ], [ -116.9813909955285, 47.702527592622801 ], [ -116.9819681955276, 47.702818125955673 ], [ -116.982431528860204, 47.703114125955196 ], [ -116.982122795527403, 47.703168992621791 ], [ -116.981870995527757, 47.703256925954967 ], [ -116.981676195528053, 47.703432525954732 ], [ -116.981944328861005, 47.703541992621176 ], [ -116.982139595527372, 47.703755925954226 ], [ -116.982107395527407, 47.703975325953877 ], [ -116.982261928860524, 47.704178192620198 ], [ -116.982554595526722, 47.704397392619846 ], [ -116.982895995526178, 47.704550925952965 ], [ -116.983009995526004, 47.704720925952692 ], [ -116.983400195525391, 47.704934592619054 ], [ -116.983538528858503, 47.705126592618733 ], [ -116.984058728857676, 47.70533479261843 ], [ -116.98485532885644, 47.705499125951526 ], [ -116.9852371288559, 47.705416592618299 ], [ -116.986447395520642, 47.704933392619061 ], [ -116.98647952885392, 47.704489125953053 ], [ -116.986097595521187, 47.704489192619732 ], [ -116.985853728854934, 47.704379725953224 ], [ -116.985829128854959, 47.704204125953531 ], [ -116.985633928855236, 47.703929992620601 ], [ -116.985527928855447, 47.703716125954259 ], [ -116.985722795521795, 47.703419792621389 ], [ -116.985925795521496, 47.703277125954962 ], [ -116.986388928854069, 47.703260525954981 ], [ -116.986705728853622, 47.703205525955077 ], [ -116.986973595519828, 47.702936592622173 ], [ -116.98729032885268, 47.702760992622402 ], [ -116.987387595519195, 47.702481192622813 ], [ -116.987566128852279, 47.702228792623252 ], [ -116.987793395518565, 47.702053192623495 ], [ -116.98782572885186, 47.701762525957292 ], [ -116.988093795518111, 47.701685592624081 ], [ -116.988954595516759, 47.701279192624717 ], [ -116.989409728849395, 47.701328392624646 ], [ -116.989726728848893, 47.701481792624399 ], [ -116.99005212884839, 47.701772392623973 ], [ -116.990556128847643, 47.702029925956865 ], [ -116.990856728847177, 47.701991525956942 ], [ -116.9911005288468, 47.702079125956793 ], [ -116.992449528844702, 47.702259392623212 ], [ -116.993814395509219, 47.702110725956743 ], [ -116.994610595507979, 47.70198412595699 ], [ -116.995390395506774, 47.701671125957432 ], [ -116.996178128838906, 47.701390925957867 ], [ -116.996787128837923, 47.701023125958443 ], [ -116.997152528837375, 47.700737725958895 ], [ -116.997427995503642, 47.700150592626471 ], [ -116.997378995503709, 47.699865525960263 ], [ -116.997208328837303, 47.699947792626801 ], [ -116.996997395504295, 47.700145392626496 ], [ -116.996623728838188, 47.700260792626295 ], [ -116.99613639550563, 47.700458525959341 ], [ -116.995771128839536, 47.700661725959023 ], [ -116.995454328840026, 47.70074959262552 ], [ -116.995372795506796, 47.700601592625787 ], [ -116.995559595506492, 47.700486192625938 ], [ -116.995973795505918, 47.700310525959537 ], [ -116.996655728838149, 47.699860392626931 ], [ -116.997069995504162, 47.699712125960509 ], [ -116.997289128837167, 47.69954739262738 ], [ -116.997296995503817, 47.699305992627778 ], [ -116.997361595503719, 47.699020792628232 ], [ -116.998075795502601, 47.698318392629297 ], [ -116.998148595502528, 47.697945325963254 ], [ -116.998074995502634, 47.697566925963827 ], [ -116.997798328836367, 47.69719959263103 ], [ -116.997781528836398, 47.696777192631714 ], [ -116.997968128836135, 47.696524792632097 ], [ -116.998308928835584, 47.696162592632668 ], [ -116.998487395501968, 47.695888325966386 ], [ -116.998682128835014, 47.695646925966791 ], [ -116.999023328834468, 47.695712525966712 ], [ -116.999445928833836, 47.695827525966543 ], [ -116.999811595499921, 47.695838192633175 ], [ -117.000152595499387, 47.695772192633278 ], [ -117.000509795498843, 47.695525125966981 ], [ -117.000753395498464, 47.69542079263379 ], [ -117.000858795498289, 47.695267192634041 ], [ -117.001004995498064, 47.695206792634167 ], [ -117.001170195497821, 47.6950589259677 ], [ -117.001227128831033, 47.694987592634504 ], [ -117.001405995497464, 47.694757325968162 ], [ -117.00154439549722, 47.694532592635198 ], [ -117.001796595496828, 47.694208992635716 ], [ -117.001902328829999, 47.694110392635821 ], [ -117.002056928829731, 47.694017192636025 ], [ -117.002186995496231, 47.693934992636109 ], [ -117.002333328829366, 47.693797992636355 ], [ -117.002422728829174, 47.693715725969817 ], [ -117.00269912882878, 47.693556792636684 ], [ -117.002788728828634, 47.693501992636818 ], [ -117.003040728828239, 47.693331992637063 ], [ -117.003146328828052, 47.69323892597054 ], [ -117.00328472882785, 47.693112925970759 ], [ -117.003520395494164, 47.692937392637639 ], [ -117.003739928827159, 47.692800392637878 ], [ -117.003845728826988, 47.692685325971404 ], [ -117.004089595493284, 47.692482392638389 ], [ -117.004357928826209, 47.692285125972035 ], [ -117.004618128825769, 47.692082325972301 ], [ -117.004788795492175, 47.69200012597247 ], [ -117.004886328825364, 47.691967192639204 ], [ -117.005048795491803, 47.691956392639213 ], [ -117.005324995491378, 47.691950992639192 ], [ -117.005365728824657, 47.691940125972557 ], [ -117.005414395491243, 47.691901592639283 ], [ -117.005398195491239, 47.691857725972667 ], [ -117.005325128824722, 47.691813792639429 ], [ -117.005325128824722, 47.691786525972759 ], [ -117.005365795491301, 47.691780992639451 ], [ -117.005487728824448, 47.691791992639423 ], [ -117.005568928824289, 47.691791992639423 ], [ -117.005698928824131, 47.691786592639467 ], [ -117.005869528823837, 47.69174832597286 ], [ -117.005975195490365, 47.691748392639511 ], [ -117.006218795489985, 47.691775925972813 ], [ -117.006381328823053, 47.691770525972807 ], [ -117.006568195489422, 47.691754125972871 ], [ -117.006706328822531, 47.691748725972836 ], [ -117.00690939548889, 47.691765192639473 ], [ -117.007234328821696, 47.691825725972713 ], [ -117.007331728821569, 47.691836725972742 ], [ -117.007583595487858, 47.691880725972624 ], [ -117.007721728820968, 47.691880792639324 ], [ -117.007908395487334, 47.692023525972438 ], [ -117.007989595487217, 47.692045525972382 ], [ -117.008135795487036, 47.692050992639054 ], [ -117.008233328820154, 47.692067525972341 ], [ -117.008273928820117, 47.692072992639005 ], [ -117.008387528819924, 47.692144325972208 ], [ -117.008460595486497, 47.692193792638818 ], [ -117.008484928819755, 47.692286992638692 ], [ -117.008541795486394, 47.692363925971904 ], [ -117.008630995486214, 47.692457192638415 ], [ -117.008760928819356, 47.692561392638261 ], [ -117.008850195485877, 47.692632792638157 ], [ -117.008971928819065, 47.692764392637919 ], [ -117.009231595485289, 47.692994925970922 ], [ -117.009637595484662, 47.693313192637092 ], [ -117.009832328817694, 47.693444992636898 ], [ -117.010124728817246, 47.693565792636718 ], [ -117.010213995483738, 47.693598725969991 ], [ -117.010546995483253, 47.693807325969665 ], [ -117.010814928816174, 47.693960992636057 ], [ -117.011123528815702, 47.694125725969172 ], [ -117.011366995481964, 47.694323325968874 ], [ -117.01164312881491, 47.694520792635217 ], [ -117.012024595480966, 47.694899392634625 ], [ -117.01242232881367, 47.69529999263397 ], [ -117.012511595480191, 47.695426192633818 ], [ -117.013006728812812, 47.695930992633002 ], [ -117.013225928812403, 47.69609572596606 ], [ -117.013558928811904, 47.696298725965796 ], [ -117.013997395477887, 47.69649092596547 ], [ -117.014346728810679, 47.69661172596529 ], [ -117.01486652880989, 47.696809392631685 ], [ -117.015215728809338, 47.696891792631511 ], [ -117.015768128808475, 47.697034592631326 ], [ -117.016149995474564, 47.697089592631244 ], [ -117.016564328807249, 47.69711719263119 ], [ -117.017514795472437, 47.697194325964396 ], [ -117.017912928805188, 47.697183525964419 ], [ -117.018164795471421, 47.697189125964421 ], [ -117.018855395470368, 47.697266192630934 ], [ -117.019269728803067, 47.697266325964272 ], [ -117.01966779546909, 47.697249992630979 ], [ -117.019960395468686, 47.697200725964358 ], [ -117.020651128800921, 47.69709132596455 ], [ -117.021455595466293, 47.696992792631363 ], [ -117.021715595465921, 47.696959992631427 ], [ -117.021959328798857, 47.696910725964806 ], [ -117.022138195465288, 47.696850392631575 ], [ -117.022463195464752, 47.696768192631737 ], [ -117.022788195464273, 47.696696992631814 ], [ -117.023202595463616, 47.696620325965277 ], [ -117.023356995463374, 47.696592992632013 ], [ -117.0236739287962, 47.696499792632146 ], [ -117.023966528795768, 47.696362792632328 ], [ -117.02448659546161, 47.696149125966038 ], [ -117.024827995461067, 47.696001125966234 ], [ -117.025136795460597, 47.695825725966529 ], [ -117.025518795460016, 47.695650192633479 ], [ -117.025697728793091, 47.695567992633585 ], [ -117.025868328792782, 47.695458392633732 ], [ -117.026364195458726, 47.695069125967677 ], [ -117.026835728791312, 47.694729192634888 ], [ -117.027160728790818, 47.694537325968483 ], [ -117.02731519545722, 47.694449592635287 ], [ -117.02764019545674, 47.694202925969009 ], [ -117.028014195456137, 47.693923192636134 ], [ -117.028469328788802, 47.693643592636597 ], [ -117.028745595454993, 47.693484592636814 ], [ -117.029273795454174, 47.693232525970529 ], [ -117.029615195453687, 47.693062525970795 ], [ -117.030151595452821, 47.692777392637936 ], [ -117.030484728785666, 47.692662325971419 ], [ -117.030687795451954, 47.692563592638244 ], [ -117.030964195451588, 47.692459525971735 ], [ -117.031280995451098, 47.692349925971939 ], [ -117.031727928783695, 47.692218392638786 ], [ -117.032020528783292, 47.69209232597229 ], [ -117.032637995448979, 47.691955325972501 ], [ -117.032759928782127, 47.691922392639242 ], [ -117.032979195448434, 47.691867592639312 ], [ -117.033426128781073, 47.691758125972854 ], [ -117.034043595446818, 47.691675925972966 ], [ -117.034498595446067, 47.691632125972994 ], [ -117.034790928778946, 47.69163772597301 ], [ -117.035115928778453, 47.691719992639548 ], [ -117.035530195444508, 47.691857325972641 ], [ -117.035651928777611, 47.691939592639194 ], [ -117.03585499544397, 47.692060192639019 ], [ -117.035968728777121, 47.692115125972293 ], [ -117.03603372877707, 47.692126125972266 ], [ -117.036122995443577, 47.692137125972238 ], [ -117.036155595443503, 47.692142592638902 ], [ -117.036293595443297, 47.692312725971995 ], [ -117.036504595442977, 47.692685725971387 ], [ -117.036618328776115, 47.692789925971226 ], [ -117.036707728775994, 47.692828392637814 ], [ -117.036756528775939, 47.692861325971137 ], [ -117.036796995442501, 47.692927125971032 ], [ -117.036845728775745, 47.693097192637417 ], [ -117.036894328775702, 47.693256192637186 ], [ -117.036934995442337, 47.69329459263713 ], [ -117.03708119544207, 47.693332992637053 ], [ -117.037162395441953, 47.693349525970362 ], [ -117.037243595441808, 47.69339892597025 ], [ -117.037300528775063, 47.69344832597023 ], [ -117.037414128774913, 47.693535992636733 ], [ -117.037657795441206, 47.693755525969721 ], [ -117.037787728774333, 47.69391452596949 ], [ -117.038226328773632, 47.694408325968709 ], [ -117.038404795439973, 47.694545392635177 ], [ -117.039022128772388, 47.694984392634474 ], [ -117.039111528772253, 47.695061192634341 ], [ -117.039241395438694, 47.695214792634154 ], [ -117.03949319543834, 47.695417792633805 ], [ -117.039996785330715, 47.695796799290484 ], [ -117.03999748715853, 47.696714525529707 ], [ -117.039850195437793, 47.696602592631962 ] ], [ [ -116.998764395501567, 47.696606725965289 ], [ -116.998983795501204, 47.696677792631874 ], [ -116.999260128834123, 47.69669959263183 ], [ -116.999446995500477, 47.696628192631927 ], [ -116.999722995500079, 47.696463525965505 ], [ -116.999966328833011, 47.696183725965959 ], [ -116.99979572883332, 47.696178325965946 ], [ -116.999576395500299, 47.696238725965877 ], [ -116.999153995500933, 47.696266392632481 ], [ -116.998804795501485, 47.696463992632175 ], [ -116.998764395501567, 47.696606725965289 ] ], [ [ -116.998219995502367, 47.696595925965312 ], [ -116.998114528835913, 47.69661799263195 ], [ -116.99802532883605, 47.696787992631691 ], [ -116.997911995502889, 47.697144592631155 ], [ -116.997985195502736, 47.697248792630994 ], [ -116.998302395502265, 47.697522925963881 ], [ -116.998318528835568, 47.697385792630769 ], [ -116.998245195502363, 47.697210325964363 ], [ -116.998220528835702, 47.697018325964677 ], [ -116.998244728835687, 47.696754992631725 ], [ -116.998219995502367, 47.696595925965312 ] ], [ [ -116.959802328895364, 47.704678592619409 ], [ -116.959664195562254, 47.704689592619445 ], [ -116.959639928895626, 47.704793792619292 ], [ -116.95987572889527, 47.704991192618927 ], [ -116.960038328894996, 47.705205125951977 ], [ -116.960225328894694, 47.705435392618256 ], [ -116.960485395560966, 47.70560539261799 ], [ -116.960721128893908, 47.705682125951228 ], [ -116.96057472889413, 47.705512125951479 ], [ -116.960119528894836, 47.705144792618732 ], [ -116.960013728895049, 47.704919925952439 ], [ -116.959802328895364, 47.704678592619409 ] ], [ [ -117.007574928821228, 47.692374392638563 ], [ -117.007469395488044, 47.692390792638498 ], [ -117.007452995488038, 47.692407192638477 ], [ -117.007493595487986, 47.692434725971793 ], [ -117.007582928821208, 47.692456592638386 ], [ -117.007777928820886, 47.692533525971605 ], [ -117.008086528820414, 47.692665325971397 ], [ -117.008200128820263, 47.69272572597135 ], [ -117.00827332882011, 47.692731192638 ], [ -117.008362595486645, 47.692731325971302 ], [ -117.008395128819927, 47.692692792638077 ], [ -117.008370928819943, 47.692643525971448 ], [ -117.008200395486895, 47.692522792638322 ], [ -117.00798099548723, 47.692451392638418 ], [ -117.007745528820919, 47.692379992638507 ], [ -117.007574928821228, 47.692374392638563 ] ], [ [ -117.005820528823918, 47.691973125972481 ], [ -117.005755595490712, 47.691989592639125 ], [ -117.005674328824185, 47.692000525972439 ], [ -117.005666195490846, 47.692027992639055 ], [ -117.005747395490673, 47.69207192597235 ], [ -117.005852928823856, 47.692099325972315 ], [ -117.005982928823713, 47.692110392638938 ], [ -117.006112928823484, 47.692115925972288 ], [ -117.006177795490032, 47.692115925972296 ], [ -117.006234728823316, 47.692099525972303 ], [ -117.006226728823336, 47.6920281926391 ], [ -117.006112995490128, 47.691995325972471 ], [ -117.006015528823639, 47.691995192639126 ], [ -117.005909928823769, 47.691973192639182 ], [ -117.005820528823918, 47.691973125972481 ] ], [ [ -116.959545928895764, 47.712664792607029 ], [ -116.96003359556164, 47.712659192607077 ], [ -116.96009859556159, 47.712631725940405 ], [ -116.959887195561919, 47.712527525940573 ], [ -116.959708395562188, 47.712560525940546 ], [ -116.959545928895764, 47.712664792607029 ] ] ] } }
]
}
