{
"type": "FeatureCollection",
"name": "spokane_river_post_falls_to_stateline_cv",
"crs": { "type": "name", "properties": { "name": "urn:ogc:def:crs:OGC:1.3:CRS84" } },
"features": [
{ "type": "Feature", "properties": { "reach_m": 21.035800027869158, "source": "cv" }, "geometry": { "type": "Point", "coordinates": [ -117.025352259428061, 47.695954095620557 ] } },
{ "type": "Feature", "properties": { "reach_m": 27.521742115325836, "source": "cv" }, "geometry": { "type": "Point", "coordinates": [ -117.026320349422704, 47.695482906041576 ] } },
{ "type": "Feature", "properties": { "reach_m": 27.621358640099515, "source": "cv" }, "geometry": { "type": "Point", "coordinates": [ -117.026372388278759, 47.695440717529451 ] } },
{ "type": "Feature", "properties": { "reach_m": 33.145630368119413, "source": "cv" }, "geometry": { "type": "Point", "coordinates": [ -117.038460427801766, 47.695015537052861 ] } },
{ "type": "Feature", "properties": { "reach_m": 27.209491823856247, "source": "cv" }, "geometry": { "type": "Point", "coordinates": [ -117.038137534950152, 47.694846938547528 ] } },
{ "type": "Feature", "properties": { "reach_m": 32.040776022515431, "source": "cv" }, "geometry": { "type": "Point", "coordinates": [ -117.03813747856934, 47.694769614855687 ] } },
{ "type": "Feature", "properties": { "reach_m": 14.532090029483028, "source": "cv" }, "geometry": { "type": "Point", "coordinates": [ -117.02732986033223, 47.694611020992902 ] } },
{ "type": "Feature", "properties": { "reach_m": 23.76079113397742, "source": "cv" }, "geometry": { "type": "Point", "coordinates": [ -117.027558906235882, 47.69458284849901 ] } },
{ "type": "Feature", "properties": { "reach_m": 30.817317067681284, "source": "cv" }, "geometry": { "type": "Point", "coordinates": [ -117.037783241020236, 47.694446378330703 ] } },
{ "type": "Feature", "properties": { "reach_m": 27.81952158557009, "source": "cv" }, "geometry": { "type": "Point", "coordinates": [ -117.027819127591584, 47.69444219713732 ] } },
{ "type": "Feature", "properties": { "reach_m": 21.664725974784449, "source": "cv" }, "geometry": { "type": "Point", "coordinates": [ -117.037876906649771, 47.694390112021871 ] } },
{ "type": "Feature", "properties": { "reach_m": 16.086922095292188, "source": "cv" }, "geometry": { "type": "Point", "coordinates": [ -117.037876835383955, 47.694291700042079 ] } },
{ "type": "Feature", "properties": { "reach_m": 26.51650429449553, "source": "cv" }, "geometry": { "type": "Point", "coordinates": [ -117.028287461678644, 47.694076552342146 ] } },
{ "type": "Feature", "properties": { "reach_m": 10.510643786776336, "source": "cv" }, "geometry": { "type": "Point", "coordinates": [ -117.029005782380736, 47.693914696146486 ] } },
{ "type": "Feature", "properties": { "reach_m": 21.452390965228098, "source": "cv" }, "geometry": { "type": "Point", "coordinates": [ -117.036991545207158, 47.693884281956755 ] } },
{ "type": "Feature", "properties": { "reach_m": 10.626148834949566, "source": "cv" }, "geometry": { "type": "Point", "coordinates": [ -117.029411716618597, 47.693696680506982 ] } },
{ "type": "Feature", "properties": { "reach_m": 29.902592514069749, "source": "cv" }, "geometry": { "type": "Point", "coordinates": [ -117.029005657641036, 47.693689754436832 ] } },
{ "type": "Feature", "properties": { "reach_m": 14.405538214520137, "source": "cv" }, "geometry": { "type": "Point", "coordinates": [ -117.037282892574567, 47.693631128203265 ] } },
{ "type": "Feature", "properties": { "reach_m": 27.972677796825245, "source": "cv" }, "geometry": { "type": "Point", "coordinates": [ -117.03699133641193, 47.693589045983174 ] } },
{ "type": "Feature", "properties": { "reach_m": 21.888946447065468, "source": "cv" }, "geometry": { "type": "Point", "coordinates": [ -117.029807183771936, 47.69338728355406 ] } },
{ "type": "Feature", "properties": { "reach_m": 11.925263689432615, "source": "cv" }, "geometry": { "type": "Point", "coordinates": [ -117.029265768404187, 47.693366334624365 ] } },
{ "type": "Feature", "properties": { "reach_m": 16.086922095292188, "source": "cv" }, "geometry": { "type": "Point", "coordinates": [ -117.030587898090729, 47.693119959757148 ] } },
{ "type": "Feature", "properties": { "reach_m": 9.8821176880261863, "source": "cv" }, "geometry": { "type": "Point", "coordinates": [ -117.036688994353156, 47.693012729783106 ] } },
{ "type": "Feature", "properties": { "reach_m": 24.231347530110661, "source": "cv" }, "geometry": { "type": "Point", "coordinates": [ -117.0315871101011, 47.69262762891416 ] } },
{ "type": "Feature", "properties": { "reach_m": 8.7346405371085538, "source": "cv" }, "geometry": { "type": "Point", "coordinates": [ -117.032118107286905, 47.69264856981011 ] } },
{ "type": "Feature", "properties": { "reach_m": 37.759518667483036, "source": "cv" }, "geometry": { "type": "Point", "coordinates": [ -117.035866136301593, 47.692506870913299 ] } },
{ "type": "Feature", "properties": { "reach_m": 48.115106531758819, "source": "cv" }, "geometry": { "type": "Point", "coordinates": [ -117.035147601123427, 47.692289180883314 ] } },
{ "type": "Feature", "properties": { "reach_m": 43.420916348719544, "source": "cv" }, "geometry": { "type": "Point", "coordinates": [ -117.034179190464855, 47.692057502182976 ] } },
{ "type": "Feature", "properties": { "reach_m": 19.53125, "source": "cv" }, "geometry": { "type": "Point", "coordinates": [ -117.032430163442612, 47.692184539586655 ] } },
{ "type": "Feature", "properties": { "reach_m": 31.132591945580117, "source": "cv" }, "geometry": { "type": "Point", "coordinates": [ -117.033273426067836, 47.692092915557481 ] } },
{ "type": "Feature", "properties": { "reach_m": 20.025008778087962, "source": "cv" }, "geometry": { "type": "Point", "coordinates": [ -117.032867379036006, 47.692086003147779 ] } },
{ "type": "Feature", "properties": { "reach_m": 41.516657048707572, "source": "cv" }, "geometry": { "type": "Point", "coordinates": [ -117.034876750369804, 47.692057292287174 ] } },
{ "type": "Feature", "properties": { "reach_m": 31.724907037885863, "source": "cv" }, "geometry": { "type": "Point", "coordinates": [ -117.03366900756123, 47.692015476422497 ] } },
{ "type": "Feature", "properties": { "reach_m": 27.119617121421534, "source": "cv" }, "geometry": { "type": "Point", "coordinates": [ -117.033783495911521, 47.691959207319414 ] } },
{ "type": "Feature", "properties": { "reach_m": 16.554390703450853, "source": "cv" }, "geometry": { "type": "Point", "coordinates": [ -117.033387843225256, 47.691924175963699 ] } },
{ "type": "Feature", "properties": { "reach_m": 18.520733736140151, "source": "cv" }, "geometry": { "type": "Point", "coordinates": [ -117.034834950522352, 47.691825333736773 ] } },
{ "type": "Feature", "properties": { "reach_m": 24.067065313670881, "source": "cv" }, "geometry": { "type": "Point", "coordinates": [ -117.018033177340385, 47.69780421816349 ] } },
{ "type": "Feature", "properties": { "reach_m": 14.256474680386452, "source": "cv" }, "geometry": { "type": "Point", "coordinates": [ -117.017491732704642, 47.697818360823092 ] } },
{ "type": "Feature", "properties": { "reach_m": 10.626148834949566, "source": "cv" }, "geometry": { "type": "Point", "coordinates": [ -117.017158530715022, 47.697811381705471 ] } },
{ "type": "Feature", "properties": { "reach_m": 25.591155240873746, "source": "cv" }, "geometry": { "type": "Point", "coordinates": [ -117.017429220281485, 47.697705899543188 ] } },
{ "type": "Feature", "properties": { "reach_m": 29.749113694780892, "source": "cv" }, "geometry": { "type": "Point", "coordinates": [ -117.017148060604569, 47.697635647657307 ] } },
{ "type": "Feature", "properties": { "reach_m": 42.769424041159361, "source": "cv" }, "geometry": { "type": "Point", "coordinates": [ -117.017658249475431, 47.697572305459964 ] } },
{ "type": "Feature", "properties": { "reach_m": 40.759992064829945, "source": "cv" }, "geometry": { "type": "Point", "coordinates": [ -117.017106376300816, 47.697530212508347 ] } },
{ "type": "Feature", "properties": { "reach_m": 35.329434545609416, "source": "cv" }, "geometry": { "type": "Point", "coordinates": [ -117.015502794969947, 47.697305498758759 ] } },
{ "type": "Feature", "properties": { "reach_m": 38.567172022492137, "source": "cv" }, "geometry": { "type": "Point", "coordinates": [ -117.017949783349962, 47.697530083679055 ] } },
{ "type": "Feature", "properties": { "reach_m": 37.5, "source": "cv" }, "geometry": { "type": "Point", "coordinates": [ -117.018033080387454, 47.697523041194422 ] } },
{ "type": "Feature", "properties": { "reach_m": 34.807295953039784, "source": "cv" }, "geometry": { "type": "Point", "coordinates": [ -117.017939358861241, 47.697494938185258 ] } },
{ "type": "Feature", "properties": { "reach_m": 23.306927953400468, "source": "cv" }, "geometry": { "type": "Point", "coordinates": [ -117.015971343846303, 47.697277316801269 ] } },
{ "type": "Feature", "properties": { "reach_m": 9.5043164535909685, "source": "cv" }, "geometry": { "type": "Point", "coordinates": [ -117.017137521461919, 47.697249030863517 ] } },
{ "type": "Feature", "properties": { "reach_m": 23.070036031614688, "source": "cv" }, "geometry": { "type": "Point", "coordinates": [ -117.013940843060965, 47.696954227884547 ] } },
{ "type": "Feature", "properties": { "reach_m": 27.074567892442904, "source": "cv" }, "geometry": { "type": "Point", "coordinates": [ -117.013857522164727, 47.696869884870559 ] } },
{ "type": "Feature", "properties": { "reach_m": 29.00111123948529, "source": "cv" }, "geometry": { "type": "Point", "coordinates": [ -117.014003271799339, 47.696785514069504 ] } },
{ "type": "Feature", "properties": { "reach_m": 13.28125, "source": "cv" }, "geometry": { "type": "Point", "coordinates": [ -116.998395262238347, 47.696603592202308 ] } },
{ "type": "Feature", "properties": { "reach_m": 16.828640022295325, "source": "cv" }, "geometry": { "type": "Point", "coordinates": [ -116.998301556793706, 47.696455972908218 ] } },
{ "type": "Feature", "properties": { "reach_m": 24.407030237208293, "source": "cv" }, "geometry": { "type": "Point", "coordinates": [ -116.998468152303019, 47.69645597525308 ] } },
{ "type": "Feature", "properties": { "reach_m": 31.811364174222394, "source": "cv" }, "geometry": { "type": "Point", "coordinates": [ -116.99883258860946, 47.69606936109286 ] } },
{ "type": "Feature", "properties": { "reach_m": 13.643944684822639, "source": "cv" }, "geometry": { "type": "Point", "coordinates": [ -116.998436921737436, 47.696252121472497 ] } },
{ "type": "Feature", "properties": { "reach_m": 26.722861525761051, "source": "cv" }, "geometry": { "type": "Point", "coordinates": [ -116.998926297602168, 47.696083420861008 ] } },
{ "type": "Feature", "properties": { "reach_m": 11.535018015807344, "source": "cv" }, "geometry": { "type": "Point", "coordinates": [ -117.012035125149211, 47.695808647116245 ] } },
{ "type": "Feature", "properties": { "reach_m": 32.960973608951541, "source": "cv" }, "geometry": { "type": "Point", "coordinates": [ -117.012149607521494, 47.695590722814892 ] } },
{ "type": "Feature", "properties": { "reach_m": 29.252570666951648, "source": "cv" }, "geometry": { "type": "Point", "coordinates": [ -117.001029544422693, 47.695753038209652 ] } },
{ "type": "Feature", "properties": { "reach_m": 10.85347186675766, "source": "cv" }, "geometry": { "type": "Point", "coordinates": [ -117.011722702571433, 47.695541561230684 ] } },
{ "type": "Feature", "properties": { "reach_m": 24.816219022294671, "source": "cv" }, "geometry": { "type": "Point", "coordinates": [ -117.001300253943327, 47.695570270358488 ] } },
{ "type": "Feature", "properties": { "reach_m": 8.9076205085870157, "source": "cv" }, "geometry": { "type": "Point", "coordinates": [ -117.000821298640233, 47.695485921659596 ] } },
{ "type": "Feature", "properties": { "reach_m": 10.186253758129139, "source": "cv" }, "geometry": { "type": "Point", "coordinates": [ -117.011451937276732, 47.695302588042345 ] } },
{ "type": "Feature", "properties": { "reach_m": 35.112820397256613, "source": "cv" }, "geometry": { "type": "Point", "coordinates": [ -117.011878832039386, 47.695316603499663 ] } },
{ "type": "Feature", "properties": { "reach_m": 28.179201245111614, "source": "cv" }, "geometry": { "type": "Point", "coordinates": [ -117.001425193287716, 47.695380474338485 ] } },
{ "type": "Feature", "properties": { "reach_m": 24.306795603287572, "source": "cv" }, "geometry": { "type": "Point", "coordinates": [ -117.001237776528214, 47.695352358803525 ] } },
{ "type": "Feature", "properties": { "reach_m": 25.158190918913466, "source": "cv" }, "geometry": { "type": "Point", "coordinates": [ -117.01206625438725, 47.695344701654669 ] } },
{ "type": "Feature", "properties": { "reach_m": 10.004881620988826, "source": "cv" }, "geometry": { "type": "Point", "coordinates": [ -117.011410281651067, 47.69526744505437 ] } },
{ "type": "Feature", "properties": { "reach_m": 13.643944684822639, "source": "cv" }, "geometry": { "type": "Point", "coordinates": [ -117.001893723087733, 47.695092261032727 ] } },
{ "type": "Feature", "properties": { "reach_m": 35.536141923575499, "source": "cv" }, "geometry": { "type": "Point", "coordinates": [ -117.011680961798461, 47.695126829267316 ] } },
{ "type": "Feature", "properties": { "reach_m": 9.9436891104358249, "source": "cv" }, "geometry": { "type": "Point", "coordinates": [ -117.011202010384423, 47.695119847594796 ] } },
{ "type": "Feature", "properties": { "reach_m": 22.124691028916089, "source": "cv" }, "geometry": { "type": "Point", "coordinates": [ -117.011399831365679, 47.695091710401876 ] } },
{ "type": "Feature", "properties": { "reach_m": 35.303511024046884, "source": "cv" }, "geometry": { "type": "Point", "coordinates": [ -117.001924945995938, 47.694740789115343 ] } },
{ "type": "Feature", "properties": { "reach_m": 17.151951875078243, "source": "cv" }, "geometry": { "type": "Point", "coordinates": [ -117.002258123660269, 47.69468454761688 ] } },
{ "type": "Feature", "properties": { "reach_m": 41.169725394548117, "source": "cv" }, "geometry": { "type": "Point", "coordinates": [ -117.010139785385348, 47.694058502689771 ] } },
{ "type": "Feature", "properties": { "reach_m": 23.306927953400468, "source": "cv" }, "geometry": { "type": "Point", "coordinates": [ -117.010462622501535, 47.69442400400591 ] } },
{ "type": "Feature", "properties": { "reach_m": 11.048543456039805, "source": "cv" }, "geometry": { "type": "Point", "coordinates": [ -117.010493753583745, 47.693903823425032 ] } },
{ "type": "Feature", "properties": { "reach_m": 20.992232566475629, "source": "cv" }, "geometry": { "type": "Point", "coordinates": [ -117.004038441599064, 47.693243465800116 ] } },
{ "type": "Feature", "properties": { "reach_m": 33.602833074385266, "source": "cv" }, "geometry": { "type": "Point", "coordinates": [ -117.008640314562058, 47.692969063790315 ] } },
{ "type": "Feature", "properties": { "reach_m": 8.8388347648318444, "source": "cv" }, "geometry": { "type": "Point", "coordinates": [ -117.004465306769717, 47.693130979101852 ] } },
{ "type": "Feature", "properties": { "reach_m": 27.621358640099515, "source": "cv" }, "geometry": { "type": "Point", "coordinates": [ -117.008681978163693, 47.693074502100046 ] } },
{ "type": "Feature", "properties": { "reach_m": 23.306927953400468, "source": "cv" }, "geometry": { "type": "Point", "coordinates": [ -117.004350770867774, 47.693025542048353 ] } },
{ "type": "Feature", "properties": { "reach_m": 28.437929255002025, "source": "cv" }, "geometry": { "type": "Point", "coordinates": [ -117.004215422593688, 47.693046635391141 ] } },
{ "type": "Feature", "properties": { "reach_m": 34.807295953039784, "source": "cv" }, "geometry": { "type": "Point", "coordinates": [ -117.004194594439127, 47.692983371281699 ] } },
{ "type": "Feature", "properties": { "reach_m": 23.20194125768359, "source": "cv" }, "geometry": { "type": "Point", "coordinates": [ -117.00439241524262, 47.693004452170925 ] } },
{ "type": "Feature", "properties": { "reach_m": 18.879759333741518, "source": "cv" }, "geometry": { "type": "Point", "coordinates": [ -117.007786534971046, 47.692737153694772 ] } },
{ "type": "Feature", "properties": { "reach_m": 22.710065396482239, "source": "cv" }, "geometry": { "type": "Point", "coordinates": [ -117.005006668730502, 47.692723249794803 ] } },
{ "type": "Feature", "properties": { "reach_m": 39.7747564417433, "source": "cv" }, "geometry": { "type": "Point", "coordinates": [ -117.004517326918247, 47.692695152379379 ] } },
{ "type": "Feature", "properties": { "reach_m": 14.532090029483028, "source": "cv" }, "geometry": { "type": "Point", "coordinates": [ -117.004090456071154, 47.692688138959312 ] } },
{ "type": "Feature", "properties": { "reach_m": 11.103648752774918, "source": "cv" }, "geometry": { "type": "Point", "coordinates": [ -117.008296651726525, 47.692448911282149 ] } },
{ "type": "Feature", "properties": { "reach_m": 16.105881350068987, "source": "cv" }, "geometry": { "type": "Point", "coordinates": [ -117.008338291810105, 47.692413761108796 ] } },
{ "type": "Feature", "properties": { "reach_m": 25.591155240873746, "source": "cv" }, "geometry": { "type": "Point", "coordinates": [ -117.005849954281388, 47.692329561771906 ] } },
{ "type": "Feature", "properties": { "reach_m": 27.332587007087344, "source": "cv" }, "geometry": { "type": "Point", "coordinates": [ -117.005558429912, 47.692280370245385 ] } },
{ "type": "Feature", "properties": { "reach_m": 29.064180058966055, "source": "cv" }, "geometry": { "type": "Point", "coordinates": [ -117.006537096877125, 47.692252200940594 ] } },
{ "type": "Feature", "properties": { "reach_m": 48.945172211490892, "source": "cv" }, "geometry": { "type": "Point", "coordinates": [ -117.006870256499511, 47.69221703432099 ] } },
{ "type": "Feature", "properties": { "reach_m": 32.183328006321844, "source": "cv" }, "geometry": { "type": "Point", "coordinates": [ -117.005360609215984, 47.692238203069898 ] } },
{ "type": "Feature", "properties": { "reach_m": 12.352647110032731, "source": "cv" }, "geometry": { "type": "Point", "coordinates": [ -117.008015498103148, 47.692153695156144 ] } },
{ "type": "Feature", "properties": { "reach_m": 11.95082698498309, "source": "cv" }, "geometry": { "type": "Point", "coordinates": [ -117.005516753222452, 47.691985136138378 ] } },
{ "type": "Feature", "properties": { "reach_m": 11.375171702000809, "source": "cv" }, "geometry": { "type": "Point", "coordinates": [ -117.006370484794544, 47.692006180212552 ] } },
{ "type": "Feature", "properties": { "reach_m": 12.5, "source": "cv" }, "geometry": { "type": "Point", "coordinates": [ -117.005922781535361, 47.691865615561596 ] } },
{ "type": "Feature", "properties": { "reach_m": 17.1875, "source": "cv" }, "geometry": { "type": "Point", "coordinates": [ -117.006568287773675, 47.691907757018235 ] } },
{ "type": "Feature", "properties": { "reach_m": 13.28125, "source": "cv" }, "geometry": { "type": "Point", "coordinates": [ -117.006568283360366, 47.691872609860056 ] } },
{ "type": "Feature", "properties": { "reach_m": 25.158190918913466, "source": "cv" }, "geometry": { "type": "Point", "coordinates": [ -116.986888000412108, 47.703491687526565 ] } },
{ "type": "Feature", "properties": { "reach_m": 11.71875, "source": "cv" }, "geometry": { "type": "Point", "coordinates": [ -116.992886353705757, 47.702697891918511 ] } },
{ "type": "Feature", "properties": { "reach_m": 31.132591945580117, "source": "cv" }, "geometry": { "type": "Point", "coordinates": [ -116.993271682558003, 47.702458914928414 ] } },
{ "type": "Feature", "properties": { "reach_m": 11.048543456039805, "source": "cv" }, "geometry": { "type": "Point", "coordinates": [ -116.993771515571524, 47.702550325588618 ] } },
{ "type": "Feature", "properties": { "reach_m": 12.128261481453144, "source": "cv" }, "geometry": { "type": "Point", "coordinates": [ -116.99339662400304, 47.702613569394885 ] } },
{ "type": "Feature", "properties": { "reach_m": 16.828640022295325, "source": "cv" }, "geometry": { "type": "Point", "coordinates": [ -116.993209182899747, 47.702606529037162 ] } },
{ "type": "Feature", "properties": { "reach_m": 25.012204052472065, "source": "cv" }, "geometry": { "type": "Point", "coordinates": [ -116.992907196839639, 47.702578393094939 ] } },
{ "type": "Feature", "properties": { "reach_m": 13.643944684822639, "source": "cv" }, "geometry": { "type": "Point", "coordinates": [ -116.991595101353212, 47.702592363331043 ] } },
{ "type": "Feature", "properties": { "reach_m": 25.0, "source": "cv" }, "geometry": { "type": "Point", "coordinates": [ -116.992740582802284, 47.702571353257149 ] } },
{ "type": "Feature", "properties": { "reach_m": 15.934435979977451, "source": "cv" }, "geometry": { "type": "Point", "coordinates": [ -116.991595104742885, 47.702571275075705 ] } },
{ "type": "Feature", "properties": { "reach_m": 12.884705080055189, "source": "cv" }, "geometry": { "type": "Point", "coordinates": [ -116.993896481687742, 47.702508155791854 ] } },
{ "type": "Feature", "properties": { "reach_m": 15.644519058203739, "source": "cv" }, "geometry": { "type": "Point", "coordinates": [ -116.994500470651744, 47.702409774466034 ] } },
{ "type": "Feature", "properties": { "reach_m": 11.71875, "source": "cv" }, "geometry": { "type": "Point", "coordinates": [ -116.994042271230683, 47.702494104616299 ] } },
{ "type": "Feature", "properties": { "reach_m": 32.211762700137974, "source": "cv" }, "geometry": { "type": "Point", "coordinates": [ -116.993115478563354, 47.702479993919383 ] } },
{ "type": "Feature", "properties": { "reach_m": 13.372845912987257, "source": "cv" }, "geometry": { "type": "Point", "coordinates": [ -116.994687911937888, 47.702409783296048 ] } },
{ "type": "Feature", "properties": { "reach_m": 8.9076205085870157, "source": "cv" }, "geometry": { "type": "Point", "coordinates": [ -116.995021143568493, 47.702381680562986 ] } },
{ "type": "Feature", "properties": { "reach_m": 26.075498856685371, "source": "cv" }, "geometry": { "type": "Point", "coordinates": [ -116.992928041779621, 47.702444835427812 ] } },
{ "type": "Feature", "properties": { "reach_m": 28.811076429040273, "source": "cv" }, "geometry": { "type": "Point", "coordinates": [ -116.993344580933311, 47.702423772086028 ] } },
{ "type": "Feature", "properties": { "reach_m": 25.591155240873746, "source": "cv" }, "geometry": { "type": "Point", "coordinates": [ -116.994437999195569, 47.702325418429623 ] } },
{ "type": "Feature", "properties": { "reach_m": 27.621358640099515, "source": "cv" }, "geometry": { "type": "Point", "coordinates": [ -116.993698642719863, 47.702374586143335 ] } },
{ "type": "Feature", "properties": { "reach_m": 19.327057620082783, "source": "cv" }, "geometry": { "type": "Point", "coordinates": [ -116.993448727338603, 47.702325366216087 ] } },
{ "type": "Feature", "properties": { "reach_m": 25.769410160110379, "source": "cv" }, "geometry": { "type": "Point", "coordinates": [ -116.99417766840962, 47.702290258421961 ] } },
{ "type": "Feature", "properties": { "reach_m": 12.884705080055189, "source": "cv" }, "geometry": { "type": "Point", "coordinates": [ -116.993427907630661, 47.70226912967459 ] } },
{ "type": "Feature", "properties": { "reach_m": 10.626148834949566, "source": "cv" }, "geometry": { "type": "Point", "coordinates": [ -116.99559389474031, 47.702212997930964 ] } },
{ "type": "Feature", "properties": { "reach_m": 8.1564894600863678, "source": "cv" }, "geometry": { "type": "Point", "coordinates": [ -116.995687615030818, 47.702213001491224 ] } },
{ "type": "Feature", "properties": { "reach_m": 17.293705954045823, "source": "cv" }, "geometry": { "type": "Point", "coordinates": [ -116.995562659415612, 47.702156761375306 ] } },
{ "type": "Feature", "properties": { "reach_m": 13.486466016900053, "source": "cv" }, "geometry": { "type": "Point", "coordinates": [ -116.993990237246891, 47.702205895731787 ] } },
{ "type": "Feature", "properties": { "reach_m": 25.242960033442984, "source": "cv" }, "geometry": { "type": "Point", "coordinates": [ -116.995271085492149, 47.702156749730115 ] } },
{ "type": "Feature", "properties": { "reach_m": 19.593650318725707, "source": "cv" }, "geometry": { "type": "Point", "coordinates": [ -116.995614729135227, 47.702121616281616 ] } },
{ "type": "Feature", "properties": { "reach_m": 36.443449342783133, "source": "cv" }, "geometry": { "type": "Point", "coordinates": [ -116.996072940705773, 47.701798279590037 ] } },
{ "type": "Feature", "properties": { "reach_m": 11.899645477912358, "source": "cv" }, "geometry": { "type": "Point", "coordinates": [ -116.995843821660984, 47.702135683645835 ] } },
{ "type": "Feature", "properties": { "reach_m": 18.036556844711242, "source": "cv" }, "geometry": { "type": "Point", "coordinates": [ -116.995802172210304, 47.702086476196087 ] } },
{ "type": "Feature", "properties": { "reach_m": 27.287889369645278, "source": "cv" }, "geometry": { "type": "Point", "coordinates": [ -116.995437704682473, 47.702093491703671 ] } },
{ "type": "Feature", "properties": { "reach_m": 28.31963900061228, "source": "cv" }, "geometry": { "type": "Point", "coordinates": [ -116.995375224009877, 47.702100518621705 ] } },
{ "type": "Feature", "properties": { "reach_m": 28.90625, "source": "cv" }, "geometry": { "type": "Point", "coordinates": [ -116.995510601092704, 47.702058347482961 ] } },
{ "type": "Feature", "properties": { "reach_m": 23.411443849643277, "source": "cv" }, "geometry": { "type": "Point", "coordinates": [ -116.995687627204845, 47.702065383691256 ] } },
{ "type": "Feature", "properties": { "reach_m": 34.107624926473548, "source": "cv" }, "geometry": { "type": "Point", "coordinates": [ -116.995375228983562, 47.702044283268698 ] } },
{ "type": "Feature", "properties": { "reach_m": 36.013845536300344, "source": "cv" }, "geometry": { "type": "Point", "coordinates": [ -116.995573088242907, 47.701973996879964 ] } },
{ "type": "Feature", "properties": { "reach_m": 31.801769432886907, "source": "cv" }, "geometry": { "type": "Point", "coordinates": [ -116.995427300561275, 47.701988050001717 ] } },
{ "type": "Feature", "properties": { "reach_m": 36.317622809904563, "source": "cv" }, "geometry": { "type": "Point", "coordinates": [ -116.995614742694002, 47.701959939640766 ] } },
{ "type": "Feature", "properties": { "reach_m": 32.644660024650278, "source": "cv" }, "geometry": { "type": "Point", "coordinates": [ -116.995854251173313, 47.701931830866378 ] } },
{ "type": "Feature", "properties": { "reach_m": 36.818348962338057, "source": "cv" }, "geometry": { "type": "Point", "coordinates": [ -116.995729292031953, 47.701924796864539 ] } },
{ "type": "Feature", "properties": { "reach_m": 8.304801416198945, "source": "cv" }, "geometry": { "type": "Point", "coordinates": [ -116.996604015857969, 47.701833443632857 ] } },
{ "type": "Feature", "properties": { "reach_m": 27.950849718747371, "source": "cv" }, "geometry": { "type": "Point", "coordinates": [ -116.995729299495338, 47.701833414412768 ] } },
{ "type": "Feature", "properties": { "reach_m": 20.625591847568884, "source": "cv" }, "geometry": { "type": "Point", "coordinates": [ -116.995593929094298, 47.701805291617063 ] } },
{ "type": "Feature", "properties": { "reach_m": 31.444705933590793, "source": "cv" }, "geometry": { "type": "Point", "coordinates": [ -116.995927154743356, 47.701798274508363 ] } },
{ "type": "Feature", "properties": { "reach_m": 16.256759411472508, "source": "cv" }, "geometry": { "type": "Point", "coordinates": [ -116.995552278348228, 47.701777172332285 ] } },
{ "type": "Feature", "properties": { "reach_m": 34.701925491426266, "source": "cv" }, "geometry": { "type": "Point", "coordinates": [ -116.996260385832883, 47.701713932817206 ] } },
{ "type": "Feature", "properties": { "reach_m": 11.535018015807344, "source": "cv" }, "geometry": { "type": "Point", "coordinates": [ -116.995635683728409, 47.700589203513353 ] } },
{ "type": "Feature", "properties": { "reach_m": 36.994450080183491, "source": "cv" }, "geometry": { "type": "Point", "coordinates": [ -116.972699197228096, 47.705991661160283 ] } },
{ "type": "Feature", "properties": { "reach_m": 20.209896038050402, "source": "cv" }, "geometry": { "type": "Point", "coordinates": [ -116.972448358645792, 47.70602674828195 ] } },
{ "type": "Feature", "properties": { "reach_m": 8.3917025713704696, "source": "cv" }, "geometry": { "type": "Point", "coordinates": [ -116.971974643623042, 47.705921192352584 ] } },
{ "type": "Feature", "properties": { "reach_m": 24.697949669223942, "source": "cv" }, "geometry": { "type": "Point", "coordinates": [ -116.972866465323406, 47.705886259615596 ] } },
{ "type": "Feature", "properties": { "reach_m": 29.103104710408711, "source": "cv" }, "geometry": { "type": "Point", "coordinates": [ -116.972541317787304, 47.705907270517763 ] } },
{ "type": "Feature", "properties": { "reach_m": 16.623490316597326, "source": "cv" }, "geometry": { "type": "Point", "coordinates": [ -116.972346254422789, 47.705872076604166 ] } },
{ "type": "Feature", "properties": { "reach_m": 13.093430106252169, "source": "cv" }, "geometry": { "type": "Point", "coordinates": [ -116.972978118700226, 47.705541844639413 ] } },
{ "type": "Feature", "properties": { "reach_m": 9.4787691360742006, "source": "cv" }, "geometry": { "type": "Point", "coordinates": [ -116.960428153240642, 47.705249997142772 ] } },
{ "type": "Feature", "properties": { "reach_m": 8.6200899359621044, "source": "cv" }, "geometry": { "type": "Point", "coordinates": [ -116.973136232505993, 47.705169322758046 ] } },
{ "type": "Feature", "properties": { "reach_m": 33.566810285481878, "source": "cv" }, "geometry": { "type": "Point", "coordinates": [ -116.972820532499611, 47.704895101211342 ] } },
{ "type": "Feature", "properties": { "reach_m": 18.6996005624625, "source": "cv" }, "geometry": { "type": "Point", "coordinates": [ -116.959778472333298, 47.70449059435412 ] } },
{ "type": "Feature", "properties": { "reach_m": 34.261344895399269, "source": "cv" }, "geometry": { "type": "Point", "coordinates": [ -116.958592268564701, 47.71263988807214 ] } },
{ "type": "Feature", "properties": { "reach_m": 8.7320438462561487, "source": "cv" }, "geometry": { "type": "Point", "coordinates": [ -116.959688460834371, 47.712800491169588 ] } },
{ "type": "Feature", "properties": { "reach_m": 8.815076242131342, "source": "cv" }, "geometry": { "type": "Point", "coordinates": [ -116.960115882802342, 47.712743898486309 ] } },
{ "type": "Feature", "properties": { "reach_m": 11.598610546047366, "source": "cv" }, "geometry": { "type": "Point", "coordinates": [ -116.960431846844315, 47.71264387486854 ] } },
{ "type": "Feature", "properties": { "reach_m": 17.422324170733106, "source": "cv" }, "geometry": { "type": "Point", "coordinates": [ -116.957300952049948, 47.712509241962444 ] } },
{ "type": "Feature", "properties": { "reach_m": 22.997467905367699, "source": "cv" }, "geometry": { "type": "Point", "coordinates": [ -116.960571347512285, 47.71246034571795 ] } },
{ "type": "Feature", "properties": { "reach_m": 24.311478469687692, "source": "cv" }, "geometry": { "type": "Point", "coordinates": [ -116.961370445891049, 47.712337120123998 ] } },
{ "type": "Feature", "properties": { "reach_m": 27.107255270832503, "source": "cv" }, "geometry": { "type": "Point", "coordinates": [ -116.957263840744659, 47.712445810580633 ] } },
{ "type": "Feature", "properties": { "reach_m": 19.174057318748332, "source": "cv" }, "geometry": { "type": "Point", "coordinates": [ -116.957375351847006, 47.712419149920002 ] } },
{ "type": "Feature", "properties": { "reach_m": 8.3917025713704696, "source": "cv" }, "geometry": { "type": "Point", "coordinates": [ -116.961537640248295, 47.712390580551329 ] } },
{ "type": "Feature", "properties": { "reach_m": 22.136638079914555, "source": "cv" }, "geometry": { "type": "Point", "coordinates": [ -116.961231054807129, 47.712377126318522 ] } },
{ "type": "Feature", "properties": { "reach_m": 9.6815465083178864, "source": "cv" }, "geometry": { "type": "Point", "coordinates": [ -116.957672680896493, 47.712389220072296 ] } },
{ "type": "Feature", "properties": { "reach_m": 9.0596085687812149, "source": "cv" }, "geometry": { "type": "Point", "coordinates": [ -116.957514740565074, 47.712385823941631 ] } },
{ "type": "Feature", "properties": { "reach_m": 19.968142170078863, "source": "cv" }, "geometry": { "type": "Point", "coordinates": [ -116.957040936153632, 47.71235560765097 ] } },
{ "type": "Feature", "properties": { "reach_m": 23.071262399550889, "source": "cv" }, "geometry": { "type": "Point", "coordinates": [ -116.95699448234727, 47.712355590251661 ] } },
{ "type": "Feature", "properties": { "reach_m": 19.833921544795519, "source": "cv" }, "geometry": { "type": "Point", "coordinates": [ -116.956994523538555, 47.712305523765266 ] } },
{ "type": "Feature", "properties": { "reach_m": 24.952271897587597, "source": "cv" }, "geometry": { "type": "Point", "coordinates": [ -116.962290447701108, 47.712037027111066 ] } },
{ "type": "Feature", "properties": { "reach_m": 9.34980028123125, "source": "cv" }, "geometry": { "type": "Point", "coordinates": [ -116.962624925023789, 47.712020447699516 ] } },
{ "type": "Feature", "properties": { "reach_m": 13.459238763452941, "source": "cv" }, "geometry": { "type": "Point", "coordinates": [ -116.962801605134786, 47.711800212483475 ] } },
{ "type": "Feature", "properties": { "reach_m": 19.637053926942428, "source": "cv" }, "geometry": { "type": "Point", "coordinates": [ -116.962496785290043, 47.70933016509904 ] } },
{ "type": "Feature", "properties": { "reach_m": 23.364109726479708, "source": "cv" }, "geometry": { "type": "Point", "coordinates": [ -116.962292422025897, 47.709300058212527 ] } },
{ "type": "Feature", "properties": { "reach_m": 21.195172131288867, "source": "cv" }, "geometry": { "type": "Point", "coordinates": [ -116.966463730427677, 47.709301353050094 ] } },
{ "type": "Feature", "properties": { "reach_m": 11.237061443108965, "source": "cv" }, "geometry": { "type": "Point", "coordinates": [ -116.966166460686608, 47.709274563642538 ] } },
{ "type": "Feature", "properties": { "reach_m": 61.389902296693208, "source": "cv" }, "geometry": { "type": "Point", "coordinates": [ -116.962339007775228, 47.709113158469357 ] } },
{ "type": "Feature", "properties": { "reach_m": 25.367286897921019, "source": "cv" }, "geometry": { "type": "Point", "coordinates": [ -116.961484251686159, 47.709192981215701 ] } },
{ "type": "Feature", "properties": { "reach_m": 20.113543183911577, "source": "cv" }, "geometry": { "type": "Point", "coordinates": [ -116.963472366120286, 47.709176942426886 ] } },
{ "type": "Feature", "properties": { "reach_m": 54.85570312657962, "source": "cv" }, "geometry": { "type": "Point", "coordinates": [ -116.962431880848101, 47.709153242134889 ] } },
{ "type": "Feature", "properties": { "reach_m": 48.267070505842838, "source": "cv" }, "geometry": { "type": "Point", "coordinates": [ -116.962199618789484, 47.709163179168968 ] } },
{ "type": "Feature", "properties": { "reach_m": 42.183616886654882, "source": "cv" }, "geometry": { "type": "Point", "coordinates": [ -116.962989285326742, 47.709163436567216 ] } },
{ "type": "Feature", "properties": { "reach_m": 42.022125827211809, "source": "cv" }, "geometry": { "type": "Point", "coordinates": [ -116.963175091570605, 47.709160158573944 ] } },
{ "type": "Feature", "properties": { "reach_m": 46.982164954347596, "source": "cv" }, "geometry": { "type": "Point", "coordinates": [ -116.962236863954843, 47.709046369528515 ] } },
{ "type": "Feature", "properties": { "reach_m": 37.895857952264876, "source": "cv" }, "geometry": { "type": "Point", "coordinates": [ -116.963426099610786, 47.70891324396441 ] } },
{ "type": "Feature", "properties": { "reach_m": 28.092653607772416, "source": "cv" }, "geometry": { "type": "Point", "coordinates": [ -116.965200602755857, 47.708786960584618 ] } },
{ "type": "Feature", "properties": { "reach_m": 31.790848664621485, "source": "cv" }, "geometry": { "type": "Point", "coordinates": [ -116.963556178001511, 47.708889920966747 ] } },
{ "type": "Feature", "properties": { "reach_m": 28.222014170404833, "source": "cv" }, "geometry": { "type": "Point", "coordinates": [ -116.960704181004672, 47.7087855089624 ] } },
{ "type": "Feature", "properties": { "reach_m": 26.710190130370936, "source": "cv" }, "geometry": { "type": "Point", "coordinates": [ -116.962097663805451, 47.708836044205583 ] } },
{ "type": "Feature", "properties": { "reach_m": 33.869284973920124, "source": "cv" }, "geometry": { "type": "Point", "coordinates": [ -116.970765402699826, 47.708765148791983 ] } },
{ "type": "Feature", "properties": { "reach_m": 11.535631199775445, "source": "cv" }, "geometry": { "type": "Point", "coordinates": [ -116.96323110035955, 47.708779670898167 ] } },
{ "type": "Feature", "properties": { "reach_m": 22.997467905367699, "source": "cv" }, "geometry": { "type": "Point", "coordinates": [ -116.962060561395205, 47.708755925493051 ] } },
{ "type": "Feature", "properties": { "reach_m": 24.903565483983588, "source": "cv" }, "geometry": { "type": "Point", "coordinates": [ -116.960546334487276, 47.708671970660404 ] } },
{ "type": "Feature", "properties": { "reach_m": 13.405003866839639, "source": "cv" }, "geometry": { "type": "Point", "coordinates": [ -116.970440301184297, 47.708671607982154 ] } },
{ "type": "Feature", "properties": { "reach_m": 35.3291056290076, "source": "cv" }, "geometry": { "type": "Point", "coordinates": [ -116.970951275668284, 47.708638360776803 ] } },
{ "type": "Feature", "properties": { "reach_m": 26.186860212504339, "source": "cv" }, "geometry": { "type": "Point", "coordinates": [ -116.97116498851787, 47.708564983759935 ] } },
{ "type": "Feature", "properties": { "reach_m": 26.90042960162727, "source": "cv" }, "geometry": { "type": "Point", "coordinates": [ -116.970672587586648, 47.708611587741188 ] } },
{ "type": "Feature", "properties": { "reach_m": 14.111007085202417, "source": "cv" }, "geometry": { "type": "Point", "coordinates": [ -116.960564977645589, 47.70858853284507 ] } },
{ "type": "Feature", "properties": { "reach_m": 42.987621083953407, "source": "cv" }, "geometry": { "type": "Point", "coordinates": [ -116.970979214530274, 47.708514870395106 ] } },
{ "type": "Feature", "properties": { "reach_m": 36.856349260115941, "source": "cv" }, "geometry": { "type": "Point", "coordinates": [ -116.970914204396536, 47.708478138477304 ] } },
{ "type": "Feature", "properties": { "reach_m": 17.141300515590626, "source": "cv" }, "geometry": { "type": "Point", "coordinates": [ -116.9601192365499, 47.70834805943263 ] } },
{ "type": "Feature", "properties": { "reach_m": 19.955977598636096, "source": "cv" }, "geometry": { "type": "Point", "coordinates": [ -116.970821387492464, 47.708327915307777 ] } },
{ "type": "Feature", "properties": { "reach_m": 11.018845302664177, "source": "cv" }, "geometry": { "type": "Point", "coordinates": [ -116.97192696043389, 47.708221382482456 ] } },
{ "type": "Feature", "properties": { "reach_m": 12.170712436046385, "source": "cv" }, "geometry": { "type": "Point", "coordinates": [ -116.959933583929015, 47.70815440415145 ] } },
{ "type": "Feature", "properties": { "reach_m": 14.766897217765949, "source": "cv" }, "geometry": { "type": "Point", "coordinates": [ -116.971908401899938, 47.708181324711063 ] } },
{ "type": "Feature", "properties": { "reach_m": 33.129913436478539, "source": "cv" }, "geometry": { "type": "Point", "coordinates": [ -116.97176913269422, 47.708031090919668 ] } },
{ "type": "Feature", "properties": { "reach_m": 21.4683757431286, "source": "cv" }, "geometry": { "type": "Point", "coordinates": [ -116.958568203039604, 47.707836831225428 ] } },
{ "type": "Feature", "properties": { "reach_m": 43.632401312412505, "source": "cv" }, "geometry": { "type": "Point", "coordinates": [ -116.971713455936992, 47.707914255284116 ] } },
{ "type": "Feature", "properties": { "reach_m": 34.990689818750127, "source": "cv" }, "geometry": { "type": "Point", "coordinates": [ -116.958902659909413, 47.707813587106187 ] } },
{ "type": "Feature", "properties": { "reach_m": 25.33855294091963, "source": "cv" }, "geometry": { "type": "Point", "coordinates": [ -116.958874750662403, 47.70786364364875 ] } },
{ "type": "Feature", "properties": { "reach_m": 18.078967068294791, "source": "cv" }, "geometry": { "type": "Point", "coordinates": [ -116.957899317976455, 47.707846601086516 ] } },
{ "type": "Feature", "properties": { "reach_m": 21.782782917942455, "source": "cv" }, "geometry": { "type": "Point", "coordinates": [ -116.958373124544366, 47.70782340954981 ] } },
{ "type": "Feature", "properties": { "reach_m": 16.725431203903781, "source": "cv" }, "geometry": { "type": "Point", "coordinates": [ -116.957286229703783, 47.707786294672957 ] } },
{ "type": "Feature", "properties": { "reach_m": 9.0596085687812149, "source": "cv" }, "geometry": { "type": "Point", "coordinates": [ -116.961364557054949, 47.707734335912569 ] } },
{ "type": "Feature", "properties": { "reach_m": 26.344029010611074, "source": "cv" }, "geometry": { "type": "Point", "coordinates": [ -116.958698402211027, 47.707659976377947 ] } },
{ "type": "Feature", "properties": { "reach_m": 37.2234795523975, "source": "cv" }, "geometry": { "type": "Point", "coordinates": [ -116.958559037432082, 47.707679952751462 ] } },
{ "type": "Feature", "properties": { "reach_m": 47.999688805590665, "source": "cv" }, "geometry": { "type": "Point", "coordinates": [ -116.958141089440886, 47.707556303585832 ] } },
{ "type": "Feature", "properties": { "reach_m": 34.599876080527771, "source": "cv" }, "geometry": { "type": "Point", "coordinates": [ -116.958317611008226, 47.707539678991495 ] } },
{ "type": "Feature", "properties": { "reach_m": 47.393845680371001, "source": "cv" }, "geometry": { "type": "Point", "coordinates": [ -116.957983292439067, 47.707392695206551 ] } },
{ "type": "Feature", "properties": { "reach_m": 22.495722240445115, "source": "cv" }, "geometry": { "type": "Point", "coordinates": [ -116.958327025959562, 47.70738280723829 ] } },
{ "type": "Feature", "properties": { "reach_m": 24.241459665861189, "source": "cv" }, "geometry": { "type": "Point", "coordinates": [ -116.958280592552171, 47.707362763748627 ] } },
{ "type": "Feature", "properties": { "reach_m": 45.618551861291266, "source": "cv" }, "geometry": { "type": "Point", "coordinates": [ -116.957955465749009, 47.707339280699642 ] } },
{ "type": "Feature", "properties": { "reach_m": 66.996029272576394, "source": "cv" }, "geometry": { "type": "Point", "coordinates": [ -116.957630339238548, 47.707315796729496 ] } },
{ "type": "Feature", "properties": { "reach_m": 20.065193250557325, "source": "cv" }, "geometry": { "type": "Point", "coordinates": [ -116.961624998790001, 47.707293837716421 ] } },
{ "type": "Feature", "properties": { "reach_m": 19.624684127965697, "source": "cv" }, "geometry": { "type": "Point", "coordinates": [ -116.960844657866261, 47.707283560801599 ] } },
{ "type": "Feature", "properties": { "reach_m": 21.827328532806533, "source": "cv" }, "geometry": { "type": "Point", "coordinates": [ -116.958243491704792, 47.707289319320928 ] } },
{ "type": "Feature", "properties": { "reach_m": 10.818688161653371, "source": "cv" }, "geometry": { "type": "Point", "coordinates": [ -116.958355004601259, 47.707245968836894 ] } },
{ "type": "Feature", "properties": { "reach_m": 18.76441739654415, "source": "cv" }, "geometry": { "type": "Point", "coordinates": [ -116.958187832620851, 47.707189165961651 ] } },
{ "type": "Feature", "properties": { "reach_m": 23.58135872384209, "source": "cv" }, "geometry": { "type": "Point", "coordinates": [ -116.961634335190467, 47.707230423213254 ] } },
{ "type": "Feature", "properties": { "reach_m": 27.569142139234543, "source": "cv" }, "geometry": { "type": "Point", "coordinates": [ -116.961606490149038, 47.707197036202906 ] } },
{ "type": "Feature", "properties": { "reach_m": 12.348974834611971, "source": "cv" }, "geometry": { "type": "Point", "coordinates": [ -116.958271446538362, 47.707182520857216 ] } },
{ "type": "Feature", "properties": { "reach_m": 33.283479689781551, "source": "cv" }, "geometry": { "type": "Point", "coordinates": [ -116.961597256693949, 47.707120264408026 ] } },
{ "type": "Feature", "properties": { "reach_m": 42.987621083953407, "source": "cv" }, "geometry": { "type": "Point", "coordinates": [ -116.961467203974564, 47.70711354527252 ] } },
{ "type": "Feature", "properties": { "reach_m": 57.959545258001292, "source": "cv" }, "geometry": { "type": "Point", "coordinates": [ -116.961272129903307, 47.707096790754917 ] } },
{ "type": "Feature", "properties": { "reach_m": 30.931372750265545, "source": "cv" }, "geometry": { "type": "Point", "coordinates": [ -116.972317735445799, 47.707099986872784 ] } },
{ "type": "Feature", "properties": { "reach_m": 19.833921544795519, "source": "cv" }, "geometry": { "type": "Point", "coordinates": [ -116.961820239460479, 47.707083623344531 ] } },
{ "type": "Feature", "properties": { "reach_m": 28.187576068290557, "source": "cv" }, "geometry": { "type": "Point", "coordinates": [ -116.960844822851712, 47.70706326805184 ] } },
{ "type": "Feature", "properties": { "reach_m": 49.807130967967176, "source": "cv" }, "geometry": { "type": "Point", "coordinates": [ -116.961467280235411, 47.707010074432731 ] } },
{ "type": "Feature", "properties": { "reach_m": 29.771280593375959, "source": "cv" }, "geometry": { "type": "Point", "coordinates": [ -116.961783165555858, 47.706966789058271 ] } },
{ "type": "Feature", "properties": { "reach_m": 48.482919331722378, "source": "cv" }, "geometry": { "type": "Point", "coordinates": [ -116.961504454228546, 47.706990060289776 ] } },
{ "type": "Feature", "properties": { "reach_m": 34.844648341466211, "source": "cv" }, "geometry": { "type": "Point", "coordinates": [ -116.961699545092628, 47.706983450029156 ] } },
{ "type": "Feature", "properties": { "reach_m": 19.955977598636096, "source": "cv" }, "geometry": { "type": "Point", "coordinates": [ -116.961913217951036, 47.70697350783577 ] } },
{ "type": "Feature", "properties": { "reach_m": 48.807390366576158, "source": "cv" }, "geometry": { "type": "Point", "coordinates": [ -116.961058585698012, 47.70693316776444 ] } },
{ "type": "Feature", "properties": { "reach_m": 50.263329745835144, "source": "cv" }, "geometry": { "type": "Point", "coordinates": [ -116.961504476347343, 47.706960020368079 ] } },
{ "type": "Feature", "properties": { "reach_m": 9.8555548521245377, "source": "cv" }, "geometry": { "type": "Point", "coordinates": [ -116.960529082328534, 47.70691296023913 ] } },
{ "type": "Feature", "properties": { "reach_m": 22.827899008514965, "source": "cv" }, "geometry": { "type": "Point", "coordinates": [ -116.960696311174999, 47.70689632878738 ] } },
{ "type": "Feature", "properties": { "reach_m": 32.426123459689478, "source": "cv" }, "geometry": { "type": "Point", "coordinates": [ -116.960826368256306, 47.706896373258424 ] } },
{ "type": "Feature", "properties": { "reach_m": 52.563472518973036, "source": "cv" }, "geometry": { "type": "Point", "coordinates": [ -116.961086502294435, 47.706869759605404 ] } },
{ "type": "Feature", "properties": { "reach_m": 69.199752161055542, "source": "cv" }, "geometry": { "type": "Point", "coordinates": [ -116.961309459648973, 47.706866497223977 ] } },
{ "type": "Feature", "properties": { "reach_m": 69.500880876231363, "source": "cv" }, "geometry": { "type": "Point", "coordinates": [ -116.961337361095715, 47.706823115618086 ] } },
{ "type": "Feature", "properties": { "reach_m": 30.852766847459694, "source": "cv" }, "geometry": { "type": "Point", "coordinates": [ -116.961904061912747, 47.706789927449002 ] } },
{ "type": "Feature", "properties": { "reach_m": 54.629474785535066, "source": "cv" }, "geometry": { "type": "Point", "coordinates": [ -116.961207353727829, 47.70675631634272 ] } },
{ "type": "Feature", "properties": { "reach_m": 67.006902015490624, "source": "cv" }, "geometry": { "type": "Point", "coordinates": [ -116.961421038065694, 47.706729686219099 ] } },
{ "type": "Feature", "properties": { "reach_m": 38.335448042720898, "source": "cv" }, "geometry": { "type": "Point", "coordinates": [ -116.961839087101438, 47.706716474919787 ] } },
{ "type": "Feature", "properties": { "reach_m": 10.453394502439863, "source": "cv" }, "geometry": { "type": "Point", "coordinates": [ -116.962229310058873, 47.706643173080764 ] } },
{ "type": "Feature", "properties": { "reach_m": 16.269130122192053, "source": "cv" }, "geometry": { "type": "Point", "coordinates": [ -116.962155018662273, 47.706606433133082 ] } },
{ "type": "Feature", "properties": { "reach_m": 51.72053961577263, "source": "cv" }, "geometry": { "type": "Point", "coordinates": [ -116.96132822685648, 47.706612833026895 ] } },
{ "type": "Feature", "properties": { "reach_m": 14.651335597465184, "source": "cv" }, "geometry": { "type": "Point", "coordinates": [ -116.96080800385343, 47.706609318764954 ] } },
{ "type": "Feature", "properties": { "reach_m": 43.565565835884911, "source": "cv" }, "geometry": { "type": "Point", "coordinates": [ -116.961792728554059, 47.70659296200094 ] } },
{ "type": "Feature", "properties": { "reach_m": 9.2977118520891811, "source": "cv" }, "geometry": { "type": "Point", "coordinates": [ -116.972225113779103, 47.706579272380473 ] } },
{ "type": "Feature", "properties": { "reach_m": 63.386619921710903, "source": "cv" }, "geometry": { "type": "Point", "coordinates": [ -116.961532650279651, 47.706546146331874 ] } },
{ "type": "Feature", "properties": { "reach_m": 50.181132912837683, "source": "cv" }, "geometry": { "type": "Point", "coordinates": [ -116.961672084309072, 47.706426033260634 ] } },
{ "type": "Feature", "properties": { "reach_m": 11.344595581698233, "source": "cv" }, "geometry": { "type": "Point", "coordinates": [ -116.960928940096196, 47.70638239163187 ] } },
{ "type": "Feature", "properties": { "reach_m": 41.045753388540945, "source": "cv" }, "geometry": { "type": "Point", "coordinates": [ -116.961746428837174, 47.706389342594989 ] } },
{ "type": "Feature", "properties": { "reach_m": 47.250165436459248, "source": "cv" }, "geometry": { "type": "Point", "coordinates": [ -116.961467786990298, 47.706322493965835 ] } },
{ "type": "Feature", "properties": { "reach_m": 33.312650142085147, "source": "cv" }, "geometry": { "type": "Point", "coordinates": [ -116.96161645142989, 47.706282490544453 ] } },
{ "type": "Feature", "properties": { "reach_m": 19.363093016635773, "source": "cv" }, "geometry": { "type": "Point", "coordinates": [ -116.961746543617565, 47.706232467429643 ] } },
{ "type": "Feature", "properties": { "reach_m": 13.937859336586484, "source": "cv" }, "geometry": { "type": "Point", "coordinates": [ -116.972383236761743, 47.706205480279792 ] } },
{ "type": "Feature", "properties": { "reach_m": 16.089023501947615, "source": "cv" }, "geometry": { "type": "Point", "coordinates": [ -116.972912741028878, 47.706218957569625 ] } },
{ "type": "Feature", "properties": { "reach_m": 34.955973380180716, "source": "cv" }, "geometry": { "type": "Point", "coordinates": [ -116.972671228740936, 47.706182184834141 ] } },
{ "type": "Feature", "properties": { "reach_m": 36.994450080183491, "source": "cv" }, "geometry": { "type": "Point", "coordinates": [ -116.972689886529494, 47.706031989609095 ] } }
]
}
