{
"type": "FeatureCollection",
"name": "zones_runs",
"crs": { "type": "name", "properties": { "name": "urn:ogc:def:crs:OGC:1.3:CRS84" } },
"features": [
{ "type": "Feature", "properties": { "area_acres": 20.114378051427256, "lake": "Spokane River (95 Bridge to Post Falls Dam)", "layer": "runs", "min_depth_ft": 0.0, "min_shore_dist_ft": 150.0, "run_length_ft": 3000.0, "angle_step_deg": 5.0, "cell_m": 10.0, "depth_source": "none", "docks": 0 }, "geometry": { "type": "Polygon", "coordinates": [ [ [ -116.953477204379041, 47.706942646085466 ], [ -116.953477284444546, 47.706852669626109 ], [ -116.953743969780703, 47.706762800939892 ], [ -116.953877589920467, 47.706402948735573 ], [ -116.953744288202017, 47.706402895081233 ], [ -116.953744367806365, 47.706312918613023 ], [ -116.953611066317706, 47.706312864803998 ], [ -116.953611146151076, 47.706222888334537 ], [ -116.95347784489222, 47.706222834370848 ], [ -116.953477924954598, 47.706132857900144 ], [ -116.953344623925531, 47.706132803781777 ], [ -116.953344704216931, 47.706042827309815 ], [ -116.953211403417669, 47.706042773036771 ], [ -116.953211483938091, 47.705952796563558 ], [ -116.953078183368604, 47.705952742135842 ], [ -116.953078264118034, 47.705862765661401 ], [ -116.952944963778336, 47.705862711079007 ], [ -116.952945044756788, 47.7057727346033 ], [ -116.95281174464688, 47.70577267986625 ], [ -116.952678607410661, 47.705592672019378 ], [ -116.952412008110457, 47.705592561771724 ], [ -116.952278872709016, 47.705412553456036 ], [ -116.952012274328808, 47.705412442280021 ], [ -116.951879140762145, 47.705232433495553 ], [ -116.951612543301906, 47.705232321391208 ], [ -116.951612626571503, 47.705142344907308 ], [ -116.951479328071386, 47.705142288623051 ], [ -116.95134619702722, 47.704962279212623 ], [ -116.951079600946585, 47.704962165870633 ], [ -116.950946471737154, 47.704782155991438 ], [ -116.95067987657653, 47.704782041721117 ], [ -116.950679961449808, 47.704692065231399 ], [ -116.950546664099505, 47.704692007864161 ], [ -116.950546749201763, 47.704602031373184 ], [ -116.950413452081278, 47.70460197385129 ], [ -116.95028032608198, 47.704421963189098 ], [ -116.950013732760596, 47.704421847371847 ], [ -116.950013818779126, 47.704331870877354 ], [ -116.94974731239509, 47.704241777945569 ], [ -116.949880781089689, 47.704061883245203 ], [ -116.949747485347572, 47.704061824950223 ], [ -116.949747571823195, 47.703971848450415 ], [ -116.949480980798981, 47.703971731396308 ], [ -116.949481067732933, 47.703881754895463 ], [ -116.949214477169178, 47.703881637222395 ], [ -116.949214564561458, 47.703791660720505 ], [ -116.949081269509577, 47.703791601651901 ], [ -116.949081357130808, 47.703701625148753 ], [ -116.94894806230873, 47.703701565925513 ], [ -116.948948150158913, 47.703611589421151 ], [ -116.948814855566638, 47.703611530043268 ], [ -116.948814943645758, 47.703521553537662 ], [ -116.948681649283301, 47.703521494005138 ], [ -116.948681737591343, 47.703431517498295 ], [ -116.948548443458691, 47.703431457811106 ], [ -116.948548531995698, 47.703341481303056 ], [ -116.948415238092835, 47.703341421461239 ], [ -116.948415326858751, 47.703251444951952 ], [ -116.948282033185706, 47.703251384955486 ], [ -116.948282122180572, 47.703161408444956 ], [ -116.948148828737317, 47.703161348293861 ], [ -116.94814891796112, 47.703071371782102 ], [ -116.948015624747669, 47.703071311476357 ], [ -116.948015714200409, 47.70298133496339 ], [ -116.947882421216761, 47.702981274503003 ], [ -116.947882510898424, 47.702891297988799 ], [ -116.947616015531096, 47.702801200088665 ], [ -116.947616105670619, 47.702711223572017 ], [ -116.947882690260442, 47.702711344956121 ], [ -116.947882779940784, 47.702621368437654 ], [ -116.947616195809701, 47.702621247053933 ], [ -116.947616285948342, 47.702531270534415 ], [ -116.947216410443062, 47.702531087298219 ], [ -116.947216501269324, 47.702441110777876 ], [ -116.94708320966447, 47.702441049389684 ], [ -116.947083300719683, 47.702351072868112 ], [ -116.946816809483494, 47.70226097310502 ], [ -116.946816900996495, 47.70217099658101 ], [ -116.947216773745509, 47.702171181208335 ], [ -116.947216682920569, 47.702261157732927 ], [ -116.948016340357384, 47.702351499332813 ], [ -116.948016429806614, 47.702261522808492 ], [ -116.947883138657858, 47.702261462349625 ], [ -116.947750027324133, 47.702081448683792 ], [ -116.947216864570009, 47.702081204682329 ], [ -116.947216955394083, 47.701991228154874 ], [ -116.946683793564461, 47.701990981677014 ], [ -116.946683885305504, 47.70190100514894 ], [ -116.946284014626016, 47.701900818665486 ], [ -116.946284107054666, 47.701810842136574 ], [ -116.94615081705841, 47.701810779665976 ], [ -116.946150909715954, 47.701720803135842 ], [ -116.946017619949529, 47.701720740510609 ], [ -116.946017712835967, 47.70163076397926 ], [ -116.945884423299319, 47.701630701199406 ], [ -116.945884516414637, 47.701540724666827 ], [ -116.945751227107806, 47.701540661732359 ], [ -116.945751320452047, 47.701450685198566 ], [ -116.945618031375005, 47.701450622109469 ], [ -116.945618124948126, 47.701360645574447 ], [ -116.945484836100889, 47.701360582330736 ], [ -116.945484929902904, 47.701270605794491 ], [ -116.945351641285455, 47.701270542396159 ], [ -116.945351735316351, 47.701180565858699 ], [ -116.94521844692872, 47.701180502305739 ], [ -116.945218541188481, 47.701090525767064 ], [ -116.945085253030669, 47.701090462059476 ], [ -116.944952154308822, 47.700910445116293 ], [ -116.944818866610589, 47.700910381099483 ], [ -116.944685388559918, 47.701090270007846 ], [ -116.94481867671638, 47.701090334179867 ], [ -116.944818581768587, 47.701180310717959 ], [ -116.944951870154839, 47.70118037473538 ], [ -116.944951775435911, 47.701270351272228 ], [ -116.945085064051952, 47.701270415135021 ], [ -116.945084969561918, 47.701360391670669 ], [ -116.945218258407778, 47.701360455378833 ], [ -116.945218164146652, 47.701450431913273 ], [ -116.945351453222287, 47.701450495466823 ], [ -116.945351359190028, 47.701540472000012 ], [ -116.945484648495523, 47.701540535398948 ], [ -116.945617750652914, 47.701720551706003 ], [ -116.945084686089061, 47.701630321269064 ], [ -116.945084780580459, 47.70154034473768 ], [ -116.94495149127637, 47.701540280874291 ], [ -116.944951585996677, 47.701450304341698 ], [ -116.944818296922406, 47.701450240323688 ], [ -116.944818391871578, 47.701360263789859 ], [ -116.944685103027098, 47.70136019961722 ], [ -116.944552004997448, 47.701180182218678 ], [ -116.944152139844263, 47.701179988308624 ], [ -116.944152043749298, 47.701269964844272 ], [ -116.944018755136497, 47.701269899897746 ], [ -116.944151851557919, 47.701449917911319 ], [ -116.943751984344857, 47.701449722606064 ], [ -116.943752081128807, 47.701359746073855 ], [ -116.943485503447803, 47.701359615096663 ], [ -116.943352409550556, 47.701179596308428 ], [ -116.942685967652196, 47.701179265384106 ], [ -116.942686066269459, 47.701089288849289 ], [ -116.942419489972153, 47.701089155396254 ], [ -116.942286400433375, 47.700909135364917 ], [ -116.942019825056306, 47.700909000983799 ], [ -116.942019725293306, 47.700998977520378 ], [ -116.941886437376169, 47.700998910097397 ], [ -116.941886537368504, 47.700908933561024 ], [ -116.941619961994377, 47.700908798251014 ], [ -116.941619861543359, 47.700998774786967 ], [ -116.941219997797802, 47.70099857066019 ], [ -116.941220098936839, 47.700908594124876 ], [ -116.940686948200394, 47.700908319789264 ], [ -116.940687050256301, 47.700818343253388 ], [ -116.940287187897184, 47.700818135876752 ], [ -116.940287290640612, 47.700728159340116 ], [ -116.939887428973989, 47.70072795057078 ], [ -116.939887532404938, 47.700637974033384 ], [ -116.93908791526782, 47.700547575778522 ], [ -116.939088020073768, 47.700457599239613 ], [ -116.938821447013979, 47.700457457429515 ], [ -116.938821552278071, 47.700367480889639 ], [ -116.938421693380249, 47.700367267014073 ], [ -116.938421799331834, 47.700277290473437 ], [ -116.938021941126649, 47.700277075205214 ], [ -116.938022047765713, 47.700187098663832 ], [ -116.937222224730348, 47.700276640488816 ], [ -116.937222332745392, 47.700186663948799 ], [ -116.936689189409023, 47.70018637104252 ], [ -116.936689298340823, 47.700096394502005 ], [ -116.936289441532125, 47.700096173197466 ], [ -116.93628955115139, 47.700006196656219 ], [ -116.935756409664549, 47.700005899417043 ], [ -116.935756520200627, 47.69991592287532 ], [ -116.934690239087459, 47.699915320967882 ], [ -116.934690126716788, 47.700005297507737 ], [ -116.935756299127945, 47.700095875957359 ], [ -116.93575618859083, 47.700185852496247 ], [ -116.936156046081123, 47.700186075659246 ], [ -116.93615593623143, 47.700276052197424 ], [ -116.936689080476654, 47.700276347581628 ], [ -116.936688971543745, 47.700366324119315 ], [ -116.937755154795468, 47.700456883996594 ], [ -116.937755047696186, 47.700546860533265 ], [ -116.938154907962257, 47.700547076732398 ], [ -116.938154801550468, 47.700637053268345 ], [ -116.938687949496469, 47.70063733936734 ], [ -116.938687844001507, 47.700727315902739 ], [ -116.939754038092019, 47.700817857207134 ], [ -116.939753934430726, 47.700907833741496 ], [ -116.940153797471865, 47.700908042976586 ], [ -116.940153694498107, 47.700998019510152 ], [ -116.941219896658254, 47.701088547194082 ], [ -116.941219795518208, 47.701178523726554 ], [ -116.94161966063983, 47.701178727854611 ], [ -116.94161956018732, 47.701268704386315 ], [ -116.942019426001352, 47.701268907121651 ], [ -116.942019326236391, 47.701358883652553 ], [ -116.942818960864244, 47.701449261475112 ], [ -116.942818862474368, 47.701539238004443 ], [ -116.943085441068007, 47.701539370530668 ], [ -116.943085343136389, 47.70162934705899 ], [ -116.943351922190629, 47.701629478966339 ], [ -116.943351824717212, 47.701719455493667 ], [ -116.943618404232041, 47.70171958678214 ], [ -116.943618307216866, 47.701809563308466 ], [ -116.944151371071328, 47.701899800554102 ], [ -116.944151274972597, 47.701989777078396 ], [ -116.944284565420659, 47.701989841871729 ], [ -116.944284469550837, 47.702079818394836 ], [ -116.944551050907052, 47.702079947517419 ], [ -116.944550955495444, 47.702169924039495 ], [ -116.944684246403597, 47.702169988368773 ], [ -116.944817347405078, 47.702350005583916 ], [ -116.945083930141138, 47.702350133469132 ], [ -116.945217032976998, 47.702530150215715 ], [ -116.945483616633254, 47.702530277172791 ], [ -116.945616721303537, 47.702710293450835 ], [ -116.94588330587996, 47.702710419479736 ], [ -116.94588321275873, 47.702800395993883 ], [ -116.946016505276987, 47.702800458776295 ], [ -116.946149612469355, 47.702980474428699 ], [ -116.946416198425581, 47.702980599220155 ], [ -116.946549307452415, 47.703160614403977 ], [ -116.946815894328807, 47.703160738267236 ], [ -116.946949005190106, 47.703340752982442 ], [ -116.947215592986637, 47.703340875917505 ], [ -116.947215502155956, 47.703430852423686 ], [ -116.94734879628426, 47.703430913659155 ], [ -116.947481909667744, 47.703610927748649 ], [ -116.947748498844049, 47.703611049446224 ], [ -116.947881614062084, 47.703791063067086 ], [ -116.948148204158485, 47.703791183836422 ], [ -116.948281321211113, 47.703971196988618 ], [ -116.948547912227639, 47.703971316829723 ], [ -116.948547823687619, 47.704061293327861 ], [ -116.948681119425885, 47.704061353016343 ], [ -116.948814239000797, 47.704241365542764 ], [ -116.949080831397055, 47.704241484146308 ], [ -116.949213952806574, 47.704421496204056 ], [ -116.949480546122871, 47.704421613879326 ], [ -116.949613669367039, 47.704601625468349 ], [ -116.949880263603447, 47.704601742215345 ], [ -116.94988017735426, 47.704691718705412 ], [ -116.950013474702473, 47.704691776846829 ], [ -116.950146600469054, 47.704871787810013 ], [ -116.950413196085094, 47.704871903319408 ], [ -116.950413110752208, 47.704961879805936 ], [ -116.950546408790274, 47.704961937328562 ], [ -116.950546323686368, 47.705051913813847 ], [ -116.950679621954222, 47.705051971181803 ], [ -116.950679537079296, 47.705141947665858 ], [ -116.95081283557694, 47.705142004879164 ], [ -116.950812750930979, 47.705231981361983 ], [ -116.950946049658455, 47.705232038420618 ], [ -116.950945965241473, 47.705322014902201 ], [ -116.951079264198754, 47.705322071806179 ], [ -116.951079180010765, 47.705412048286505 ], [ -116.951212479197821, 47.705412105035819 ], [ -116.951212395238841, 47.705502081514929 ], [ -116.951345694655714, 47.70550213810958 ], [ -116.951345610925685, 47.705592114587432 ], [ -116.951478910572362, 47.705592171027419 ], [ -116.951478827071355, 47.705682147504035 ], [ -116.951612126947836, 47.705682203789351 ], [ -116.951612043675794, 47.705772180264731 ], [ -116.951745343782093, 47.705772236395383 ], [ -116.95174526073906, 47.705862212869519 ], [ -116.951878561075162, 47.705862268845515 ], [ -116.951878478261122, 47.705952245318393 ], [ -116.952011778827014, 47.70595230113971 ], [ -116.952011696241982, 47.706042277611367 ], [ -116.952144997037664, 47.706042333278013 ], [ -116.952144914681625, 47.706132309748412 ], [ -116.952278215707153, 47.706132365260395 ], [ -116.952278133580123, 47.706222341729557 ], [ -116.952411434835426, 47.706222397086862 ], [ -116.952411352937389, 47.70631237355478 ], [ -116.952544654422525, 47.7063124287574 ], [ -116.95254457275351, 47.706402405224082 ], [ -116.952677874468421, 47.706402460272045 ], [ -116.952677793028414, 47.70649243673747 ], [ -116.952811094973143, 47.706492491630755 ], [ -116.952811013762158, 47.706582468094929 ], [ -116.952944315936676, 47.706582522833543 ], [ -116.952944234954685, 47.706672499296488 ], [ -116.95307753735905, 47.706672553880409 ], [ -116.953077456606053, 47.706762530342104 ], [ -116.953210759240207, 47.706762584771361 ], [ -116.953210678716275, 47.706852561231806 ], [ -116.953477204379041, 47.706942646085466 ] ], [ [ -116.953610667144986, 47.706762747130028 ], [ -116.953477364509666, 47.706762693165317 ], [ -116.953477444574403, 47.706672716703125 ], [ -116.953610746980317, 47.706672770667666 ], [ -116.953610667144986, 47.706762747130028 ] ], [ [ -116.946416475038262, 47.702710669679618 ], [ -116.946283182748019, 47.702710607361894 ], [ -116.946283275180718, 47.702620630845743 ], [ -116.946416567241599, 47.702620693163283 ], [ -116.946416475038262, 47.702710669679618 ] ], [ [ -116.946949735489625, 47.702620940885161 ], [ -116.946816443426968, 47.702620879186931 ], [ -116.946816534941775, 47.702530902668578 ], [ -116.946949826775082, 47.702530964366609 ], [ -116.946949735489625, 47.702620940885161 ] ], [ [ -116.946283275180718, 47.702620630845743 ], [ -116.946149983120264, 47.702620568373391 ], [ -116.946150075781873, 47.702530591855997 ], [ -116.946283367612949, 47.702530654328172 ], [ -116.946283275180718, 47.702620630845743 ] ], [ [ -116.946816534941775, 47.702530902668578 ], [ -116.946683243108893, 47.702530840815712 ], [ -116.946683334852608, 47.702440864296143 ], [ -116.946816626456126, 47.702440926148824 ], [ -116.946816534941775, 47.702530902668578 ] ], [ [ -116.946150075781873, 47.702530591855997 ], [ -116.946016783951237, 47.702530529229008 ], [ -116.946016876841753, 47.702440552710421 ], [ -116.946150168443012, 47.70244061533721 ], [ -116.946150075781873, 47.702530591855997 ] ], [ [ -116.945883585240921, 47.702440489928797 ], [ -116.945750293640558, 47.702440426992347 ], [ -116.945750386989332, 47.702350450472743 ], [ -116.945883678360346, 47.702350513408987 ], [ -116.945883585240921, 47.702440489928797 ] ], [ [ -116.946550135222154, 47.702350825767866 ], [ -116.946416843848894, 47.702350763605736 ], [ -116.946416936050426, 47.702260787083709 ], [ -116.946550227194322, 47.70226084924564 ], [ -116.946550135222154, 47.702350825767866 ] ], [ [ -116.945750386989332, 47.702350450472743 ], [ -116.945617095618772, 47.702350387381657 ], [ -116.94561718919644, 47.702260410860816 ], [ -116.945750480337637, 47.702260473951689 ], [ -116.945750386989332, 47.702350450472743 ] ], [ [ -116.946416936050426, 47.702260787083709 ], [ -116.94628364490697, 47.702260724766944 ], [ -116.946283737337424, 47.702170748243717 ], [ -116.946417028251503, 47.702170810560276 ], [ -116.946416936050426, 47.702260787083709 ] ], [ [ -116.94561718919644, 47.702260410860816 ], [ -116.945350606915412, 47.702260284214596 ], [ -116.945350700951366, 47.702170307692739 ], [ -116.945617282773682, 47.702170434338562 ], [ -116.94561718919644, 47.702260410860816 ] ], [ [ -116.946283737337424, 47.702170748243717 ], [ -116.946150446423744, 47.70217068577233 ], [ -116.946150539083092, 47.70208070924788 ], [ -116.946283829767395, 47.702080771719068 ], [ -116.946283737337424, 47.702170748243717 ] ], [ [ -116.945350700951366, 47.702170307692739 ], [ -116.945217410040897, 47.702170244137591 ], [ -116.945217504305717, 47.702080267614512 ], [ -116.945350794986837, 47.702080331169462 ], [ -116.945350700951366, 47.702170307692739 ] ], [ [ -116.946150539083092, 47.70208070924788 ], [ -116.945883957715864, 47.702080583841038 ], [ -116.94588405083347, 47.701990607315537 ], [ -116.946150631742, 47.701990732721988 ], [ -116.946150539083092, 47.70208070924788 ] ], [ [ -116.94508430811878, 47.701990227380442 ], [ -116.944951017667947, 47.701990163516044 ], [ -116.944951112390541, 47.701900186990535 ], [ -116.945084402612039, 47.70190025085472 ], [ -116.94508430811878, 47.701990227380442 ] ], [ [ -116.944951112390541, 47.701900186990535 ], [ -116.944684531948937, 47.701900058797676 ], [ -116.944684627129789, 47.701810082271145 ], [ -116.944951207112695, 47.701810210463599 ], [ -116.944951112390541, 47.701900186990535 ] ], [ [ -116.944684627129789, 47.701810082271145 ], [ -116.944418047148758, 47.701809953459403 ], [ -116.944418142787839, 47.701719976931862 ], [ -116.944684722310171, 47.701720105743192 ], [ -116.944684627129789, 47.701810082271145 ] ], [ [ -116.944418334064622, 47.701540023872518 ], [ -116.944151755461533, 47.701539894442703 ], [ -116.944151851557919, 47.701449917911319 ], [ -116.944418429702324, 47.701450047340721 ], [ -116.944418334064622, 47.701540023872518 ] ], [ [ -116.942419390896205, 47.701179131930623 ], [ -116.942286102518906, 47.701179064971683 ], [ -116.942286201824217, 47.701089088437492 ], [ -116.942419489972153, 47.701089155396254 ], [ -116.942419390896205, 47.701179131930623 ] ], [ [ -116.942152913676765, 47.701089021323938 ], [ -116.942019625529809, 47.70108895405555 ], [ -116.942019725293306, 47.700998977520378 ], [ -116.942153013210927, 47.70099904478856 ], [ -116.942152913676765, 47.701089021323938 ] ], [ [ -116.938821341749374, 47.700547433967991 ], [ -116.938688054990934, 47.700547362830491 ], [ -116.938688160484872, 47.700457386292257 ], [ -116.938821447013979, 47.700457457429515 ], [ -116.938821341749374, 47.700547433967991 ] ], [ [ -116.938421587428167, 47.700457243553274 ], [ -116.938288300900581, 47.70045717195157 ], [ -116.938288407082027, 47.700367195412582 ], [ -116.938421693380249, 47.700367267014073 ], [ -116.938421587428167, 47.700457243553274 ] ], [ [ -116.938021834487088, 47.700367051745175 ], [ -116.937755261894239, 47.700366907458516 ], [ -116.93775536899247, 47.700276930919003 ], [ -116.938021941126649, 47.700277075205214 ], [ -116.938021834487088, 47.700367051745175 ] ] ] } },
{ "type": "Feature", "properties": { "area_acres": 15.098138807643801, "lake": "Spokane River (95 Bridge to Post Falls Dam)", "layer": "runs", "min_depth_ft": 0.0, "min_shore_dist_ft": 150.0, "run_length_ft": 3000.0, "angle_step_deg": 5.0, "cell_m": 10.0, "depth_source": "none", "docks": 0 }, "geometry": { "type": "Polygon", "coordinates": [ [ [ -116.894980151211101, 47.695476993794266 ], [ -116.894980693206634, 47.6952070642349 ], [ -116.894047782222088, 47.695206206642254 ], [ -116.894047964490383, 47.695116230122323 ], [ -116.894714328328575, 47.69511684346049 ], [ -116.89471450944967, 47.695026866937212 ], [ -116.894447964370244, 47.695026622067068 ], [ -116.894448145948971, 47.69493664554313 ], [ -116.894048329024287, 47.69493627707817 ], [ -116.894048511289924, 47.694846300553991 ], [ -116.887917996675981, 47.694840476334868 ], [ -116.887918189486783, 47.694750499827506 ], [ -116.886452199673869, 47.694749058559374 ], [ -116.886452395005605, 47.694659082055104 ], [ -116.884853136273961, 47.694657488407557 ], [ -116.884853334355853, 47.694567511906854 ], [ -116.883387349829022, 47.694566031487945 ], [ -116.883387550431792, 47.694476054990481 ], [ -116.88192156854501, 47.694474555847648 ], [ -116.881921365420382, 47.694564532340422 ], [ -116.881655026396587, 47.694474281264071 ], [ -116.881654822813445, 47.694564257755985 ], [ -116.880322109838431, 47.694562875546872 ], [ -116.880321903961715, 47.69465285203303 ], [ -116.881787890761558, 47.694654371616515 ], [ -116.881787687405705, 47.69474434810602 ], [ -116.88338694862054, 47.694745984478629 ], [ -116.883386748014814, 47.694835960971837 ], [ -116.87632333325277, 47.694828565464867 ], [ -116.87632312049513, 47.69491854193349 ], [ -116.876456392674626, 47.694918685496155 ], [ -116.876455967614817, 47.695098638430046 ], [ -116.889383418252081, 47.695111828405679 ], [ -116.88938322795947, 47.695201804911839 ], [ -116.890982503581185, 47.695203335436943 ], [ -116.890982316038844, 47.695293311946457 ], [ -116.892448321329624, 47.695294695351784 ], [ -116.892448136308332, 47.69538467186424 ], [ -116.894047417682856, 47.695386159677902 ], [ -116.894047235411918, 47.695476136193577 ], [ -116.894980151211101, 47.695476993794266 ] ] ] } },
{ "type": "Feature", "properties": { "area_acres": 34.051121566175382, "lake": "Spokane River (95 Bridge to Post Falls Dam)", "layer": "runs", "min_depth_ft": 0.0, "min_shore_dist_ft": 150.0, "run_length_ft": 3000.0, "angle_step_deg": 5.0, "cell_m": 10.0, "depth_source": "none", "docks": 0 }, "geometry": { "type": "Polygon", "coordinates": [ [ [ -116.925758092350634, 47.701349515224905 ], [ -116.925758475583564, 47.701079585715981 ], [ -116.92562518750475, 47.701079499405033 ], [ -116.925625443448951, 47.700899546392542 ], [ -116.925492155829431, 47.700899459927321 ], [ -116.925492412229801, 47.700719506909685 ], [ -116.925359125069591, 47.700719420290191 ], [ -116.925359381926143, 47.700539467267426 ], [ -116.925226095225227, 47.700539380493659 ], [ -116.925226352537933, 47.70035942746577 ], [ -116.925093066296313, 47.700359340537737 ], [ -116.925093324065173, 47.700179387504718 ], [ -116.924960038282833, 47.700179300422413 ], [ -116.924960296507876, 47.699999347384271 ], [ -116.924827011184817, 47.699999260147706 ], [ -116.924827399205597, 47.699729330580688 ], [ -116.924694114571153, 47.69972924319012 ], [ -116.924694373707169, 47.699549290138897 ], [ -116.924561089532034, 47.699549202594071 ], [ -116.924561349124161, 47.699369249537718 ], [ -116.924428065408264, 47.699369161838639 ], [ -116.924428325456518, 47.699189208777177 ], [ -116.924295042199901, 47.699189120923826 ], [ -116.924295302704238, 47.699009167857234 ], [ -116.924162019906888, 47.699009079849638 ], [ -116.92416228086735, 47.698829126777923 ], [ -116.924028998529238, 47.698829038616076 ], [ -116.924029259945769, 47.698649085539245 ], [ -116.923895978066938, 47.698648997223138 ], [ -116.923896370874886, 47.69837906759809 ], [ -116.923763089684613, 47.698378979128016 ], [ -116.923763352012003, 47.698199026038097 ], [ -116.923630071280996, 47.698198937413778 ], [ -116.923630334064427, 47.698018984318757 ], [ -116.923497053792659, 47.698018895540187 ], [ -116.923497317032158, 47.69783894244005 ], [ -116.923364037219642, 47.69783885350725 ], [ -116.923364300915154, 47.697658900401997 ], [ -116.923231021561875, 47.697658811314938 ], [ -116.923231285713413, 47.697478858204569 ], [ -116.923098006819373, 47.697478768963279 ], [ -116.923098271426952, 47.697298815847795 ], [ -116.922964992992135, 47.697298726452267 ], [ -116.922965390586512, 47.697028796769253 ], [ -116.92283211284024, 47.697028707219758 ], [ -116.922832378358507, 47.696848754091228 ], [ -116.922699101071458, 47.696848664387502 ], [ -116.922699367045723, 47.696668711253857 ], [ -116.922566090217884, 47.696668621395915 ], [ -116.922566356648133, 47.696488668257146 ], [ -116.922433080279518, 47.696488578244967 ], [ -116.92243334716575, 47.696308625101103 ], [ -116.922300071256345, 47.696308534934694 ], [ -116.922300338598532, 47.696128581785722 ], [ -116.922167063148336, 47.696128491465089 ], [ -116.922167330946465, 47.695948538311015 ], [ -116.922034055955478, 47.695948447836159 ], [ -116.922034458335617, 47.695678518095256 ], [ -116.921901184033118, 47.695678427466461 ], [ -116.92190131838781, 47.695588450883612 ], [ -116.922034592461031, 47.695588541512116 ], [ -116.922034726585792, 47.695498564927568 ], [ -116.922301274275654, 47.695498745719668 ], [ -116.92230140794122, 47.695408769133124 ], [ -116.922168134325233, 47.695408678814758 ], [ -116.922168268219409, 47.695318702227091 ], [ -116.921635174679039, 47.69531833940686 ], [ -116.921635309489659, 47.695228362818909 ], [ -116.921901855799973, 47.695228544538018 ], [ -116.921902124502139, 47.695048591356716 ], [ -116.921635579108894, 47.695048409638751 ], [ -116.921635983532809, 47.694778479857867 ], [ -116.921369574782943, 47.694688320926581 ], [ -116.921369845311361, 47.694508367730542 ], [ -116.921236573992601, 47.694508276331518 ], [ -116.921103845557454, 47.694148278370918 ], [ -116.920970575157057, 47.694148186663483 ], [ -116.920970711105383, 47.694058210058536 ], [ -116.920704307171263, 47.693968049574124 ], [ -116.92057158376646, 47.693608050966702 ], [ -116.920305045722657, 47.693607866162303 ], [ -116.920304771539421, 47.693787819382081 ], [ -116.920438041019494, 47.693787911862259 ], [ -116.920304497353555, 47.693967772596203 ], [ -116.920570900595933, 47.694057934008441 ], [ -116.920570627323059, 47.694237887215209 ], [ -116.920437356696056, 47.694237794888359 ], [ -116.920437219829353, 47.694327771489334 ], [ -116.920170678118851, 47.694327586370726 ], [ -116.920170540792952, 47.694417562969697 ], [ -116.919637318219344, 47.694507167470341 ], [ -116.91950376996158, 47.694687027247078 ], [ -116.919237226426404, 47.694686839959203 ], [ -116.919237087493002, 47.694776816550451 ], [ -116.9187038596626, 47.69486641670477 ], [ -116.918570307277406, 47.695046275381387 ], [ -116.918037075561074, 47.695135872430718 ], [ -116.917903520194741, 47.695315730321035 ], [ -116.917370568887634, 47.695225371109593 ], [ -116.917237011001404, 47.695405228219848 ], [ -116.916970463821244, 47.6954050356645 ], [ -116.916970320984845, 47.695495012239363 ], [ -116.916837047166524, 47.695494915729206 ], [ -116.916703486756944, 47.695674772208484 ], [ -116.916436938206715, 47.695674578413033 ], [ -116.916436794451144, 47.695764554982404 ], [ -116.916303519947803, 47.695764457852185 ], [ -116.916303375962244, 47.695854434419843 ], [ -116.916036826499123, 47.695854239694441 ], [ -116.915903262419718, 47.696034095228775 ], [ -116.915503436856781, 47.696033801513558 ], [ -116.915503291493437, 47.696123778075105 ], [ -116.915236740663147, 47.69612358149039 ], [ -116.915236594840536, 47.696213558049919 ], [ -116.914970043554504, 47.69621336084542 ], [ -116.914969897272627, 47.69630333740291 ], [ -116.914703345530882, 47.696303139578617 ], [ -116.914703198789709, 47.696393116134068 ], [ -116.914436646592279, 47.696392917690005 ], [ -116.914436499391826, 47.69648289424341 ], [ -116.914169946738696, 47.696482695179547 ], [ -116.914169799078948, 47.696572671730912 ], [ -116.913903245970118, 47.696572472047272 ], [ -116.913903097851104, 47.696662448596584 ], [ -116.913503267505405, 47.696662147909208 ], [ -116.913503118697804, 47.696752124456175 ], [ -116.913236564679039, 47.696751923223331 ], [ -116.913236415412143, 47.696841899768238 ], [ -116.912969860937721, 47.696841697915573 ], [ -116.912969711211531, 47.696931674458448 ], [ -116.912569878817493, 47.696931370517547 ], [ -116.912569728402701, 47.697021347058033 ], [ -116.912036617637099, 47.697020939635095 ], [ -116.912036466304414, 47.697110916172903 ], [ -116.911636632550071, 47.697110608979379 ], [ -116.911636480528742, 47.6972005855148 ], [ -116.911103367949508, 47.697200173755 ], [ -116.911103215010272, 47.697290150287706 ], [ -116.910570101525764, 47.697289736049875 ], [ -116.91056994766862, 47.697379712579874 ], [ -116.91043666907008, 47.697379608633099 ], [ -116.910436514982891, 47.697469585161343 ], [ -116.910303236155784, 47.697469481059443 ], [ -116.910303081838549, 47.697559457585953 ], [ -116.910169802782931, 47.69755935332892 ], [ -116.910036214174113, 47.697739201964559 ], [ -116.909769655149418, 47.697738992675212 ], [ -116.909769499912727, 47.697828969196138 ], [ -116.909502940432432, 47.697828759286935 ], [ -116.909502784736389, 47.697918735805786 ], [ -116.909102944833762, 47.697918419779988 ], [ -116.909102788449033, 47.698008396296444 ], [ -116.908302949527254, 47.698097736576294 ], [ -116.908302791765209, 47.698187713087918 ], [ -116.908036230467289, 47.698187499770434 ], [ -116.908036072245864, 47.698277476279983 ], [ -116.907636229616855, 47.698277155141739 ], [ -116.907636070706729, 47.698367131648858 ], [ -116.90723622739678, 47.698366809116393 ], [ -116.907236067797939, 47.698456785621083 ], [ -116.906969505136558, 47.698456569824749 ], [ -116.906969185019364, 47.698636522828522 ], [ -116.90656933965731, 47.698636197970956 ], [ -116.906569178909592, 47.698726174469691 ], [ -116.905769324706412, 47.698815497068075 ], [ -116.905769162581265, 47.698905473561936 ], [ -116.905502597644045, 47.69890525435649 ], [ -116.905502435059475, 47.69899523084824 ], [ -116.905102586971651, 47.698994900878013 ], [ -116.905102423698338, 47.699084877367305 ], [ -116.90670181884407, 47.699086188892814 ], [ -116.906701979365593, 47.698996212399415 ], [ -116.907101827481753, 47.698996536796628 ], [ -116.907101987314547, 47.698906560300792 ], [ -116.908834659584045, 47.698907949917867 ], [ -116.908834502732319, 47.698997926418059 ], [ -116.909101068167004, 47.698998137883876 ], [ -116.909101224560075, 47.698908161383024 ], [ -116.909367789539189, 47.698908372228956 ], [ -116.90936794547288, 47.698818395726015 ], [ -116.909901229538619, 47.698728839053238 ], [ -116.909901384553564, 47.698638862546147 ], [ -116.910034666359351, 47.698638967116715 ], [ -116.910034821144222, 47.698548990607868 ], [ -116.91030138429943, 47.698549199283917 ], [ -116.910301538624921, 47.69845922277301 ], [ -116.9105681013245, 47.698459430829175 ], [ -116.910567947457636, 47.698549407340735 ], [ -116.910834510618841, 47.698549614778365 ], [ -116.910834664027092, 47.698459638266144 ], [ -116.910967945379511, 47.698459741752423 ], [ -116.910968098557717, 47.698369765238475 ], [ -116.910834817434605, 47.698369661752515 ], [ -116.910968404911898, 47.698189812206309 ], [ -116.911101685577137, 47.698189915536808 ], [ -116.911101532629715, 47.698279892053918 ], [ -116.91136809442105, 47.698280098251168 ], [ -116.911501679836064, 47.69810024808001 ], [ -116.911768240714636, 47.698100453347159 ], [ -116.911768392514034, 47.698010476825594 ], [ -116.911901672725122, 47.698010579226647 ], [ -116.911901824294503, 47.697920602703348 ], [ -116.912168384260269, 47.697920807040397 ], [ -116.912301966004989, 47.697740955923969 ], [ -116.912568525057978, 47.697741159330938 ], [ -116.912568675478624, 47.697651182801792 ], [ -116.912968513375702, 47.697651486750317 ], [ -116.912968663107748, 47.69756151021879 ], [ -116.913235221250858, 47.697561712076514 ], [ -116.913235370523552, 47.697471735542941 ], [ -116.913501928210977, 47.69747193678085 ], [ -116.913502077024361, 47.697381960245217 ], [ -116.913768634256101, 47.697382160863292 ], [ -116.913768782610177, 47.697292184325626 ], [ -116.914035339386203, 47.69729238432388 ], [ -116.914035487280984, 47.697202407784175 ], [ -116.914302043601296, 47.697202607162623 ], [ -116.914302191036754, 47.697112630620865 ], [ -116.914568746901367, 47.697112829379506 ], [ -116.914568893877544, 47.697022852835708 ], [ -116.91496872699193, 47.697023149811763 ], [ -116.914968873279506, 47.696933173265627 ], [ -116.915235428234126, 47.696933370475051 ], [ -116.915235574062407, 47.696843393926876 ], [ -116.915502128561258, 47.696843590516529 ], [ -116.915502273930258, 47.696753613966308 ], [ -116.915768827973352, 47.696753809936162 ], [ -116.915768972883086, 47.696663833383916 ], [ -116.91616880326518, 47.696664126176827 ], [ -116.916168947486341, 47.696574149622244 ], [ -116.91656877718691, 47.696574441021085 ], [ -116.916568920719513, 47.696484464464177 ], [ -116.917102026079576, 47.696484850827666 ], [ -116.917102168694328, 47.696394874268123 ], [ -116.917635273148363, 47.696395258153728 ], [ -116.917635414845307, 47.696305281591556 ], [ -116.918168518393273, 47.696305662999286 ], [ -116.918168659172409, 47.69621568643452 ], [ -116.918568486152708, 47.696215970864102 ], [ -116.918568626243314, 47.696125994297013 ], [ -116.919101727976184, 47.696126371368223 ], [ -116.919101867148981, 47.696036394798533 ], [ -116.919634967975568, 47.696036769391917 ], [ -116.919635106230587, 47.695946792819633 ], [ -116.920168206150834, 47.695947164935198 ], [ -116.920168343488086, 47.695857188360328 ], [ -116.920568167747447, 47.695857465820843 ], [ -116.920568304396198, 47.6957674892437 ], [ -116.921634635430067, 47.695678245744503 ], [ -116.921634500616207, 47.695768222325363 ], [ -116.921767775146662, 47.695768313264026 ], [ -116.921767505975481, 47.695948266422064 ], [ -116.92190078096516, 47.695948357206504 ], [ -116.92190051224992, 47.696128310359455 ], [ -116.922033787698794, 47.696128400989657 ], [ -116.922033519439495, 47.6963083541375 ], [ -116.922166795347593, 47.6963084446135 ], [ -116.922166527544221, 47.696488397756227 ], [ -116.922299803911542, 47.696488488077996 ], [ -116.922299402889493, 47.696758417782306 ], [ -116.922432679945317, 47.696758507950122 ], [ -116.922432413052604, 47.69693846107981 ], [ -116.922565690567652, 47.696938551093403 ], [ -116.922565424130909, 47.697118504217975 ], [ -116.922698702105194, 47.697118594077338 ], [ -116.922698436124463, 47.697298547196809 ], [ -116.922831714557972, 47.697298636901927 ], [ -116.922831449033225, 47.697478590016289 ], [ -116.922964727925986, 47.697478679567183 ], [ -116.922964462857237, 47.697658632676429 ], [ -116.923097742209237, 47.697658722073093 ], [ -116.9230974775965, 47.697838675177209 ], [ -116.923230757407751, 47.697838764419622 ], [ -116.923230361171733, 47.698108694066036 ], [ -116.923363641671529, 47.698108783154474 ], [ -116.923363377969579, 47.698288736245544 ], [ -116.923496658928627, 47.698288825179759 ], [ -116.923496395682747, 47.698468778265713 ], [ -116.923629677101033, 47.698468867045669 ], [ -116.923629414311193, 47.698648820126515 ], [ -116.92376269618876, 47.698648908752226 ], [ -116.923762433854975, 47.698828861827941 ], [ -116.923895716191794, 47.698828950299415 ], [ -116.923895454314078, 47.699008903370022 ], [ -116.924028737110163, 47.699008991687229 ], [ -116.924028475688544, 47.699188944752713 ], [ -116.924161758943896, 47.699189032915676 ], [ -116.924161367494662, 47.699458962504096 ], [ -116.924294651438601, 47.699459050513077 ], [ -116.924294390927912, 47.69963900356548 ], [ -116.924427675331145, 47.699639091420195 ], [ -116.924427415276554, 47.699819044467503 ], [ -116.924560700139054, 47.69981913216796 ], [ -116.924560440540589, 47.699999085210116 ], [ -116.924693725862383, 47.699999172756321 ], [ -116.924693466720058, 47.700179125793362 ], [ -116.924826752501119, 47.700179213185287 ], [ -116.924826493814933, 47.700359166217211 ], [ -116.924959780055303, 47.700359253454891 ], [ -116.924959521825258, 47.700539206481672 ], [ -116.925092808524923, 47.700539293565058 ], [ -116.925092421863141, 47.70080922309544 ], [ -116.925225709251436, 47.700809310024852 ], [ -116.925225451932448, 47.700989263038551 ], [ -116.925358739780066, 47.700989349813689 ], [ -116.925491514817537, 47.701349342446562 ], [ -116.925758092350634, 47.701349515224905 ] ], [ [ -116.910701382675413, 47.698459534625059 ], [ -116.9105681013245, 47.698459430829175 ], [ -116.91056825519064, 47.698369454316207 ], [ -116.91070153631226, 47.698369558111764 ], [ -116.910701382675413, 47.698459534625059 ] ], [ [ -116.911368246909845, 47.698190121733404 ], [ -116.911234966243128, 47.698190018712509 ], [ -116.911235118960477, 47.698100042193666 ], [ -116.911368399397915, 47.698100145214241 ], [ -116.911368246909845, 47.698190121733404 ] ], [ [ -116.916970035309944, 47.695674965384768 ], [ -116.916836761033082, 47.695674868874029 ], [ -116.916836904100165, 47.695584892302314 ], [ -116.916970178147736, 47.695584988812762 ], [ -116.916970035309944, 47.695674965384768 ] ], [ [ -116.921101809691876, 47.695497927279433 ], [ -116.920835262013838, 47.695497743701161 ], [ -116.920835398201376, 47.695407767117764 ], [ -116.921101945420872, 47.695407950695454 ], [ -116.921101809691876, 47.695497927279433 ] ], [ [ -116.917370142443929, 47.695495300841067 ], [ -116.917236868623547, 47.695495204795286 ], [ -116.917237011001404, 47.695405228219848 ], [ -116.917370284592536, 47.69540532426533 ], [ -116.917370142443929, 47.695495300841067 ] ], [ [ -116.921368492642998, 47.695408133653999 ], [ -116.92123521903163, 47.695408042252126 ], [ -116.92123535453068, 47.695318065666441 ], [ -116.921368627912813, 47.69531815706803 ], [ -116.921368492642998, 47.695408133653999 ] ], [ [ -116.917636831776846, 47.695405515891935 ], [ -116.91750355818435, 47.695405420156028 ], [ -116.917503700102969, 47.695315443578558 ], [ -116.917636973466216, 47.695315539314173 ], [ -116.917636831776846, 47.695405515891935 ] ] ] } },
{ "type": "Feature", "properties": { "area_acres": 73.340877219454669, "lake": "Spokane River (95 Bridge to Post Falls Dam)", "layer": "runs", "min_depth_ft": 0.0, "min_shore_dist_ft": 150.0, "run_length_ft": 3000.0, "angle_step_deg": 5.0, "cell_m": 10.0, "depth_source": "none", "docks": 0 }, "geometry": { "type": "Polygon", "coordinates": [ [ [ -116.843122189888774, 47.700276555087527 ], [ -116.842989444548039, 47.700096420281767 ], [ -116.843522585294977, 47.700097148519347 ], [ -116.843656408489153, 47.699917377667333 ], [ -116.843389839027751, 47.699917014170055 ], [ -116.843390108486517, 47.699827037906871 ], [ -116.842990254992188, 47.699826491501604 ], [ -116.842990525137623, 47.699736515238719 ], [ -116.842723956606619, 47.699736150195626 ], [ -116.842724227209374, 47.699646173932464 ], [ -116.843124079319878, 47.699646721263171 ], [ -116.843123809405085, 47.699736697528039 ], [ -116.843656946488096, 47.699737425137272 ], [ -116.843656677489278, 47.699827401403006 ], [ -116.844056531003261, 47.699827945486135 ], [ -116.844056262691112, 47.699917921752167 ], [ -116.845122540620395, 47.699919365833416 ], [ -116.845122807097965, 47.699829389562872 ], [ -116.844589669040204, 47.699828668762969 ], [ -116.844589936433749, 47.699738692493263 ], [ -116.844056799314089, 47.699737969218688 ], [ -116.844057067623652, 47.699647992949835 ], [ -116.843657215485592, 47.699647448870117 ], [ -116.843524469891889, 47.699467314663138 ], [ -116.844057604238799, 47.699468040407837 ], [ -116.844057872544411, 47.699378064134713 ], [ -116.844191155905079, 47.699378245183304 ], [ -116.844190887828773, 47.699468221456989 ], [ -116.8448573057983, 47.699469124380656 ], [ -116.844857038867303, 47.699559100655755 ], [ -116.846056593358114, 47.699560716170517 ], [ -116.846056858225239, 47.699470739890366 ], [ -116.845657007404625, 47.69947020278039 ], [ -116.84565727295842, 47.699380226500509 ], [ -116.844990856096516, 47.699379328223884 ], [ -116.844991122795591, 47.699289351945374 ], [ -116.845124405936062, 47.699289531909749 ], [ -116.845124672404538, 47.699199555629264 ], [ -116.845524521145791, 47.699200094591852 ], [ -116.845524786925026, 47.699110118308262 ], [ -116.846057917680909, 47.69911083475553 ], [ -116.846058182541569, 47.699020858468266 ], [ -116.847124705305546, 47.698932307634507 ], [ -116.84712496832914, 47.698842331339954 ], [ -116.847524814376584, 47.698842863329602 ], [ -116.847525076711008, 47.698752887031944 ], [ -116.848591591557806, 47.6986643225517 ], [ -116.848591852055193, 47.698574346246801 ], [ -116.848991696080873, 47.698574873122951 ], [ -116.848991955889062, 47.698484896814968 ], [ -116.849525080357083, 47.698485597147069 ], [ -116.84952533924681, 47.698395620835484 ], [ -116.850058462817785, 47.698396318688559 ], [ -116.850058720789022, 47.698306342373364 ], [ -116.850725124134485, 47.698307211203947 ], [ -116.85072538095794, 47.698217234884609 ], [ -116.851525063637951, 47.698218272369608 ], [ -116.851525319084317, 47.698128296045596 ], [ -116.852724841124498, 47.698129841819203 ], [ -116.852725094505928, 47.69803986548893 ], [ -116.854191174612822, 47.698041737733853 ], [ -116.854191425470702, 47.69795176139629 ], [ -116.855790783004252, 47.697953782476546 ], [ -116.85579103110932, 47.697863806131238 ], [ -116.857257106478968, 47.697865639200252 ], [ -116.857257352060557, 47.697775662847775 ], [ -116.858190307584323, 47.697776819590267 ], [ -116.85819055155963, 47.697686843232752 ], [ -116.858457109832841, 47.69768717233638 ], [ -116.858457353348342, 47.697597195976414 ], [ -116.858723911167701, 47.69759752445983 ], [ -116.858724154223424, 47.697507548097406 ], [ -116.858990711588916, 47.697507875960611 ], [ -116.85899095418489, 47.697417899595749 ], [ -116.859257511096502, 47.697418226838721 ], [ -116.859257753232725, 47.697328250471415 ], [ -116.859524309690471, 47.697328577094183 ], [ -116.859524551366903, 47.697238600724447 ], [ -116.859791107370796, 47.697238926726996 ], [ -116.859791348587464, 47.697148950354816 ], [ -116.860324459692151, 47.697149600500353 ], [ -116.860458217608198, 47.696969809896018 ], [ -116.859791831017304, 47.69696899760617 ], [ -116.859791589802967, 47.6970589739812 ], [ -116.85899192455696, 47.697057994122098 ], [ -116.858991681965691, 47.697147970492651 ], [ -116.85832529314672, 47.697147149683978 ], [ -116.858325049407824, 47.697237126050517 ], [ -116.857525381488472, 47.697236135968751 ], [ -116.857525136372658, 47.697326112330785 ], [ -116.856725467120526, 47.697325116673262 ], [ -116.856725220627766, 47.697415093030749 ], [ -116.85565899319117, 47.697413756814598 ], [ -116.855658744862836, 47.697503733166478 ], [ -116.851393572891809, 47.697588265548369 ], [ -116.851393317223611, 47.697678241880347 ], [ -116.850993480009123, 47.697677723379797 ], [ -116.850993223651756, 47.697767699708734 ], [ -116.84966043072518, 47.697765961306246 ], [ -116.849660172073598, 47.697855937628304 ], [ -116.848060817976503, 47.69785383110532 ], [ -116.848060556572051, 47.697943807419371 ], [ -116.846594479621743, 47.697941856851784 ], [ -116.846594215693742, 47.698031833158318 ], [ -116.846194375864485, 47.698031297932864 ], [ -116.8461941112473, 47.698121274236293 ], [ -116.845927550908982, 47.698120916644214 ], [ -116.845927285831877, 47.698210892945099 ], [ -116.845660459503137, 47.698300511031036 ], [ -116.845659928425277, 47.698480463623468 ], [ -116.846459614943527, 47.698481536413162 ], [ -116.846459350778517, 47.698571512710615 ], [ -116.845926225510624, 47.698570798134462 ], [ -116.845925960427081, 47.698660774428248 ], [ -116.845392834262597, 47.69866005737299 ], [ -116.845392568260522, 47.698750033663131 ], [ -116.844726159437556, 47.698749133858172 ], [ -116.844725892287656, 47.698839110144064 ], [ -116.844192764335446, 47.698838387511366 ], [ -116.844192496266984, 47.69892836379357 ], [ -116.84392593184009, 47.698928001547252 ], [ -116.84392566331168, 47.699017977826912 ], [ -116.84312596868655, 47.699016887369268 ], [ -116.843125698780966, 47.699106863644083 ], [ -116.842725850798175, 47.699106316323672 ], [ -116.842726121391692, 47.699016340050576 ], [ -116.841926426837631, 47.699015241233461 ], [ -116.841926698805722, 47.698925264962384 ], [ -116.84112700567519, 47.698924160575743 ], [ -116.841127279017812, 47.698834184306712 ], [ -116.840460869258877, 47.698833259730279 ], [ -116.840461143746694, 47.698743283462719 ], [ -116.839661453455946, 47.698742168865969 ], [ -116.839661729318308, 47.698652192600491 ], [ -116.838862040451758, 47.698651072434323 ], [ -116.838862317688623, 47.698561096170934 ], [ -116.83806263024654, 47.698559970435383 ], [ -116.838062908857879, 47.698469994174111 ], [ -116.837529784840839, 47.698469240590043 ], [ -116.837530064368053, 47.698379264329709 ], [ -116.836997221733071, 47.698288532011802 ], [ -116.836997502174768, 47.698198555750992 ], [ -116.836864221867273, 47.698198366350553 ], [ -116.836864502536898, 47.698108390088919 ], [ -116.836597942384628, 47.698108010824811 ], [ -116.836598223511487, 47.698018034562956 ], [ -116.835798826964634, 47.697926916799311 ], [ -116.83579910946456, 47.697836940538174 ], [ -116.835665830086626, 47.697836749746926 ], [ -116.835666112814451, 47.69774677348498 ], [ -116.835532833667173, 47.69774658253953 ], [ -116.835533116622926, 47.697656606276773 ], [ -116.835399837706333, 47.697656415177107 ], [ -116.835400120890029, 47.697566438913519 ], [ -116.835266842204078, 47.697566247659665 ], [ -116.835134130799929, 47.697386103721982 ], [ -116.83473429613035, 47.697385528570848 ], [ -116.834734580456342, 47.697295552306002 ], [ -116.833801634547527, 47.697294204873032 ], [ -116.833801920477185, 47.697204228611 ], [ -116.83353536497431, 47.697203842238196 ], [ -116.83353565136116, 47.69711386597595 ], [ -116.833269096322454, 47.697113478985187 ], [ -116.833269383166467, 47.697023502722736 ], [ -116.833002828591944, 47.697023115114007 ], [ -116.833003115893135, 47.696933138851342 ], [ -116.832736561782781, 47.696932750624661 ], [ -116.832736849541135, 47.696842774361812 ], [ -116.832337019073975, 47.696842190862647 ], [ -116.832337307518785, 47.696752214600203 ], [ -116.831804201166037, 47.696751434436656 ], [ -116.831803911804073, 47.69684141069667 ], [ -116.832070465436217, 47.696841801089249 ], [ -116.832070176531417, 47.696931777349043 ], [ -116.832336730627745, 47.69693216712367 ], [ -116.832336442180107, 47.697022143383279 ], [ -116.832602996740647, 47.697022532539954 ], [ -116.832602708750187, 47.697112508799371 ], [ -116.83286926377491, 47.69711289733808 ], [ -116.832868976241613, 47.697202873597284 ], [ -116.832469143018784, 47.697202290555204 ], [ -116.832469431239929, 47.697112314297826 ], [ -116.831670055803414, 47.697021167782708 ], [ -116.83167034539747, 47.696931191526154 ], [ -116.831403791315253, 47.696930800203589 ], [ -116.831404081366472, 47.69684082394685 ], [ -116.831137527748453, 47.696840432006347 ], [ -116.83113723723865, 47.696930408261863 ], [ -116.831003960202466, 47.696930212058795 ], [ -116.830870101226708, 47.697109968205275 ], [ -116.831269933710971, 47.697110556818131 ], [ -116.831269643426225, 47.697200533070003 ], [ -116.831669476611069, 47.697201120291552 ], [ -116.831669187012764, 47.69729109654385 ], [ -116.830736241329561, 47.697289724188806 ], [ -116.83073653253291, 47.6971997479408 ], [ -116.829670310814393, 47.697198170252243 ], [ -116.829670017776763, 47.697288146495289 ], [ -116.827537570945665, 47.697284961387552 ], [ -116.827537867651955, 47.697194985154482 ], [ -116.826738201561156, 47.697193780526355 ], [ -116.826738499641721, 47.697103804295651 ], [ -116.826072112419098, 47.697102796185185 ], [ -116.826072411644631, 47.6970128199562 ], [ -116.825272748401304, 47.697011605119229 ], [ -116.825273049001126, 47.696921628892639 ], [ -116.825139772028308, 47.696921425878671 ], [ -116.825139471199208, 47.697011402104621 ], [ -116.824473085210656, 47.697010384709671 ], [ -116.824472783233631, 47.697100360931024 ], [ -116.82353984130647, 47.697098930072279 ], [ -116.823540144888497, 47.697008953855416 ], [ -116.822074095957333, 47.697006690045555 ], [ -116.822074402060011, 47.696916713834369 ], [ -116.821408017388194, 47.696915678641382 ], [ -116.821275355410663, 47.696735518719571 ], [ -116.82100880247252, 47.696735103251839 ], [ -116.820876142327748, 47.696554942865177 ], [ -116.820609590315755, 47.69655452647131 ], [ -116.8206098989331, 47.696464550260181 ], [ -116.820476623158612, 47.6964643418317 ], [ -116.820343965532942, 47.696284180824549 ], [ -116.820077414908639, 47.69628376319627 ], [ -116.819944759115671, 47.696103601724303 ], [ -116.819678209417532, 47.696103183169903 ], [ -116.819545555457253, 47.695923021233135 ], [ -116.819279006685278, 47.695922601752635 ], [ -116.819279317584829, 47.695832625538138 ], [ -116.819146043430365, 47.69583241556635 ], [ -116.81901339198906, 47.695652253009158 ], [ -116.81874684460486, 47.69565183229431 ], [ -116.818614194996201, 47.695471669272337 ], [ -116.818347648538165, 47.695471247631417 ], [ -116.818215000762109, 47.695291084144699 ], [ -116.81794845523028, 47.695290661577729 ], [ -116.817948768411867, 47.695200685359879 ], [ -116.817815495877497, 47.695200473844864 ], [ -116.817682850620344, 47.695020309737785 ], [ -116.817416306476289, 47.69501988593651 ], [ -116.817283663051697, 47.694839721364723 ], [ -116.817017119833864, 47.694839296637412 ], [ -116.816884478241789, 47.694659131600922 ], [ -116.816617935950219, 47.694658705947589 ], [ -116.816618251413715, 47.694568729726448 ], [ -116.816484980499496, 47.694568516668276 ], [ -116.816352341426168, 47.69438835101149 ], [ -116.816085800522416, 47.694387924123916 ], [ -116.816086116898319, 47.694297947901205 ], [ -116.815952846677988, 47.694297734225913 ], [ -116.815820210123391, 47.694117567948858 ], [ -116.8155536706075, 47.694117139827064 ], [ -116.815553987895768, 47.694027163602783 ], [ -116.815420718369381, 47.694026949310391 ], [ -116.81542103588535, 47.693936973085364 ], [ -116.81528776658979, 47.69393675863887 ], [ -116.81528808433346, 47.69384678241309 ], [ -116.81515481526867, 47.693846567812493 ], [ -116.815022182605105, 47.693666400603981 ], [ -116.814755645400254, 47.693665970631606 ], [ -116.814755964056289, 47.693575994404242 ], [ -116.814622695685415, 47.693575779186567 ], [ -116.814623014569122, 47.69348580295847 ], [ -116.814489746429061, 47.693485587586686 ], [ -116.814490065540454, 47.693395611357857 ], [ -116.814356797631191, 47.693395395831978 ], [ -116.814224168858573, 47.693215227692093 ], [ -116.81395763396479, 47.693214795869167 ], [ -116.813957953988478, 47.693124819638783 ], [ -116.813824686773174, 47.693124603495832 ], [ -116.813825007024519, 47.693034627264694 ], [ -116.813691740040014, 47.693034410967655 ], [ -116.81369206051906, 47.692944434735793 ], [ -116.813558793765338, 47.692944218284659 ], [ -116.81342616888351, 47.692764049213451 ], [ -116.813159636300838, 47.692763615540052 ], [ -116.813159957692122, 47.692673639306641 ], [ -116.813026691632345, 47.692673422238457 ], [ -116.8130270132513, 47.692583446004306 ], [ -116.812893747422365, 47.692583228782027 ], [ -116.812894069268978, 47.692493252547131 ], [ -116.812627860377717, 47.692402841404693 ], [ -116.812628504980069, 47.692222888930537 ], [ -116.812495240072721, 47.692222671246689 ], [ -116.812495562600759, 47.692132695008162 ], [ -116.812229033249238, 47.692132259177527 ], [ -116.812362943434024, 47.691952524690286 ], [ -116.812096415002543, 47.691952088552846 ], [ -116.811963797668014, 47.691771917770446 ], [ -116.811697270162881, 47.69177148070716 ], [ -116.811697594058387, 47.691681504465635 ], [ -116.811431391370377, 47.691591090543078 ], [ -116.811431715721156, 47.691501114300095 ], [ -116.811964444540592, 47.691591965283244 ], [ -116.811965091406847, 47.691412012790366 ], [ -116.811831828570377, 47.691411794338833 ], [ -116.811832152230352, 47.691321818090948 ], [ -116.811565627020542, 47.691321380724986 ], [ -116.811565951137382, 47.691231404477051 ], [ -116.811299426392324, 47.6912309664934 ], [ -116.811166813626386, 47.691050794773417 ], [ -116.810900289807677, 47.69105035586395 ], [ -116.810900615065819, 47.690960379615198 ], [ -116.810367894537677, 47.690869523694452 ], [ -116.810235285895956, 47.690689350892185 ], [ -116.809968763933142, 47.690688909821581 ], [ -116.809969090789409, 47.69059893357197 ], [ -116.80943637557121, 47.690508073328175 ], [ -116.809303771053635, 47.690327899443702 ], [ -116.808771059759053, 47.690237036112265 ], [ -116.808771388670181, 47.6901470598618 ], [ -116.808638129080748, 47.690146837705704 ], [ -116.808505528227215, 47.689966662892459 ], [ -116.808105750848554, 47.689965995035543 ], [ -116.80810608090087, 47.689876018784311 ], [ -116.807972822007088, 47.68987579585653 ], [ -116.807840224131496, 47.689695620270065 ], [ -116.80757370726873, 47.689695173643514 ], [ -116.807574038233, 47.689605197390819 ], [ -116.807440780033247, 47.689604973846109 ], [ -116.807441111225117, 47.689514997592703 ], [ -116.807307853256134, 47.689514773893947 ], [ -116.807308184675577, 47.689424797639816 ], [ -116.807174926937407, 47.689424573787015 ], [ -116.807042332951681, 47.689244397269732 ], [ -116.806775818400183, 47.689243948793163 ], [ -116.806776150731565, 47.689153972537589 ], [ -116.806642893687439, 47.689153748067881 ], [ -116.806643226246365, 47.689063771811576 ], [ -116.806509969433037, 47.689063547187828 ], [ -116.806510302219536, 47.688973570930813 ], [ -116.806377045637021, 47.688973346153013 ], [ -116.80624445554102, 47.688793168704997 ], [ -116.805977943300846, 47.688792718378465 ], [ -116.805978276999227, 47.688702742120014 ], [ -116.805845021110756, 47.688702516725321 ], [ -116.805845355036681, 47.688612540466167 ], [ -116.805712099379022, 47.688612314917442 ], [ -116.805712433532534, 47.688522338657563 ], [ -116.805579178105674, 47.688522112954807 ], [ -116.805579512486702, 47.68843213669421 ], [ -116.805446257290683, 47.688431910837409 ], [ -116.805313671770179, 47.68825173230325 ], [ -116.805047162302955, 47.688251279818751 ], [ -116.805047497595808, 47.688161303556726 ], [ -116.804914243093847, 47.688161077083052 ], [ -116.804914578614245, 47.688071100820338 ], [ -116.804781324343082, 47.688070874192633 ], [ -116.80478166009101, 47.687980897929208 ], [ -116.804648406050646, 47.687980671147479 ], [ -116.804515824419596, 47.687800491682708 ], [ -116.804249317263753, 47.68780003734836 ], [ -116.804249653923492, 47.687710061083521 ], [ -116.804116400577172, 47.687709833684949 ], [ -116.804116737464454, 47.687619857419378 ], [ -116.803983484348947, 47.687619629866788 ], [ -116.803983821463746, 47.687529653600528 ], [ -116.80385056857908, 47.687529425893892 ], [ -116.803717990837356, 47.687349245498588 ], [ -116.803451485992895, 47.687348789314463 ], [ -116.803451824019419, 47.687258813046803 ], [ -116.803318571828825, 47.687258584723345 ], [ -116.803318910082851, 47.687168608454975 ], [ -116.803185658123084, 47.687168379977507 ], [ -116.803185996604626, 47.687078403708426 ], [ -116.803052744875643, 47.68707817507692 ], [ -116.802920171023132, 47.686897993751145 ], [ -116.802653668490095, 47.686897535717314 ], [ -116.802654007883348, 47.686807559446855 ], [ -116.802520756848452, 47.686807330198548 ], [ -116.802521096469206, 47.686717353927371 ], [ -116.802387845665152, 47.686717124525046 ], [ -116.802388185513394, 47.686627148253194 ], [ -116.802254934940152, 47.686626918696845 ], [ -116.802122364976725, 47.686446736440644 ], [ -116.801855864755098, 47.686446276557156 ], [ -116.801856205515023, 47.686356300283911 ], [ -116.801722955635853, 47.686356070110783 ], [ -116.801723296623265, 47.686266093836842 ], [ -116.801590046974894, 47.686265863509696 ], [ -116.801590388189823, 47.686175887235045 ], [ -116.801457138772278, 47.686175656753896 ], [ -116.801324572697808, 47.685995473567353 ], [ -116.800924825835068, 47.685994780735612 ], [ -116.800924483477743, 47.686084757009475 ], [ -116.801057732659459, 47.686084988108853 ], [ -116.801057390529635, 47.686174964382012 ], [ -116.801190639942192, 47.68617519532738 ], [ -116.801190298039813, 47.68626517159985 ], [ -116.801323547683197, 47.686265402391207 ], [ -116.801456114435126, 47.686445585571384 ], [ -116.801722614646778, 47.686446046383296 ], [ -116.80172227365604, 47.686536022654408 ], [ -116.801855523993524, 47.686536252828979 ], [ -116.801855183230302, 47.686626229099382 ], [ -116.801988433798584, 47.68662645911995 ], [ -116.80198809326285, 47.686716435389641 ], [ -116.802121344061945, 47.686716665256178 ], [ -116.802253914702916, 47.68689684750602 ], [ -116.802520417226049, 47.686897306468289 ], [ -116.802520077601969, 47.686987282736617 ], [ -116.802653329095193, 47.686987511986345 ], [ -116.802652989698629, 47.687077488253969 ], [ -116.802786241422666, 47.687077717349695 ], [ -116.802785902253603, 47.687167693616622 ], [ -116.802919154208453, 47.687167922558324 ], [ -116.802918815266921, 47.687257898824541 ], [ -116.803052067452555, 47.687258127612211 ], [ -116.803184642668512, 47.687438308776201 ], [ -116.803451147964722, 47.687438765580723 ], [ -116.803450809934901, 47.68752874184554 ], [ -116.803584062814636, 47.687528970016402 ], [ -116.803583725012359, 47.687618946280509 ], [ -116.803716978122921, 47.687619174297346 ], [ -116.803716640548146, 47.687709150560771 ], [ -116.80384989388952, 47.68770937842357 ], [ -116.803982472994747, 47.687889558657048 ], [ -116.804248980602395, 47.687890013611792 ], [ -116.804248643939388, 47.68797998987381 ], [ -116.804381897974835, 47.687980217119772 ], [ -116.804381561539373, 47.688070193381073 ], [ -116.804514815805632, 47.688070420473011 ], [ -116.8045144795977, 47.688160396733601 ], [ -116.804647734094786, 47.688160623671507 ], [ -116.804780317089424, 47.68834080297443 ], [ -116.804513807176932, 47.688340349250524 ], [ -116.804381225102262, 47.688160169640952 ], [ -116.804114716116302, 47.688159714991421 ], [ -116.803982135873397, 47.687979534917645 ], [ -116.803715627813986, 47.687979079342497 ], [ -116.803715965393678, 47.687889103083336 ], [ -116.803582711595624, 47.68788887506436 ], [ -116.803450133870356, 47.687708694370933 ], [ -116.803183627199132, 47.687708237562127 ], [ -116.803051051305573, 47.687528056404503 ], [ -116.802784545560897, 47.687527598670101 ], [ -116.802651971499046, 47.687347417048315 ], [ -116.802385466680988, 47.687346958388339 ], [ -116.802385806540812, 47.687256982126421 ], [ -116.802252554363434, 47.687256752565041 ], [ -116.802119982819079, 47.687076570323676 ], [ -116.801853479389237, 47.687076110430091 ], [ -116.801720909676519, 47.68689592772462 ], [ -116.801454407173296, 47.686895466905483 ], [ -116.801321839292214, 47.686715283735872 ], [ -116.801055337715582, 47.686714821991188 ], [ -116.801055679855438, 47.686624845726548 ], [ -116.800922429298765, 47.686624614622822 ], [ -116.800789863935094, 47.686444430833717 ], [ -116.800523363746748, 47.686443967855496 ], [ -116.800390800214629, 47.6862637836023 ], [ -116.800123957215675, 47.686353295963812 ], [ -116.800256520053651, 47.686533480521476 ], [ -116.800523020693618, 47.686533944120093 ], [ -116.800522677638824, 47.686623920383248 ], [ -116.800655928190466, 47.686624151951179 ], [ -116.800788493545824, 47.68680433588937 ], [ -116.801054995574077, 47.686804798254428 ], [ -116.801187562761029, 47.6869849817285 ], [ -116.801454065715944, 47.686985443168041 ], [ -116.80158663473452, 47.687165626178007 ], [ -116.801853138616039, 47.687166086691988 ], [ -116.801852797841207, 47.687256062952443 ], [ -116.80198605001361, 47.687256292978063 ], [ -116.802118621549681, 47.687436475368479 ], [ -116.802385126819487, 47.687436934648858 ], [ -116.802517700187224, 47.687617116575126 ], [ -116.802784206383606, 47.687617574929931 ], [ -116.802783867204639, 47.687707551188339 ], [ -116.802917120534488, 47.687707780134339 ], [ -116.802916781583065, 47.687797756392037 ], [ -116.803183288706023, 47.687798213821253 ], [ -116.803315865737204, 47.68797839481919 ], [ -116.803049357694249, 47.687977937696587 ], [ -116.803049696419805, 47.687887961441007 ], [ -116.802517020910969, 47.687797069087644 ], [ -116.802384447091512, 47.687616887165618 ], [ -116.802117940905049, 47.68761642788234 ], [ -116.802118281228204, 47.68752645162612 ], [ -116.801851775506705, 47.68752599172533 ], [ -116.801719204664764, 47.687345809030425 ], [ -116.801452699869913, 47.687345348204076 ], [ -116.801453041333914, 47.687255371947202 ], [ -116.800920375059803, 47.687164472185088 ], [ -116.80078780834117, 47.686984288408652 ], [ -116.800521305402924, 47.68698382542172 ], [ -116.800521648464397, 47.68689384916425 ], [ -116.799988987501081, 47.68680294508043 ], [ -116.79985642490567, 47.686622760222541 ], [ -116.799323422749282, 47.686621829308713 ], [ -116.799455983504728, 47.686802014779715 ], [ -116.799722485499544, 47.68680248023955 ], [ -116.799722141064777, 47.686892456494078 ], [ -116.800254802471372, 47.686983361815841 ], [ -116.800387367350012, 47.687163546205426 ], [ -116.800653871201561, 47.687164009504734 ], [ -116.800653528364251, 47.68725398575868 ], [ -116.801186195081684, 47.687344886758765 ], [ -116.801318764083646, 47.687525070066854 ], [ -116.801585269791843, 47.687525531205573 ], [ -116.801584928552018, 47.687615507458908 ], [ -116.801851434725208, 47.687615967980115 ], [ -116.801984006704686, 47.687796150515368 ], [ -116.802250513804509, 47.687796610110986 ], [ -116.802250173705559, 47.687886586363675 ], [ -116.802782849657873, 47.68797747995503 ], [ -116.802915425760787, 47.688157661408638 ], [ -116.803181934717159, 47.688158118843589 ], [ -116.803181596215836, 47.688248095095631 ], [ -116.803714277478761, 47.688338984364925 ], [ -116.803846857705253, 47.688519164736846 ], [ -116.80411336851806, 47.68851962001105 ], [ -116.804113031614392, 47.688609596262431 ], [ -116.804645718187899, 47.688700481209509 ], [ -116.804778302537997, 47.688880660499677 ], [ -116.80531099303542, 47.68897154235961 ], [ -116.805443580363303, 47.689151720876737 ], [ -116.805710094423944, 47.68915217244691 ], [ -116.805709760259091, 47.689242148696849 ], [ -116.806242456066926, 47.689333026234351 ], [ -116.806375047518586, 47.689513203669577 ], [ -116.806641563435505, 47.689513653078869 ], [ -116.806641230868493, 47.689603629328076 ], [ -116.80717393198664, 47.689694502543041 ], [ -116.807173600333158, 47.68978447879222 ], [ -116.807306858988127, 47.689784702647827 ], [ -116.80743945524965, 47.689964878845579 ], [ -116.807705973484374, 47.689965325785828 ], [ -116.807838571577904, 47.690145501519247 ], [ -116.80810509073909, 47.69014594753375 ], [ -116.808237690664583, 47.690326122802801 ], [ -116.808504210752233, 47.690326567891567 ], [ -116.80850388137948, 47.690416544137797 ], [ -116.808637141654927, 47.690416766450753 ], [ -116.808636812509775, 47.69050674269625 ], [ -116.808770073016007, 47.690506964855132 ], [ -116.808902676145564, 47.690687139348796 ], [ -116.809169198082898, 47.690687582895549 ], [ -116.809168869849756, 47.690777559139576 ], [ -116.809302131050018, 47.690777780681501 ], [ -116.809301803044505, 47.690867756924817 ], [ -116.809435064475579, 47.690867978312674 ], [ -116.809434736697668, 47.690957954555259 ], [ -116.809567998359555, 47.690958175789056 ], [ -116.809700605379291, 47.691138349351768 ], [ -116.809967129627864, 47.691138791048331 ], [ -116.809966802762034, 47.691228767289424 ], [ -116.810100065117908, 47.691228987906236 ], [ -116.810099738479707, 47.691318964146603 ], [ -116.810233001066393, 47.691319184609362 ], [ -116.810365611290351, 47.691499357396587 ], [ -116.810898338225428, 47.691590213326691 ], [ -116.810898012956159, 47.691680189565517 ], [ -116.811031276469251, 47.691680409102446 ], [ -116.811163890357534, 47.69186058096075 ], [ -116.811430418308504, 47.691861019263541 ], [ -116.811430093951387, 47.691950995500854 ], [ -116.81156335815848, 47.691951214420783 ], [ -116.811563034028993, 47.69204119065737 ], [ -116.811696298466885, 47.692041409423211 ], [ -116.811695974565055, 47.69213138565906 ], [ -116.811829239233731, 47.692131604270834 ], [ -116.81196185701252, 47.692311775198 ], [ -116.812228387274658, 47.692312211650439 ], [ -116.812228064285037, 47.69240218788476 ], [ -116.812361329647686, 47.69240240587952 ], [ -116.812361006885709, 47.692492382113088 ], [ -116.812494272479157, 47.692492599953759 ], [ -116.812493949944866, 47.692582576186602 ], [ -116.812760159517524, 47.692672987637799 ], [ -116.812626248844424, 47.692852722565263 ], [ -116.81289278187306, 47.692853157478197 ], [ -116.812893103724406, 47.692763181247564 ], [ -116.813026370011826, 47.692763398471186 ], [ -116.813026048389744, 47.692853374702516 ], [ -116.813159314907978, 47.692853591772042 ], [ -116.813158993513539, 47.692943568002619 ], [ -116.813025726766071, 47.692943350932417 ], [ -116.813025083514049, 47.693123303387949 ], [ -116.813158350720002, 47.69312352045953 ], [ -116.813158029320874, 47.69321349668585 ], [ -116.813424564195941, 47.693213930366056 ], [ -116.813424243253721, 47.693303906592313 ], [ -116.813557510922834, 47.693304123200932 ], [ -116.813690137621379, 47.693484292105751 ], [ -116.813956673884377, 47.69348472455183 ], [ -116.814089302415297, 47.693664892992075 ], [ -116.814355839604616, 47.693665324512217 ], [ -116.814488469967941, 47.693845492487867 ], [ -116.81475500808358, 47.693845923082037 ], [ -116.814754689422912, 47.693935899305139 ], [ -116.814887958712305, 47.693936114370736 ], [ -116.815020591594248, 47.694116281726167 ], [ -116.81528713109779, 47.694116711086181 ], [ -116.815419765812194, 47.694296877976988 ], [ -116.815686306242, 47.694297306411009 ], [ -116.815685989178348, 47.694387282631716 ], [ -116.815819259624831, 47.694387496617232 ], [ -116.815818942788894, 47.694477472837178 ], [ -116.815952213466161, 47.694477686668584 ], [ -116.816084851385511, 47.694657852783536 ], [ -116.816351393664789, 47.694658279675117 ], [ -116.816351077741245, 47.694748255893494 ], [ -116.816484349112443, 47.694748469107779 ], [ -116.816484033416643, 47.694838445325402 ], [ -116.816617305018653, 47.694838658385585 ], [ -116.816616989550553, 47.694928634602448 ], [ -116.816750261383334, 47.694928847508514 ], [ -116.816882903193914, 47.69510901269193 ], [ -116.817149447784246, 47.695109437732803 ], [ -116.817149133228611, 47.695199413948082 ], [ -116.817282405755321, 47.695199626237006 ], [ -116.817282091427415, 47.695289602451531 ], [ -116.817415364184924, 47.695289814586339 ], [ -116.817415050084747, 47.695379790800104 ], [ -116.817548323073041, 47.695380002780787 ], [ -116.817548009200621, 47.695469978993806 ], [ -116.817681282419727, 47.695470190820373 ], [ -116.817813928807965, 47.695650354916573 ], [ -116.818080476170891, 47.695650777798434 ], [ -116.818080163210922, 47.69574075400984 ], [ -116.818213437123958, 47.695740965219251 ], [ -116.818213124391747, 47.695830941429897 ], [ -116.818346398535567, 47.695831152485184 ], [ -116.818479048129021, 47.696011315805379 ], [ -116.818878871949806, 47.696011947582093 ], [ -116.81887918353867, 47.695921971370979 ], [ -116.819012457919371, 47.695922181652989 ], [ -116.819012146559757, 47.696012157864772 ], [ -116.819278695784234, 47.696012577965732 ], [ -116.819411349050625, 47.696192740207266 ], [ -116.819677899201267, 47.696193159382119 ], [ -116.819810554300375, 47.696373321158866 ], [ -116.820077105377209, 47.696373739407619 ], [ -116.820076795844244, 47.696463715617547 ], [ -116.820210071614184, 47.696463924510397 ], [ -116.820342729232351, 47.696644085666669 ], [ -116.820609281696917, 47.696644502681011 ], [ -116.82074194114783, 47.69682466337246 ], [ -116.821008494538518, 47.696825079460666 ], [ -116.821008186603038, 47.696915055668065 ], [ -116.821141463529941, 47.696915263480626 ], [ -116.821274125499968, 47.697095423551573 ], [ -116.821540680278375, 47.697095838405332 ], [ -116.821540373255544, 47.697185814611075 ], [ -116.821673650876278, 47.697186021806417 ], [ -116.821673344081248, 47.697275998011406 ], [ -116.821806621932765, 47.697276205052582 ], [ -116.821806315365507, 47.697366181256804 ], [ -116.821939593447809, 47.697366388143855 ], [ -116.821939287108378, 47.697456364347282 ], [ -116.822072565421465, 47.697456571080181 ], [ -116.82207225930982, 47.697546547282855 ], [ -116.822205537853677, 47.697546753861602 ], [ -116.822338205088471, 47.69772691268922 ], [ -116.826603133994723, 47.697733436563915 ], [ -116.826602835674692, 47.697823412784061 ], [ -116.828068907853918, 47.697825618763225 ], [ -116.828068612054707, 47.697915594988871 ], [ -116.829667966473252, 47.697917980156909 ], [ -116.829667673424197, 47.698007956388608 ], [ -116.831133751010753, 47.698010123217379 ], [ -116.831133460482548, 47.69810009945445 ], [ -116.832599540762615, 47.69810224755922 ], [ -116.83259925275533, 47.698192223801612 ], [ -116.834198616005963, 47.698194545833509 ], [ -116.834198330748904, 47.69828452208175 ], [ -116.835131294342716, 47.69828586631035 ], [ -116.835131010689409, 47.698375842561383 ], [ -116.835797414444428, 47.698376798083629 ], [ -116.835797131936232, 47.698466774336239 ], [ -116.836596817863466, 47.698467915858075 ], [ -116.836596536729758, 47.698557892112838 ], [ -116.837129661625866, 47.698558650033725 ], [ -116.837129381408005, 47.698648626289447 ], [ -116.837529225782347, 47.698649193106462 ], [ -116.837528946251055, 47.698739169362547 ], [ -116.837795509632684, 47.698739546467714 ], [ -116.837795230558655, 47.698829522723564 ], [ -116.83859464441251, 47.698920626585306 ], [ -116.838594366711646, 47.699010602841838 ], [ -116.838860931490842, 47.699010977473691 ], [ -116.838860654247227, 47.699100953729982 ], [ -116.839127219490479, 47.699101327743769 ], [ -116.839126942704127, 47.699191303999818 ], [ -116.839526791267033, 47.699191863861223 ], [ -116.839526515167307, 47.699281840117607 ], [ -116.840059372336782, 47.699372560691828 ], [ -116.840059097151638, 47.699462536947713 ], [ -116.839792530055036, 47.69946216509652 ], [ -116.839792254409929, 47.69955214134982 ], [ -116.840192105744777, 47.699552698896127 ], [ -116.84019238070195, 47.69946272264108 ], [ -116.840325664253569, 47.699462908179655 ], [ -116.840458398808167, 47.699643046074414 ], [ -116.840191830786253, 47.699642675149747 ], [ -116.840191555826408, 47.699732651401945 ], [ -116.840458124306949, 47.69973302232777 ], [ -116.840457849804423, 47.699822998579705 ], [ -116.840857703223222, 47.699823553809118 ], [ -116.840990440524337, 47.700003691080241 ], [ -116.841123725459909, 47.700003875693454 ], [ -116.841123998818517, 47.699913899441434 ], [ -116.841790422369769, 47.699914820182386 ], [ -116.841790150157792, 47.700004796437277 ], [ -116.842056720046259, 47.700005163651149 ], [ -116.842056448291601, 47.700095139905756 ], [ -116.842323018643995, 47.700095506501533 ], [ -116.842322747346671, 47.700185482755884 ], [ -116.842589318162993, 47.700185848733554 ], [ -116.842589047323003, 47.700275824987635 ], [ -116.843122189888774, 47.700276555087527 ] ], [ [ -116.842989444548039, 47.700096420281767 ], [ -116.842722874182456, 47.700096055234106 ], [ -116.842723144790497, 47.700006078976614 ], [ -116.842989714697396, 47.700006444023124 ], [ -116.842989444548039, 47.700096420281767 ] ], [ [ -116.842589859838981, 47.700005896221136 ], [ -116.842456574888828, 47.700005713310851 ], [ -116.84245684595416, 47.69991573705309 ], [ -116.842590130675021, 47.699915919962805 ], [ -116.842589859838981, 47.700005896221136 ] ], [ [ -116.842190276516448, 47.69991537076924 ], [ -116.842056991799566, 47.699915187395099 ], [ -116.842057263551581, 47.699825211137636 ], [ -116.842190548039127, 47.699825394511208 ], [ -116.842190276516448, 47.69991537076924 ] ], [ [ -116.841925882897485, 47.699195193771345 ], [ -116.841126185639339, 47.699194089374323 ], [ -116.841126458985954, 47.699104113109541 ], [ -116.841926154868219, 47.699105217503117 ], [ -116.841925882897485, 47.699195193771345 ] ], [ [ -116.841126458985954, 47.699104113109541 ], [ -116.84059332842439, 47.699103373751058 ], [ -116.840593602686909, 47.699013397487185 ], [ -116.841126732331247, 47.699014136843353 ], [ -116.841126458985954, 47.699104113109541 ] ], [ [ -116.840327037872783, 47.699013026880273 ], [ -116.840193755467695, 47.699012841344612 ], [ -116.840194030416825, 47.698922865081052 ], [ -116.840327312592606, 47.698923050616131 ], [ -116.840327037872783, 47.699013026880273 ] ], [ [ -116.846992739314771, 47.698482248510246 ], [ -116.846592896034409, 47.698481714669626 ], [ -116.846593159968847, 47.698391738370212 ], [ -116.846993002561291, 47.698392272209134 ], [ -116.846992739314771, 47.698482248510246 ] ], [ [ -116.833135244654414, 47.697293237777039 ], [ -116.832868688706938, 47.697292849855074 ], [ -116.832868976241613, 47.697202873597284 ], [ -116.83313553173052, 47.697203261518027 ], [ -116.833135244654414, 47.697293237777039 ] ], [ [ -116.825272147197254, 47.697191557568146 ], [ -116.825138869536573, 47.69719135455226 ], [ -116.825139170368629, 47.697101378329151 ], [ -116.825272447800003, 47.697101581344398 ], [ -116.825272147197254, 47.697191557568146 ] ], [ [ -116.81887918353867, 47.695921971370979 ], [ -116.818745909159503, 47.695921760934191 ], [ -116.818746220976152, 47.695831784722316 ], [ -116.818879495126041, 47.69583199515845 ], [ -116.81887918353867, 47.695921971370979 ] ], [ [ -116.818746220976152, 47.695831784722316 ], [ -116.81861294682777, 47.69583157413139 ], [ -116.818613258872134, 47.695741597918754 ], [ -116.818746532791238, 47.69574180850902 ], [ -116.818746220976152, 47.695831784722316 ] ], [ [ -116.812494917543106, 47.692312647483803 ], [ -116.8123616524081, 47.69231242964451 ], [ -116.812361975166922, 47.692222453408071 ], [ -116.812495240072721, 47.692222671246689 ], [ -116.812494917543106, 47.692312647483803 ] ], [ [ -116.811431715721156, 47.691501114300095 ], [ -116.811165189603969, 47.691500676002804 ], [ -116.81103257661988, 47.691320504135881 ], [ -116.811299101817042, 47.691320942739949 ], [ -116.811431715721156, 47.691501114300095 ] ], [ [ -116.81103257661988, 47.691320504135881 ], [ -116.810766051429042, 47.691320064912759 ], [ -116.81076637692118, 47.691230088668952 ], [ -116.81103290165359, 47.691230527890703 ], [ -116.81103257661988, 47.691320504135881 ] ], [ [ -116.81076637692118, 47.691230088668952 ], [ -116.810633114557348, 47.691229868825936 ], [ -116.810633440277101, 47.69113989258139 ], [ -116.810766702411726, 47.691140112423724 ], [ -116.81076637692118, 47.691230088668952 ] ], [ [ -116.810633440277101, 47.69113989258139 ], [ -116.810366916012626, 47.691139452432452 ], [ -116.810367242189258, 47.691049476187871 ], [ -116.810633765995291, 47.691049916335423 ], [ -116.810633440277101, 47.69113989258139 ] ], [ [ -116.810367242189258, 47.691049476187871 ], [ -116.810233980288601, 47.691049255881936 ], [ -116.81023430669282, 47.690959279636637 ], [ -116.810367568364242, 47.690959499941876 ], [ -116.810367242189258, 47.691049476187871 ] ], [ [ -116.805977275899238, 47.688972670891111 ], [ -116.805844019323203, 47.688972445494315 ], [ -116.805844353254017, 47.688882469239402 ], [ -116.805977609600873, 47.68888269463551 ], [ -116.805977275899238, 47.688972670891111 ] ], [ [ -116.805844353254017, 47.688882469239402 ], [ -116.805711096908823, 47.68888224368856 ], [ -116.805711431067195, 47.688792267432945 ], [ -116.80584468718321, 47.688792492983083 ], [ -116.805844353254017, 47.688882469239402 ] ], [ [ -116.805578174952785, 47.688792041728064 ], [ -116.805444918840024, 47.688791815868427 ], [ -116.805445253455133, 47.688701839612797 ], [ -116.805578509338716, 47.688702065471716 ], [ -116.805578174952785, 47.688792041728064 ] ], [ [ -116.805445253455133, 47.688701839612797 ], [ -116.805311997573185, 47.688701613599115 ], [ -116.805312332415852, 47.688611637342788 ], [ -116.805445588068594, 47.688611863355753 ], [ -116.805445253455133, 47.688701839612797 ] ], [ [ -116.805312332415852, 47.688611637342788 ], [ -116.805045821115186, 47.688611184852604 ], [ -116.805046156414576, 47.688521208596271 ], [ -116.804912900995902, 47.688520982119776 ], [ -116.804780317089424, 47.68834080297443 ], [ -116.805046827008454, 47.68834125607934 ], [ -116.805046491712346, 47.688431232338509 ], [ -116.805179746903477, 47.688431458659565 ], [ -116.805312332415852, 47.688611637342788 ] ], [ [ -116.804513134749612, 47.688520301761777 ], [ -116.804379879337475, 47.688520074666279 ], [ -116.804380215781123, 47.688430098412077 ], [ -116.804513470964096, 47.688430325506872 ], [ -116.804513134749612, 47.688520301761777 ] ], [ [ -116.80411404232045, 47.688339667504081 ], [ -116.8039807873716, 47.688339439945771 ], [ -116.803981124499515, 47.688249463690873 ], [ -116.804114379219214, 47.688249691248473 ], [ -116.80411404232045, 47.688339667504081 ] ], [ [ -116.803847869781464, 47.688249235978532 ], [ -116.803714615065047, 47.688249008111441 ], [ -116.803714952649671, 47.688159031856536 ], [ -116.803848207136895, 47.688159259722916 ], [ -116.803847869781464, 47.688249235978532 ] ], [ [ -116.803714952649671, 47.688159031856536 ], [ -116.803448443680139, 47.688158575659543 ], [ -116.803448781721471, 47.688068599404673 ], [ -116.80371529023266, 47.688069055600224 ], [ -116.803714952649671, 47.688159031856536 ] ], [ [ -116.803448781721471, 47.688068599404673 ], [ -116.803315527468342, 47.68806837107477 ], [ -116.803315865737204, 47.68797839481919 ], [ -116.803449119761154, 47.687978623148368 ], [ -116.803448781721471, 47.688068599404673 ] ] ] } }
]
}
