{
"type": "FeatureCollection",
"name": "zones_qualifying",
"crs": { "type": "name", "properties": { "name": "urn:ogc:def:crs:OGC:1.3:CRS84" } },
"features": [
{ "type": "Feature", "properties": { "area_acres": 340.09113651325964, "lake": "Spokane River (95 Bridge to Post Falls Dam)", "layer": "qualifying", "min_depth_ft": 0.0, "min_shore_dist_ft": 150.0, "run_length_ft": 3000.0, "angle_step_deg": 5.0, "cell_m": 10.0, "depth_source": "none", "docks": 0 }, "geometry": { "type": "Polygon", "coordinates": [ [ [ -116.953209551339839, 47.708112231529142 ], [ -116.953210276090644, 47.707302443512752 ], [ -116.953343580101688, 47.707302497788177 ], [ -116.953343820989986, 47.707032568423358 ], [ -116.953477124313139, 47.707032622543416 ], [ -116.953477284444546, 47.706852669626109 ], [ -116.953610587309299, 47.706852723590977 ], [ -116.953610667144986, 47.706762747130028 ], [ -116.953877351793281, 47.706672878132196 ], [ -116.953877589920467, 47.706402948735573 ], [ -116.953744288202017, 47.706402895081233 ], [ -116.953744367806365, 47.706312918613023 ], [ -116.953611066317706, 47.706312864803998 ], [ -116.953611146151076, 47.706222888334537 ], [ -116.95347784489222, 47.706222834370848 ], [ -116.953477924954598, 47.706132857900144 ], [ -116.953344623925531, 47.706132803781777 ], [ -116.953344704216931, 47.706042827309815 ], [ -116.953211403417669, 47.706042773036771 ], [ -116.953211483938091, 47.705952796563558 ], [ -116.953078183368604, 47.705952742135842 ], [ -116.953078264118034, 47.705862765661401 ], [ -116.952944963778336, 47.705862711079007 ], [ -116.952945044756788, 47.7057727346033 ], [ -116.95281174464688, 47.70577267986625 ], [ -116.952811825854326, 47.705682703389293 ], [ -116.952678525974235, 47.705682648497557 ], [ -116.952678607410661, 47.705592672019378 ], [ -116.952412090005296, 47.705502585292464 ], [ -116.952412663257988, 47.704872749897923 ], [ -116.952545961072758, 47.704872805097786 ], [ -116.95267942175326, 47.704692907159497 ], [ -116.953079313824787, 47.704693071364517 ], [ -116.95307939456869, 47.704603094870215 ], [ -116.953345988826229, 47.704603203565703 ], [ -116.95334630996291, 47.704243297572951 ], [ -116.95267982890968, 47.704243024676387 ], [ -116.952679910339768, 47.704153048175513 ], [ -116.95241331838001, 47.704152937933387 ], [ -116.952413400268455, 47.704062961431447 ], [ -116.951080442787529, 47.704062400932528 ], [ -116.951080526969363, 47.703972424430908 ], [ -116.950947231452886, 47.703972367529609 ], [ -116.950947315863687, 47.703882391026767 ], [ -116.950680810159866, 47.703792300256112 ], [ -116.950681064764822, 47.70352237073589 ], [ -116.950414561354734, 47.703432279342024 ], [ -116.950414732005939, 47.703252326319351 ], [ -116.950281438326513, 47.703252268645322 ], [ -116.950281523880861, 47.703162292132035 ], [ -116.950014936982001, 47.703162176319864 ], [ -116.950014678941457, 47.703432105854397 ], [ -116.94988138480457, 47.703432047715516 ], [ -116.94988129856084, 47.703522024224021 ], [ -116.949748004194973, 47.703521965930136 ], [ -116.949614536423326, 47.703701860493418 ], [ -116.94894806230873, 47.703701565925513 ], [ -116.948948150158913, 47.703611589421151 ], [ -116.948814855566638, 47.703611530043268 ], [ -116.948814943645758, 47.703521553537662 ], [ -116.948548443458691, 47.703431457811106 ], [ -116.948549063208631, 47.702801622224904 ], [ -116.948682355735741, 47.702801681910778 ], [ -116.948682620648313, 47.702531752351987 ], [ -116.948282745132573, 47.702531572831596 ], [ -116.948282834123958, 47.702441596309733 ], [ -116.948149542515623, 47.702441536160144 ], [ -116.94814963173593, 47.702351559637052 ], [ -116.948016340357384, 47.702351499332813 ], [ -116.948016429806614, 47.702261522808492 ], [ -116.947883138657858, 47.702261462349625 ], [ -116.947750027324133, 47.702081448683792 ], [ -116.947350155257894, 47.702081265914934 ], [ -116.947350245852604, 47.701991289387294 ], [ -116.947083664936017, 47.701991166767655 ], [ -116.946950557042598, 47.701811152167252 ], [ -116.946683977046078, 47.701811028619439 ], [ -116.946684068786226, 47.70172105208853 ], [ -116.946550779017997, 47.701720990082592 ], [ -116.946550870987039, 47.701631013550447 ], [ -116.946284384337886, 47.701540912541319 ], [ -116.946284569191121, 47.70136095947074 ], [ -116.946151280341596, 47.701360897001116 ], [ -116.946151465651724, 47.701180943925266 ], [ -116.946018177261351, 47.701180881301212 ], [ -116.946018455911172, 47.700910951677372 ], [ -116.9457519738489, 47.700820849422271 ], [ -116.945752347208511, 47.700460943233203 ], [ -116.945619060654224, 47.700460880146274 ], [ -116.945619528490184, 47.700010997379032 ], [ -116.944819816053922, 47.700010615612378 ], [ -116.944818771663705, 47.701000357640389 ], [ -116.94468548373662, 47.701000293468567 ], [ -116.944552004997448, 47.701180182218678 ], [ -116.944152139844263, 47.701179988308624 ], [ -116.944152043749298, 47.701269964844272 ], [ -116.943485600689982, 47.701269638563467 ], [ -116.943485697931678, 47.701179662028835 ], [ -116.942685967652196, 47.701179265384106 ], [ -116.942686066269459, 47.701089288849289 ], [ -116.942419489972153, 47.701089155396254 ], [ -116.942286400433375, 47.700909135364917 ], [ -116.942019825056306, 47.700909000983799 ], [ -116.941886737351766, 47.700728980484016 ], [ -116.941620162894978, 47.700728845174858 ], [ -116.941620263344561, 47.700638868634655 ], [ -116.94122040235105, 47.700638664510436 ], [ -116.94122050348814, 47.700548687969459 ], [ -116.940820643187095, 47.70054848245254 ], [ -116.940820745011692, 47.700458505910781 ], [ -116.940554171938786, 47.700458368125865 ], [ -116.940554274221554, 47.700368391583126 ], [ -116.940287701609336, 47.700368253179384 ], [ -116.940287804350262, 47.700278276635657 ], [ -116.939754763706901, 47.700188021427024 ], [ -116.939621685634847, 47.700007998281748 ], [ -116.939488400249317, 47.70000792807447 ], [ -116.939488296133931, 47.700097904621138 ], [ -116.939355010519563, 47.700097834258834 ], [ -116.939221515756103, 47.700277716829909 ], [ -116.938421799331834, 47.700277290473437 ], [ -116.938421905282908, 47.700187313931373 ], [ -116.938155333604243, 47.700187170574488 ], [ -116.938155440013446, 47.700097194031471 ], [ -116.937489011972573, 47.700096832931166 ], [ -116.937355941934754, 47.699916807159099 ], [ -116.936023090484312, 47.699916071804054 ], [ -116.936023200561181, 47.699826095260448 ], [ -116.935623345824425, 47.699825871635809 ], [ -116.93562323505958, 47.699915848178726 ], [ -116.934556953950761, 47.699915245032805 ], [ -116.934557066550212, 47.699825268491786 ], [ -116.934290496737148, 47.699825116157676 ], [ -116.934290383679027, 47.69991509269822 ], [ -116.934157098543992, 47.699915016298704 ], [ -116.934023586374295, 47.70009489282026 ], [ -116.93375701518967, 47.700094739246218 ], [ -116.933756901212575, 47.700184715781532 ], [ -116.933623615391767, 47.700184638762046 ], [ -116.933490100698364, 47.700364514653216 ], [ -116.933223528142179, 47.700364359839206 ], [ -116.933223413246111, 47.700454336369319 ], [ -116.933090126739515, 47.700454258729856 ], [ -116.933090011613558, 47.700544235258299 ], [ -116.932956724878196, 47.700544157463774 ], [ -116.932823206972429, 47.7007240325661 ], [ -116.932023366861173, 47.700813538138256 ], [ -116.932023249898236, 47.700903514659082 ], [ -116.931756674602468, 47.7009033564362 ], [ -116.931756557180279, 47.700993332955086 ], [ -116.930956829930679, 47.700992854569371 ], [ -116.930956948728877, 47.70090287805197 ], [ -116.930557085799876, 47.70090263676984 ], [ -116.930556966313674, 47.700992613286481 ], [ -116.930290390571898, 47.700992451657129 ], [ -116.930290270626401, 47.701082428171844 ], [ -116.929490542039105, 47.701081939566663 ], [ -116.929490420716974, 47.70117191607843 ], [ -116.927491095902226, 47.701170670177802 ], [ -116.927491220664479, 47.701080693669944 ], [ -116.927224769711756, 47.700990548409727 ], [ -116.92709198364804, 47.700630557753911 ], [ -116.926958696709747, 47.700630472992451 ], [ -116.926958822385686, 47.700540496477132 ], [ -116.926825535677338, 47.700540411561136 ], [ -116.926692501236971, 47.700360373456519 ], [ -116.926026070000844, 47.700359945782935 ], [ -116.925893038772358, 47.700179906747515 ], [ -116.925360024056573, 47.70008958468572 ], [ -116.925360152480806, 47.699999608165129 ], [ -116.925093710713782, 47.699909457944571 ], [ -116.925094097356748, 47.699639528371648 ], [ -116.92496081295036, 47.699639441290991 ], [ -116.9249609420594, 47.699549464764111 ], [ -116.924827657882986, 47.699549377528911 ], [ -116.924827787220721, 47.699459401000908 ], [ -116.924694503274239, 47.699459313611158 ], [ -116.924694632840684, 47.69936933708199 ], [ -116.924428195432696, 47.699279185308612 ], [ -116.924428975566073, 47.698739326098682 ], [ -116.924295693456017, 47.698739238246702 ], [ -116.924295953954029, 47.698559285165942 ], [ -116.924029521359756, 47.698469132456729 ], [ -116.924030566990211, 47.697749320070002 ], [ -116.924163846576633, 47.697749408228539 ], [ -116.924163977048281, 47.697659431673543 ], [ -116.923897549264282, 47.697569278646355 ], [ -116.923898334828536, 47.697029419281385 ], [ -116.924031612579967, 47.697029507592511 ], [ -116.924031743275791, 47.696939531026445 ], [ -116.92389846575368, 47.696939442715596 ], [ -116.923898727602051, 47.696759489579762 ], [ -116.923765450539136, 47.696759401114683 ], [ -116.923765581691654, 47.696669424544908 ], [ -116.923632304858643, 47.696669335925307 ], [ -116.923499291246571, 47.696489294008231 ], [ -116.923232738500943, 47.696489115996172 ], [ -116.923232870568668, 47.696399139423264 ], [ -116.922966450809838, 47.696308984218824 ], [ -116.922966715859232, 47.696129031067045 ], [ -116.922833440405768, 47.696128941520357 ], [ -116.922833573158783, 47.696038964942623 ], [ -116.922567155923318, 47.695948808806854 ], [ -116.922567422343192, 47.695768855645419 ], [ -116.922434147808815, 47.695768765635492 ], [ -116.92230140794122, 47.695408769133124 ], [ -116.922168134325233, 47.695408678814758 ], [ -116.922168268219409, 47.695318702227091 ], [ -116.921901855799973, 47.695228544538018 ], [ -116.921902124502139, 47.695048591356716 ], [ -116.921768851805183, 47.695048500575126 ], [ -116.921768986384549, 47.694958523982628 ], [ -116.92163571391751, 47.694958433046537 ], [ -116.921635983532809, 47.694778479857867 ], [ -116.921369574782943, 47.694688320926581 ], [ -116.921369845311361, 47.694508367730542 ], [ -116.921236573992601, 47.694508276331518 ], [ -116.921236844976875, 47.694328323130392 ], [ -116.921103574117311, 47.694328231577167 ], [ -116.921103845557454, 47.694148278370918 ], [ -116.920970575157057, 47.694148186663483 ], [ -116.920837849463695, 47.6937881883741 ], [ -116.920704579981646, 47.693788096358261 ], [ -116.920704716385842, 47.693698119748213 ], [ -116.920571447133668, 47.693698027577881 ], [ -116.920438451605563, 47.693517982029576 ], [ -116.920038645230605, 47.693517704127331 ], [ -116.920038782779031, 47.693427727514482 ], [ -116.919905514217973, 47.693427634571137 ], [ -116.919905376440283, 47.693517611183708 ], [ -116.918572688574187, 47.693516673234669 ], [ -116.918572548503377, 47.693606649842884 ], [ -116.918039472458986, 47.693606270328338 ], [ -116.918039331470467, 47.693696246933939 ], [ -116.917506254520092, 47.693695864941752 ], [ -116.917506112613893, 47.693785841544745 ], [ -116.917106304220596, 47.693785553424547 ], [ -116.917106161625952, 47.693875530025203 ], [ -116.91657308286095, 47.693875143696829 ], [ -116.916572939348626, 47.69396512029487 ], [ -116.916306399511797, 47.693964926201403 ], [ -116.916305103742701, 47.694774715514448 ], [ -116.916171831762028, 47.694774618232806 ], [ -116.916171254929381, 47.695134524556082 ], [ -116.916304527827094, 47.695134621838939 ], [ -116.916303519947803, 47.695764457852185 ], [ -116.916170245445159, 47.695764360567189 ], [ -116.916036682054312, 47.695944216260067 ], [ -116.915636857177063, 47.695943923010127 ], [ -116.915636712043735, 47.696033899573415 ], [ -116.914970336116127, 47.69603340772619 ], [ -116.914970189835671, 47.696123384286516 ], [ -116.91430381277948, 47.696122888567977 ], [ -116.914303665351909, 47.696212865125339 ], [ -116.913770562802739, 47.696212465763026 ], [ -116.913770414457346, 47.696302442317695 ], [ -116.913237311002604, 47.696302040477477 ], [ -116.913103736154937, 47.6964818927324 ], [ -116.912837183516245, 47.696481690572689 ], [ -116.912837033563676, 47.696571667120899 ], [ -116.91270375701616, 47.69657156580854 ], [ -116.912703606833574, 47.696661542355024 ], [ -116.912437053282147, 47.69666133926529 ], [ -116.912303474764457, 47.696841190575029 ], [ -116.911770365839033, 47.696840781916279 ], [ -116.911770214049255, 47.696930758456276 ], [ -116.911503659132393, 47.696930553197497 ], [ -116.911370076717532, 47.697110403409717 ], [ -116.910836965061378, 47.697109990412848 ], [ -116.910836811664325, 47.697199966946322 ], [ -116.910703533522863, 47.697199863309798 ], [ -116.910703379895764, 47.697289839841531 ], [ -116.910570101525764, 47.697289736049875 ], [ -116.91056994766862, 47.697379712579874 ], [ -116.91043666907008, 47.697379608633099 ], [ -116.910436514982891, 47.697469585161343 ], [ -116.910303236155784, 47.697469481059443 ], [ -116.910303081838549, 47.697559457585953 ], [ -116.910169802782931, 47.69755935332892 ], [ -116.910036214174113, 47.697739201964559 ], [ -116.909636375638186, 47.69773888779833 ], [ -116.909502784736389, 47.697918735805786 ], [ -116.908969664867726, 47.697918314128458 ], [ -116.908969508253733, 47.698008290644587 ], [ -116.90856966767231, 47.69800797276018 ], [ -116.908569510369631, 47.698097949273894 ], [ -116.908169669107224, 47.698097629995289 ], [ -116.908169511115872, 47.698187606506579 ], [ -116.907369827236025, 47.698186963767711 ], [ -116.907369667868039, 47.698276940275576 ], [ -116.907236386994825, 47.698276832610283 ], [ -116.90723622739678, 47.698366809116393 ], [ -116.907102946295012, 47.698366701295967 ], [ -116.906969345078352, 47.698546546327336 ], [ -116.904303549406265, 47.698634330794746 ], [ -116.904303714051437, 47.698544354300452 ], [ -116.90270433558868, 47.698543009362012 ], [ -116.902571389305351, 47.698362943293859 ], [ -116.90230482715846, 47.698362716662025 ], [ -116.902304659075256, 47.698452693153875 ], [ -116.901504971278399, 47.698452009540944 ], [ -116.901505140737441, 47.698362033051232 ], [ -116.900972016473247, 47.698361574214658 ], [ -116.900839076617928, 47.698181506138397 ], [ -116.900572515409706, 47.698181275483137 ], [ -116.900572686471378, 47.698091298991692 ], [ -116.900439406097846, 47.698091183432226 ], [ -116.900306468763191, 47.697911114732236 ], [ -116.900039908937444, 47.697910882840738 ], [ -116.899906973436387, 47.697730813673594 ], [ -116.8992405761839, 47.69773023046551 ], [ -116.8992407495344, 47.697640253970604 ], [ -116.898974191097921, 47.697640019604506 ], [ -116.898974364906181, 47.697550043108933 ], [ -116.89870798119766, 47.697459831628109 ], [ -116.898708329727128, 47.697279878631313 ], [ -116.898575051429034, 47.697279760907954 ], [ -116.89844247201485, 47.696919737022142 ], [ -116.89830919463563, 47.696919618990677 ], [ -116.898309369583572, 47.696829642485582 ], [ -116.898042990691863, 47.696739429453196 ], [ -116.898043516903698, 47.69646949992741 ], [ -116.897510411987867, 47.696469025022616 ], [ -116.897510588307227, 47.696379048512682 ], [ -116.897244036312998, 47.696378810132273 ], [ -116.897111114329036, 47.696198737687979 ], [ -116.89657819011039, 47.696108281941925 ], [ -116.896445271106202, 47.695928208720069 ], [ -116.89591217173448, 47.695927726394316 ], [ -116.895912350800018, 47.695837749880361 ], [ -116.895379432341116, 47.695747288565663 ], [ -116.895379612321989, 47.695657312050393 ], [ -116.895246338172569, 47.695657190463976 ], [ -116.895246518381825, 47.695567213947676 ], [ -116.894980151211101, 47.695476993794266 ], [ -116.894980693206634, 47.6952070642349 ], [ -116.89484742020619, 47.695206942186012 ], [ -116.89471450944967, 47.695026866937212 ], [ -116.894447964370244, 47.695026622067068 ], [ -116.894448145948971, 47.69493664554313 ], [ -116.894048329024287, 47.69493627707817 ], [ -116.894048511289924, 47.694846300553991 ], [ -116.893782149859689, 47.694756077612695 ], [ -116.893782698024125, 47.694486148029661 ], [ -116.893516155708298, 47.694485900997179 ], [ -116.893516338886513, 47.694395924467422 ], [ -116.893249797032738, 47.694395676816598 ], [ -116.893249980668571, 47.694305700286229 ], [ -116.892716897888832, 47.694305203128735 ], [ -116.892716713335957, 47.694395179657562 ], [ -116.892450171492968, 47.694394930149357 ], [ -116.892449986480685, 47.694484906675982 ], [ -116.892316715331276, 47.694484781689312 ], [ -116.892183073238471, 47.694664609595293 ], [ -116.891383443615325, 47.694663855491477 ], [ -116.891383256766261, 47.694753832010704 ], [ -116.890983441279161, 47.694753452868028 ], [ -116.890983253741396, 47.694843429384647 ], [ -116.88858435686582, 47.694841125267466 ], [ -116.888584548530304, 47.694751148758073 ], [ -116.88831800491009, 47.694750889650194 ], [ -116.888318197032149, 47.69466091314019 ], [ -116.888051846453877, 47.694570676903382 ], [ -116.888052231610374, 47.694390723877916 ], [ -116.887918960720583, 47.694390593783872 ], [ -116.887919153526695, 47.69430061726942 ], [ -116.887785882867092, 47.694300487021003 ], [ -116.887652998734836, 47.694120403586261 ], [ -116.887119917943693, 47.694119880428936 ], [ -116.887120112122489, 47.694029903912678 ], [ -116.886720302226806, 47.694029509920732 ], [ -116.886720107360219, 47.694119486435753 ], [ -116.885387208317184, 47.694208139573924 ], [ -116.885387405477246, 47.694118163064466 ], [ -116.885120865112142, 47.694117896532866 ], [ -116.885121062729752, 47.69402792002284 ], [ -116.884321642025213, 47.693937140206877 ], [ -116.884187973864627, 47.694116958796684 ], [ -116.883921433516889, 47.694116689479038 ], [ -116.883921233835053, 47.694206665983877 ], [ -116.883787963433392, 47.694206531092476 ], [ -116.883787763521298, 47.694296507595475 ], [ -116.883521222262416, 47.694296237347459 ], [ -116.883521021890857, 47.69438621384819 ], [ -116.882588125910686, 47.694385263101601 ], [ -116.882587923933357, 47.694475239597928 ], [ -116.881655026396587, 47.694474281264071 ], [ -116.881654822813445, 47.694564257755985 ], [ -116.879789024676441, 47.694562318329332 ], [ -116.87978881788267, 47.694652294813757 ], [ -116.87952227484918, 47.694652015275416 ], [ -116.8795220675959, 47.694741991757539 ], [ -116.878855708883592, 47.694741290200824 ], [ -116.878855500482985, 47.694831266679316 ], [ -116.877389508883496, 47.694829709628777 ], [ -116.877389719805976, 47.694739733155153 ], [ -116.876456817730286, 47.694738732556608 ], [ -116.876457030256589, 47.694648756084696 ], [ -116.876190487274215, 47.694648468807245 ], [ -116.876190274289414, 47.694738445278261 ], [ -116.876323546009331, 47.694738588994824 ], [ -116.87632312049513, 47.69491854193349 ], [ -116.876456392674626, 47.694918685496155 ], [ -116.876455330017336, 47.695368567820246 ], [ -116.876322056691521, 47.695368424255307 ], [ -116.876321418396913, 47.695638353631381 ], [ -116.876188144384301, 47.695638209910314 ], [ -116.876187718390867, 47.695818162819691 ], [ -116.876054443920751, 47.695818018942937 ], [ -116.876054230693185, 47.695907995395061 ], [ -116.875920955994843, 47.69590785136306 ], [ -116.875920742536962, 47.695997827813308 ], [ -116.87578746761038, 47.695997683626068 ], [ -116.875787253922198, 47.696087660074447 ], [ -116.875653978767374, 47.696087515731953 ], [ -116.875653764848863, 47.696177492178471 ], [ -116.875520489465814, 47.696177347680745 ], [ -116.875520275316987, 47.69626732412538 ], [ -116.875386999705697, 47.696267179472407 ], [ -116.87538678532654, 47.69635715591518 ], [ -116.87525350948701, 47.696357011106961 ], [ -116.87525329487751, 47.696446987547851 ], [ -116.875120018809753, 47.696446842584386 ], [ -116.875119803969952, 47.696536819023407 ], [ -116.874986527673954, 47.69653667390471 ], [ -116.874986312603824, 47.696626650341862 ], [ -116.874719544026647, 47.696716336073976 ], [ -116.874585404228526, 47.69707609621323 ], [ -116.874318632671674, 47.697165781003562 ], [ -116.874317767769625, 47.697525686694775 ], [ -116.874184488957724, 47.697525540642289 ], [ -116.874183406660009, 47.697975422722095 ], [ -116.874050126702684, 47.697975276512523 ], [ -116.874049476623483, 47.698245205742012 ], [ -116.873916195979319, 47.698245059376262 ], [ -116.873915762129286, 47.698425012187911 ], [ -116.873782481027575, 47.698424865666446 ], [ -116.873782263871661, 47.698514842069685 ], [ -116.873648982541695, 47.698514695392944 ], [ -116.873515265980558, 47.698694501361786 ], [ -116.873248702408659, 47.698694207232457 ], [ -116.87324848433235, 47.698784183629598 ], [ -116.872981920306074, 47.698783888880129 ], [ -116.872981701770087, 47.698873865274933 ], [ -116.872715137289461, 47.698873569905309 ], [ -116.872714918293767, 47.698963546297762 ], [ -116.870582398934062, 47.698961161041467 ], [ -116.870582621598771, 47.698871184656497 ], [ -116.870182774937533, 47.698870733010402 ], [ -116.870182998289081, 47.698780756625411 ], [ -116.869916434312302, 47.698780454754946 ], [ -116.869916658121397, 47.698690478369485 ], [ -116.869783376363955, 47.698690327202513 ], [ -116.869783600401263, 47.698600350816115 ], [ -116.869650318874221, 47.698600199494813 ], [ -116.869517486336818, 47.698420095243549 ], [ -116.869117643141394, 47.698419639889266 ], [ -116.869117868321965, 47.698329663500999 ], [ -116.86885130665577, 47.698329359158421 ], [ -116.868851532293831, 47.698239382769671 ], [ -116.868584971090655, 47.69823907780885 ], [ -116.868585197186235, 47.698149101419638 ], [ -116.868185356077603, 47.698148642818822 ], [ -116.868052529732537, 47.697968536863449 ], [ -116.867785969918415, 47.697968230047891 ], [ -116.867786197386508, 47.697878253657308 ], [ -116.8672533070729, 47.697787661780438 ], [ -116.867253535455959, 47.697697685388952 ], [ -116.867120256242885, 47.697697531131226 ], [ -116.867120484854127, 47.697607554738802 ], [ -116.866853926889917, 47.697607245759912 ], [ -116.8667211065044, 47.69742713825206 ], [ -116.866454549464081, 47.69742682834633 ], [ -116.866454779218444, 47.697336851952066 ], [ -116.866188222641199, 47.697336541428122 ], [ -116.866055405235372, 47.697156433144102 ], [ -116.865788849582003, 47.69715612169334 ], [ -116.865656034009405, 47.696976012943146 ], [ -116.865389479279941, 47.696975700565567 ], [ -116.865389710862999, 47.696885724168112 ], [ -116.865256433729272, 47.696885567747628 ], [ -116.865256665540485, 47.696795591349236 ], [ -116.865123388637159, 47.696795434774444 ], [ -116.865123620676556, 47.696705458375135 ], [ -116.86499034400363, 47.696705301646034 ], [ -116.864990576271182, 47.696615325245808 ], [ -116.864857299828685, 47.696615168362399 ], [ -116.864857532324379, 47.696525191961236 ], [ -116.864724256112297, 47.696525034923539 ], [ -116.864724488836131, 47.696435058521445 ], [ -116.864591212854464, 47.69643490132944 ], [ -116.864591445806454, 47.696344924926436 ], [ -116.864325127714494, 47.696254633675601 ], [ -116.86432559452993, 47.696074680864442 ], [ -116.864192319468771, 47.696074523210044 ], [ -116.864192786738215, 47.695894570394216 ], [ -116.864059512136762, 47.695894412586007 ], [ -116.863926705718427, 47.695714301803498 ], [ -116.863260335026709, 47.695713509671684 ], [ -116.863260099789926, 47.695803486079683 ], [ -116.86246045362202, 47.695802530410511 ], [ -116.862460217008447, 47.69589250681409 ], [ -116.862193667836493, 47.695892187018401 ], [ -116.862193430763213, 47.695982163419558 ], [ -116.862060155949678, 47.695982003289032 ], [ -116.861926406070182, 47.69616179579976 ], [ -116.861260029732904, 47.696160992046273 ], [ -116.861259791051225, 47.696250968439642 ], [ -116.860726689085212, 47.696250322648623 ], [ -116.860726449485227, 47.696340299038553 ], [ -116.859393450465291, 47.696428650103982 ], [ -116.859393208570168, 47.69651862648599 ], [ -116.858993380079582, 47.696518135869091 ], [ -116.858993137495432, 47.696608112248143 ], [ -116.858593308327642, 47.696607620236577 ], [ -116.858593065054478, 47.696697596612658 ], [ -116.857926681985447, 47.696696773494942 ], [ -116.857926437564629, 47.696786749867051 ], [ -116.85752660704965, 47.696786254137351 ], [ -116.857526361939819, 47.696876230506462 ], [ -116.857126530747706, 47.696875733382079 ], [ -116.857126284948791, 47.696965709748213 ], [ -116.856592929075006, 47.697055021109144 ], [ -116.856592682356549, 47.697144997470367 ], [ -116.856459404611854, 47.697144830831903 ], [ -116.856459157662897, 47.69723480719118 ], [ -116.85632587969009, 47.697234640397397 ], [ -116.856192106899826, 47.697414426161046 ], [ -116.855125879501855, 47.697413084991396 ], [ -116.855125630256367, 47.69750306134118 ], [ -116.8541926797418, 47.697501879687202 ], [ -116.854192930592362, 47.697411903341134 ], [ -116.853926373772055, 47.697411564333613 ], [ -116.853926122462894, 47.697501540678616 ], [ -116.853259729287089, 47.697500690448187 ], [ -116.85325947683026, 47.697590666789104 ], [ -116.851660130582445, 47.697588610440327 ], [ -116.851660385790808, 47.697498634105841 ], [ -116.850460878285944, 47.697497077220767 ], [ -116.850460621013909, 47.697587053550372 ], [ -116.848328159809881, 47.697584254786499 ], [ -116.848328420750633, 47.697494278465655 ], [ -116.848195142165423, 47.697494102227679 ], [ -116.848194880995365, 47.697584078547976 ], [ -116.848061602182156, 47.697583902154655 ], [ -116.84792780010909, 47.697763678240626 ], [ -116.847394683039667, 47.697762970495759 ], [ -116.847394420490019, 47.69785294680846 ], [ -116.84672802303551, 47.697852058641608 ], [ -116.84672775933808, 47.69794203495011 ], [ -116.84646119990667, 47.697941678598674 ], [ -116.846460935749377, 47.698031654904625 ], [ -116.845927550908982, 47.698120916644214 ], [ -116.845927285831877, 47.698210892945099 ], [ -116.845660459503137, 47.698300511031036 ], [ -116.845659928425277, 47.698480463623468 ], [ -116.845526647343434, 47.698480284283377 ], [ -116.845392834262597, 47.69866005737299 ], [ -116.845126271188136, 47.698659697916547 ], [ -116.845126004727447, 47.698749674205558 ], [ -116.844726159437556, 47.698749133858172 ], [ -116.844725892287656, 47.698839110144064 ], [ -116.844192764335446, 47.698838387511366 ], [ -116.844192496266984, 47.69892836379357 ], [ -116.843526085209533, 47.698927457016765 ], [ -116.843526354424554, 47.698837480737417 ], [ -116.843259790469389, 47.698837116944205 ], [ -116.843260060141716, 47.698747140664558 ], [ -116.842993496650394, 47.698746776253266 ], [ -116.84299376678004, 47.69865679997335 ], [ -116.842327359221358, 47.698655886238932 ], [ -116.842327087945179, 47.698745862515992 ], [ -116.840461143746694, 47.698743283462719 ], [ -116.84046141823319, 47.698653307193752 ], [ -116.839128603401875, 47.698651446442256 ], [ -116.839128880180141, 47.698561470177694 ], [ -116.838195911483481, 47.698560158444984 ], [ -116.838196189865528, 47.698470182183115 ], [ -116.837529784840839, 47.698469240590043 ], [ -116.837530064368053, 47.698379264329709 ], [ -116.836997221733071, 47.698288532011802 ], [ -116.836997502174768, 47.698198555750992 ], [ -116.836864221867273, 47.698198366350553 ], [ -116.836864502536898, 47.698108390088919 ], [ -116.836597942384628, 47.698108010824811 ], [ -116.836598223511487, 47.698018034562956 ], [ -116.835798826964634, 47.697926916799311 ], [ -116.83579910946456, 47.697836940538174 ], [ -116.835665830086626, 47.697836749746926 ], [ -116.835666112814451, 47.69774677348498 ], [ -116.835532833667173, 47.69774658253953 ], [ -116.835533116622926, 47.697656606276773 ], [ -116.835399837706333, 47.697656415177107 ], [ -116.835400120890029, 47.697566438913519 ], [ -116.835266842204078, 47.697566247659665 ], [ -116.835134130799929, 47.697386103721982 ], [ -116.83473429613035, 47.697385528570848 ], [ -116.834734580456342, 47.697295552306002 ], [ -116.834468024475456, 47.697295168099139 ], [ -116.834468309258654, 47.697205191834072 ], [ -116.834068475985589, 47.697204614364601 ], [ -116.834068761455256, 47.697114638099954 ], [ -116.833668928882588, 47.697114059239141 ], [ -116.833669215038739, 47.69702408297487 ], [ -116.833402660455846, 47.697023696294906 ], [ -116.83340294706916, 47.696933720030422 ], [ -116.832869838837254, 47.696932944815401 ], [ -116.832870126366316, 47.696842968551934 ], [ -116.83247029589495, 47.696842385517158 ], [ -116.832470584110496, 47.696752409254103 ], [ -116.83193747775212, 47.696751629709738 ], [ -116.831937766883371, 47.696661653447698 ], [ -116.831671214171195, 47.696661262747988 ], [ -116.83167092458136, 47.696751239008798 ], [ -116.831137818256821, 47.69675045574941 ], [ -116.83113723723865, 47.696930408261863 ], [ -116.831003960202466, 47.696930212058795 ], [ -116.830870101226708, 47.697109968205275 ], [ -116.830470268755221, 47.697109378199251 ], [ -116.830469977094751, 47.697199354447427 ], [ -116.829803588524229, 47.69719836800509 ], [ -116.829803881331159, 47.697108391760004 ], [ -116.829537326371508, 47.697107996100755 ], [ -116.829403461902785, 47.697287750523962 ], [ -116.828337238464229, 47.697286160446815 ], [ -116.828337533794752, 47.697196184209993 ], [ -116.827138034600026, 47.697194383536996 ], [ -116.827138331992757, 47.697104407304401 ], [ -116.826072411644631, 47.6970128199562 ], [ -116.826072710868758, 47.696922843725808 ], [ -116.825672879928362, 47.696922237005786 ], [ -116.825673179838873, 47.696832260775892 ], [ -116.825406626344488, 47.696831855523179 ], [ -116.825406325975422, 47.696921831751816 ], [ -116.825139772028308, 47.696921425878671 ], [ -116.825139471199208, 47.697011402104621 ], [ -116.822873758988436, 47.697007927172841 ], [ -116.822741091723927, 47.696827768941695 ], [ -116.822341261581855, 47.696827150614126 ], [ -116.822341567223006, 47.696737174398798 ], [ -116.822075014260975, 47.696736761407742 ], [ -116.822075320359176, 47.696646785192307 ], [ -116.821675491615153, 47.696646164546728 ], [ -116.821675798399752, 47.696556188331812 ], [ -116.821542522383993, 47.696555981141017 ], [ -116.821542829396378, 47.696466004925327 ], [ -116.821276277827934, 47.69646559008067 ], [ -116.821276585297369, 47.696375613864866 ], [ -116.820876758643806, 47.696374990438891 ], [ -116.820877066799582, 47.696285014223619 ], [ -116.820344274604309, 47.696194204610471 ], [ -116.820344583674199, 47.696104228394972 ], [ -116.820211308819836, 47.696104019659536 ], [ -116.820211618117497, 47.696014043443263 ], [ -116.820078343493918, 47.696013834553696 ], [ -116.820078653019337, 47.695923858336677 ], [ -116.819945378626556, 47.695923649292979 ], [ -116.819945688379732, 47.695833673075185 ], [ -116.819812414217736, 47.695833463877342 ], [ -116.81981272419867, 47.695743487658788 ], [ -116.819679450267444, 47.695743278306821 ], [ -116.819679760476163, 47.6956533020875 ], [ -116.819546486775693, 47.695653092581409 ], [ -116.819546797212155, 47.695563116361328 ], [ -116.819413523742497, 47.695562906701106 ], [ -116.819413834406717, 47.695472930480257 ], [ -116.819280561167844, 47.695472720665897 ], [ -116.819147910171438, 47.695292558253442 ], [ -116.818348273530319, 47.695291295196022 ], [ -116.818348586024115, 47.695201318976189 ], [ -116.818082040947772, 47.695200896720102 ], [ -116.818082353898575, 47.695110920500177 ], [ -116.817549578547542, 47.695020097914544 ], [ -116.817416934662887, 47.694839933496205 ], [ -116.817150391441999, 47.694839509078456 ], [ -116.817017749389905, 47.694659344195422 ], [ -116.816751207095237, 47.694658918851637 ], [ -116.816751522329483, 47.694568942629843 ], [ -116.816618251413715, 47.694568729726448 ], [ -116.816618566875647, 47.694478753503901 ], [ -116.816485296190692, 47.694478540446397 ], [ -116.816485611880353, 47.694388564223104 ], [ -116.816352341426168, 47.69438835101149 ], [ -116.816352657343572, 47.694298374787437 ], [ -116.816219387120171, 47.694298161421706 ], [ -116.816219703265261, 47.694208185196914 ], [ -116.816086433272673, 47.694207971677073 ], [ -116.816086749645478, 47.694117995451514 ], [ -116.815953479883675, 47.694117781777585 ], [ -116.81595379648418, 47.694027805551265 ], [ -116.815820526953175, 47.694027591723213 ], [ -116.81582084378141, 47.693937615496175 ], [ -116.815554622467687, 47.693847211149944 ], [ -116.815555257033409, 47.693667258691427 ], [ -116.815421988424035, 47.693667044401742 ], [ -116.815422305933808, 47.693577068171017 ], [ -116.815289037555203, 47.693576853727222 ], [ -116.815289355292705, 47.693486877495765 ], [ -116.815156087144871, 47.693486662897854 ], [ -116.815156405110059, 47.693396686665643 ], [ -116.814890187699675, 47.693306280774571 ], [ -116.814890824539262, 47.693126328305738 ], [ -116.81422448842379, 47.693125251460344 ], [ -116.814224807987443, 47.693035275227174 ], [ -116.814091540998234, 47.693035059394461 ], [ -116.814091860789574, 47.692945083160552 ], [ -116.813958594031163, 47.692944867173736 ], [ -116.813825967769276, 47.692764698562776 ], [ -116.8132929025914, 47.692763832454141 ], [ -116.813293223753448, 47.692673856220047 ], [ -116.813026691632345, 47.692673422238457 ], [ -116.8130270132513, 47.692583446004306 ], [ -116.812893747422365, 47.692583228782027 ], [ -116.812894069268978, 47.692493252547131 ], [ -116.812627860377717, 47.692402841404693 ], [ -116.812628504980069, 47.692222888930537 ], [ -116.812362297924196, 47.692132477170233 ], [ -116.812362943434024, 47.691952524690286 ], [ -116.81209673821354, 47.691862112312116 ], [ -116.812097384630789, 47.691682159826371 ], [ -116.811964121105078, 47.691681941527563 ], [ -116.811965091406847, 47.691412012790366 ], [ -116.811831828570377, 47.691411794338833 ], [ -116.811832152230352, 47.691321818090948 ], [ -116.811698889624665, 47.691321599485349 ], [ -116.81169921351227, 47.691231623236732 ], [ -116.811565951137382, 47.691231404477051 ], [ -116.811566275252659, 47.691141428227695 ], [ -116.811433013108541, 47.691141209313933 ], [ -116.811433337451433, 47.691051233063845 ], [ -116.811167138426129, 47.690960818523294 ], [ -116.811167788020867, 47.690780866018763 ], [ -116.811034526798352, 47.690780646643468 ], [ -116.811034851822541, 47.69069067038977 ], [ -116.810768655321709, 47.690600254922522 ], [ -116.810769306279042, 47.690420302410772 ], [ -116.81050278567875, 47.690419862582381 ], [ -116.810503111613443, 47.690329886325756 ], [ -116.810369851544863, 47.690329666180119 ], [ -116.810237244259326, 47.690149493364956 ], [ -116.809837465443138, 47.690148831539361 ], [ -116.80983779251909, 47.690058855281926 ], [ -116.809704533146061, 47.690058634364583 ], [ -116.80970420584093, 47.690148610621307 ], [ -116.808638129080748, 47.690146837705704 ], [ -116.808505528227215, 47.689966662892459 ], [ -116.807972822007088, 47.68987579585653 ], [ -116.807973152287005, 47.689785819604573 ], [ -116.807706965699296, 47.689695397034164 ], [ -116.80770861935865, 47.689245515752994 ], [ -116.807575362074033, 47.68924529236584 ], [ -116.807575693030259, 47.689155316106053 ], [ -116.807442435976441, 47.689155092564853 ], [ -116.807309841748591, 47.688974916347853 ], [ -116.807043328565769, 47.688974468494507 ], [ -116.807043660433905, 47.688884492233264 ], [ -116.806777480040822, 47.688794067501057 ], [ -116.806778477005764, 47.688524138708758 ], [ -116.806645221565944, 47.68852391424398 ], [ -116.806645554113544, 47.688433937977734 ], [ -116.806512298904494, 47.688433713358911 ], [ -116.806379709704132, 47.688253536051434 ], [ -116.806113200210888, 47.688253086042863 ], [ -116.806113533670342, 47.688163109775182 ], [ -116.805980279155349, 47.688162884539487 ], [ -116.805847692472653, 47.68798270661226 ], [ -116.805581184367483, 47.68798225536996 ], [ -116.805581518738748, 47.687892279100851 ], [ -116.805448264917771, 47.687892053248291 ], [ -116.805448599516566, 47.687802076978478 ], [ -116.805315345926402, 47.68780185097188 ], [ -116.805315680752756, 47.687711874701357 ], [ -116.80518242739339, 47.687711648540734 ], [ -116.805182762447274, 47.687621672269472 ], [ -116.805049509318692, 47.687621445954811 ], [ -116.805049844600134, 47.687531469682874 ], [ -116.804916591702366, 47.687531243214181 ], [ -116.804916927211309, 47.687441266941505 ], [ -116.804783674544339, 47.687441040318781 ], [ -116.804784010280841, 47.687351064045409 ], [ -116.804650757844684, 47.687350837268646 ], [ -116.804651093808715, 47.687260860994563 ], [ -116.804517841603356, 47.687260634063783 ], [ -116.804518177794904, 47.687170657788997 ], [ -116.804384925820329, 47.687170430704178 ], [ -116.804385262239421, 47.687080454428674 ], [ -116.804252010495659, 47.687080227189824 ], [ -116.804252347142253, 47.686990250913624 ], [ -116.804119095629289, 47.68699002352075 ], [ -116.804119432503441, 47.686900047243839 ], [ -116.803986181221262, 47.68689981969694 ], [ -116.803853604600732, 47.686719639440071 ], [ -116.803587102961245, 47.686719183575434 ], [ -116.803587440747094, 47.686629207297116 ], [ -116.803454190158988, 47.68662897913341 ], [ -116.803454528172324, 47.686539002854396 ], [ -116.803188365929373, 47.686448569785178 ], [ -116.80318904286446, 47.686268617222915 ], [ -116.803055793197927, 47.686268388597853 ], [ -116.803056131892134, 47.686178412315293 ], [ -116.802922882456386, 47.686178183536214 ], [ -116.802923221378123, 47.686088207252965 ], [ -116.802789972173173, 47.686087978319875 ], [ -116.802790311322411, 47.685998002035923 ], [ -116.802524152981618, 47.685907567423023 ], [ -116.802524832188411, 47.68572761485089 ], [ -116.802391583905006, 47.685727385456467 ], [ -116.80225901574002, 47.685547203332384 ], [ -116.802125767918227, 47.68554697362994 ], [ -116.802125427631523, 47.685636949917402 ], [ -116.801858931534596, 47.685636490046868 ], [ -116.801858590787958, 47.685726466331467 ], [ -116.801592094239396, 47.685726005840579 ], [ -116.801591753032795, 47.685815982122307 ], [ -116.80132525603257, 47.685815521011037 ], [ -116.801191323741904, 47.685995242778176 ], [ -116.800924825835068, 47.685994780735612 ], [ -116.800924483477743, 47.686084757009475 ], [ -116.800391143491908, 47.686173807334171 ], [ -116.800257207074864, 47.686353527993774 ], [ -116.799990707358177, 47.686353063779116 ], [ -116.799990363390123, 47.686443040042214 ], [ -116.799457018173925, 47.68653208601193 ], [ -116.799323077630405, 47.686711805563895 ], [ -116.799056576103993, 47.686711339177087 ], [ -116.799055884944522, 47.686891291680304 ], [ -116.799189136165225, 47.686891524952543 ], [ -116.799188790812124, 47.686981501202752 ], [ -116.799322042263668, 47.686981734320973 ], [ -116.799321697138041, 47.687071710570486 ], [ -116.799587855835512, 47.687162152593736 ], [ -116.799587166492557, 47.687342105088582 ], [ -116.799853671240683, 47.687342570247694 ], [ -116.799853327025033, 47.687432546494463 ], [ -116.799986579630755, 47.687432778842627 ], [ -116.799986235642592, 47.687522755088686 ], [ -116.800252741317436, 47.687523219322259 ], [ -116.800385307551025, 47.687703403699167 ], [ -116.800651814152573, 47.68770386700718 ], [ -116.800651471305216, 47.687793843252621 ], [ -116.8009179783718, 47.687794305943108 ], [ -116.800917635981151, 47.687884282188584 ], [ -116.801184143512714, 47.687884744261545 ], [ -116.801183801578716, 47.68797472050705 ], [ -116.802116579595875, 47.687976332893072 ], [ -116.802116239264464, 47.688066309142194 ], [ -116.802382747742627, 47.688066768432641 ], [ -116.802382407867881, 47.688156744681791 ], [ -116.802648916811037, 47.688157203354713 ], [ -116.802648577393015, 47.688247179603884 ], [ -116.802915086801121, 47.688247637659252 ], [ -116.802914747839779, 47.688337613908423 ], [ -116.803181257712865, 47.688338071346251 ], [ -116.803180919208202, 47.688428047595437 ], [ -116.803447429546225, 47.688428504415704 ], [ -116.803447091498327, 47.688518480664911 ], [ -116.803713602301301, 47.688518936867617 ], [ -116.803713264710098, 47.688608913116838 ], [ -116.803979775977993, 47.688609368701975 ], [ -116.803979438843513, 47.688699344951196 ], [ -116.804245950576345, 47.688699799918773 ], [ -116.804245613898587, 47.688789776168008 ], [ -116.804512126096341, 47.688790230518016 ], [ -116.80451178987532, 47.688880206767251 ], [ -116.804778302537997, 47.688880660499677 ], [ -116.804777966773713, 47.688970636748905 ], [ -116.805044479901312, 47.68897108986377 ], [ -116.805044144593751, 47.689061066112991 ], [ -116.80557683739282, 47.689151946739187 ], [ -116.805576502998747, 47.689241922988415 ], [ -116.805709760259091, 47.689242148696849 ], [ -116.805709426092591, 47.689332124945366 ], [ -116.805975941076483, 47.689332575899371 ], [ -116.805975607366761, 47.689422552147882 ], [ -116.806108865090337, 47.689422777393467 ], [ -116.806241456307959, 47.689602954979875 ], [ -116.806507972680023, 47.689603404700094 ], [ -116.80650763988217, 47.689693380947183 ], [ -116.806640898299847, 47.689693605575862 ], [ -116.806640565729566, 47.689783581822226 ], [ -116.806773824378041, 47.689783806296852 ], [ -116.806906418799528, 47.689963983108008 ], [ -116.807172937021363, 47.689964431286299 ], [ -116.807172605363036, 47.690054407531214 ], [ -116.807439124049708, 47.690054855091894 ], [ -116.807438792848174, 47.690144831336788 ], [ -116.807705311999712, 47.690145278279836 ], [ -116.807704981254957, 47.690235254524723 ], [ -116.808237690664583, 47.690326122802801 ], [ -116.808237360833431, 47.690416099047646 ], [ -116.808370621105666, 47.690416321670092 ], [ -116.808370291502115, 47.690506297914212 ], [ -116.808636812509775, 47.69050674269625 ], [ -116.808636483363031, 47.690596718940341 ], [ -116.808769744098456, 47.690596941099919 ], [ -116.808902347454037, 47.690777115591438 ], [ -116.809435064475579, 47.690867978312674 ], [ -116.809434736697668, 47.690957954555259 ], [ -116.809567998359555, 47.690958175789056 ], [ -116.809567670809258, 47.691048152030902 ], [ -116.809700932701958, 47.69104837311064 ], [ -116.809700605379291, 47.691138349351768 ], [ -116.809833867502761, 47.691138570277417 ], [ -116.809833540407723, 47.691228546517827 ], [ -116.809966802762034, 47.691228767289424 ], [ -116.809966475894598, 47.691318743529081 ], [ -116.810099738479707, 47.691318964146603 ], [ -116.81023234824363, 47.691499137087206 ], [ -116.810632137388552, 47.691499797551046 ], [ -116.810631811662446, 47.691589773789907 ], [ -116.810765074943134, 47.691589993635681 ], [ -116.810764749444658, 47.691679969873817 ], [ -116.810898012956159, 47.691680189565517 ], [ -116.810897687685326, 47.691770165802915 ], [ -116.811030951427625, 47.69177038534054 ], [ -116.811030626384436, 47.691860361577213 ], [ -116.811163890357534, 47.69186058096075 ], [ -116.811296505157983, 47.692040752661363 ], [ -116.811696298466885, 47.692041409423211 ], [ -116.811695974565055, 47.69213138565906 ], [ -116.811829239233731, 47.692131604270834 ], [ -116.811828915559573, 47.692221580505944 ], [ -116.811962180459062, 47.692221798963629 ], [ -116.81196185701252, 47.692311775198 ], [ -116.812095122142821, 47.692311993501605 ], [ -116.812094798923965, 47.692401969735236 ], [ -116.812361006885709, 47.692492382113088 ], [ -116.812360361357051, 47.692672334576017 ], [ -116.812493627408955, 47.692672552418045 ], [ -116.812493304871509, 47.692762528648053 ], [ -116.812626571154226, 47.692762746335994 ], [ -116.812626248844424, 47.692852722565263 ], [ -116.812759515357953, 47.692852940099122 ], [ -116.812759193275824, 47.692942916327667 ], [ -116.812892460020166, 47.692943133707423 ], [ -116.812892138165708, 47.693033109935222 ], [ -116.813025405140849, 47.69303332716089 ], [ -116.813025083514049, 47.693123303387949 ], [ -116.813158350720002, 47.69312352045953 ], [ -116.813158029320874, 47.69321349668585 ], [ -116.813291296757612, 47.693213713603342 ], [ -116.813290975586156, 47.693303689828916 ], [ -116.813424243253721, 47.693303906592313 ], [ -116.813423922309951, 47.693393882817155 ], [ -116.8135571902083, 47.693394099426456 ], [ -116.813556869492203, 47.693484075650559 ], [ -116.813690137621379, 47.693484292105751 ], [ -116.813689817132968, 47.693574268329108 ], [ -116.813823085492913, 47.693574484630219 ], [ -116.813955713789923, 47.69375465322171 ], [ -116.814222251434614, 47.693755085052757 ], [ -116.814221931858512, 47.693845061274558 ], [ -116.814488469967941, 47.693845492487867 ], [ -116.814621101243603, 47.694025660305748 ], [ -116.814887640279323, 47.69402609059307 ], [ -116.815020273387418, 47.694206257946348 ], [ -116.815286813349459, 47.694206687307705 ], [ -116.815286495599594, 47.694296663527801 ], [ -116.815419765812194, 47.694296877976988 ], [ -116.815419448290029, 47.694386854196352 ], [ -116.8155527187334, 47.694387068491423 ], [ -116.81555240143895, 47.694477044710027 ], [ -116.815818625951394, 47.694567449055711 ], [ -116.815817992271803, 47.694747401488527 ], [ -116.815951263636848, 47.694747615321937 ], [ -116.815950947024007, 47.694837591536881 ], [ -116.816084218619849, 47.694837805216189 ], [ -116.816216857903953, 47.695017971169008 ], [ -116.81661667408089, 47.695018610817897 ], [ -116.81661635860975, 47.695108587031932 ], [ -116.816749630901072, 47.69510879993932 ], [ -116.816749315657617, 47.695198776152594 ], [ -116.816882588179752, 47.695198988905872 ], [ -116.816882273164055, 47.695288965118408 ], [ -116.817015545916959, 47.695289177717569 ], [ -116.817015231128991, 47.695379153929338 ], [ -116.817148504112708, 47.695379366374382 ], [ -116.817281148434475, 47.695559531086587 ], [ -116.817547695326638, 47.695559955205404 ], [ -116.817547381451135, 47.695649931415581 ], [ -116.817813928807965, 47.695650354916573 ], [ -116.817813615389454, 47.695740331126665 ], [ -116.818213437123958, 47.695740965219251 ], [ -116.818213124391747, 47.695830941429897 ], [ -116.818346398535567, 47.695831152485184 ], [ -116.818479048129021, 47.696011315805379 ], [ -116.819012146559757, 47.696012157864772 ], [ -116.819011835198637, 47.696102134075126 ], [ -116.8191451100394, 47.696102344203652 ], [ -116.819277763071966, 47.696282506596468 ], [ -116.819810864290361, 47.696283344948824 ], [ -116.819810554300375, 47.696373321158866 ], [ -116.819943829838024, 47.696373530360638 ], [ -116.819943520075796, 47.696463506569913 ], [ -116.820076795844244, 47.696463715617547 ], [ -116.820209453002334, 47.696643876927304 ], [ -116.820476005463874, 47.696644294251236 ], [ -116.820475696614253, 47.696734270458876 ], [ -116.821008494538518, 47.696825079460666 ], [ -116.821008186603038, 47.696915055668065 ], [ -116.821141463529941, 47.696915263480626 ], [ -116.821274125499968, 47.697095423551573 ], [ -116.821540680278375, 47.697095838405332 ], [ -116.821540373255544, 47.697185814611075 ], [ -116.821673650876278, 47.697186021806417 ], [ -116.821673344081248, 47.697275998011406 ], [ -116.821806621932765, 47.697276205052582 ], [ -116.821806315365507, 47.697366181256804 ], [ -116.821939593447809, 47.697366388143855 ], [ -116.821939287108378, 47.697456364347282 ], [ -116.822072565421465, 47.697456571080181 ], [ -116.82207225930982, 47.697546547282855 ], [ -116.822205537853677, 47.697546753861602 ], [ -116.822338205088471, 47.69772691268922 ], [ -116.824603948382446, 47.697730398234363 ], [ -116.824603646622961, 47.697820374444987 ], [ -116.824736925882831, 47.69782057808451 ], [ -116.824737227413038, 47.697730601873253 ], [ -116.826070017799339, 47.697732629748245 ], [ -116.826069718562124, 47.697822605965875 ], [ -116.827802349262868, 47.697825219069287 ], [ -116.827802053005058, 47.697915195293675 ], [ -116.829534686930501, 47.697917782244303 ], [ -116.829534393652139, 47.698007758475384 ], [ -116.831000471223064, 47.698009927006936 ], [ -116.831000180465551, 47.698099903243396 ], [ -116.832199700669335, 47.698101663570057 ], [ -116.832199411974145, 47.698191639810616 ], [ -116.834065050241037, 47.698284329429896 ], [ -116.834064764753307, 47.698374305676104 ], [ -116.834331326228991, 47.698374690826235 ], [ -116.834331041198467, 47.698464667072244 ], [ -116.834597603138349, 47.698465051604366 ], [ -116.83459788771026, 47.698375075357156 ], [ -116.835664133690656, 47.698376607288779 ], [ -116.835663850953168, 47.698466583540792 ], [ -116.836729817951721, 47.698558081825269 ], [ -116.83672953704594, 47.698648058079208 ], [ -116.836996099952614, 47.698648437040838 ], [ -116.836995819504097, 47.698738413294549 ], [ -116.837395664562266, 47.698738980577751 ], [ -116.837395384800317, 47.698828956831811 ], [ -116.838194797941796, 47.698920063478255 ], [ -116.838194519552985, 47.699010039733039 ], [ -116.838461084324067, 47.699010415293721 ], [ -116.838460806392519, 47.699100391548242 ], [ -116.838993936868178, 47.699101140814285 ], [ -116.838993659852534, 47.699191117069731 ], [ -116.839526515167307, 47.699281840117607 ], [ -116.839526239066231, 47.699371816372576 ], [ -116.839659522381865, 47.699372002684598 ], [ -116.839792254409929, 47.69955214134982 ], [ -116.840058821965158, 47.699552513202164 ], [ -116.840191555826408, 47.699732651401945 ], [ -116.840458124306949, 47.69973302232777 ], [ -116.840457849804423, 47.699822998579705 ], [ -116.840857703223222, 47.699823553809118 ], [ -116.840857429407336, 47.699913530061394 ], [ -116.840990714112266, 47.699913714828817 ], [ -116.841123452099993, 47.700093851944018 ], [ -116.841523307602714, 47.700094404856486 ], [ -116.841523034929438, 47.700184381107391 ], [ -116.842056176535621, 47.700185116158963 ], [ -116.842055904778334, 47.700275092410749 ], [ -116.843122189888774, 47.700276555087527 ], [ -116.843122459811454, 47.700186578831165 ], [ -116.84325574522687, 47.700186760968528 ], [ -116.843256014918893, 47.700096784710183 ], [ -116.843522585294977, 47.700097148519347 ], [ -116.843656408489153, 47.699917377667333 ], [ -116.845122540620395, 47.699919365833416 ], [ -116.845122807097965, 47.699829389562872 ], [ -116.845256091615653, 47.699829569375815 ], [ -116.845256357862581, 47.699739593103274 ], [ -116.845389642152256, 47.699739772760857 ], [ -116.845523458015919, 47.699559999712044 ], [ -116.846056593358114, 47.699560716170517 ], [ -116.846056858225239, 47.699470739890366 ], [ -116.846856823391249, 47.699381833645575 ], [ -116.846857086879908, 47.699291857359206 ], [ -116.847123653198253, 47.699292212798561 ], [ -116.847123916227005, 47.699202236509684 ], [ -116.847657047961832, 47.699202945528491 ], [ -116.847657310072023, 47.699112969235962 ], [ -116.847923875488476, 47.699113322815421 ], [ -116.847924137138762, 47.69902334652037 ], [ -116.848190702101675, 47.699023699479497 ], [ -116.848190963292083, 47.698933723181916 ], [ -116.848457527801457, 47.698934075520732 ], [ -116.84845778853196, 47.698844099220629 ], [ -116.848857634617602, 47.698844626566157 ], [ -116.848857894658906, 47.69875465026297 ], [ -116.848991176460672, 47.698754825734653 ], [ -116.849124977425276, 47.698575048438727 ], [ -116.849391540117921, 47.698575398605882 ], [ -116.849391799238191, 47.698485422296251 ], [ -116.849658361477267, 47.698485771843089 ], [ -116.84965862013766, 47.698395795530956 ], [ -116.850058462817785, 47.698396318688559 ], [ -116.850058720789022, 47.698306342373364 ], [ -116.85165808887065, 47.698308421065114 ], [ -116.851658344088975, 47.698218444741983 ], [ -116.852191465905506, 47.698219132683427 ], [ -116.852191720205383, 47.698129156356721 ], [ -116.853924363264639, 47.698131375053961 ], [ -116.853924111945702, 47.698221351387623 ], [ -116.854723794803391, 47.698222366581284 ], [ -116.85472354485907, 47.698312342916701 ], [ -116.854856825568916, 47.698312511574372 ], [ -116.854857075283959, 47.698222535238422 ], [ -116.855790038681775, 47.698223711503978 ], [ -116.855789790571876, 47.698313687843616 ], [ -116.856056352012203, 47.69831402252732 ], [ -116.856056599663489, 47.698224046186631 ], [ -116.856323160650021, 47.698224380250089 ], [ -116.856323407841501, 47.698134403906941 ], [ -116.85672324864241, 47.698134903839552 ], [ -116.856723495144763, 47.698044927493427 ], [ -116.856990055226092, 47.698045260006786 ], [ -116.856990301268667, 47.697955283658182 ], [ -116.857390140711772, 47.697955781265669 ], [ -116.857390386065234, 47.697865804914088 ], [ -116.858190307584323, 47.697776819590267 ], [ -116.85819055155963, 47.697686843232752 ], [ -116.858457109832841, 47.69768717233638 ], [ -116.858457353348342, 47.697597195976414 ], [ -116.858723911167701, 47.69759752445983 ], [ -116.858724154223424, 47.697507548097406 ], [ -116.858990711588916, 47.697507875960611 ], [ -116.85899095418489, 47.697417899595749 ], [ -116.859257511096502, 47.697418226838721 ], [ -116.859257753232725, 47.697328250471415 ], [ -116.859524309690471, 47.697328577094183 ], [ -116.859524551366903, 47.697238600724447 ], [ -116.860190941385412, 47.697239414569864 ], [ -116.860191181914217, 47.697149438196163 ], [ -116.860324459692151, 47.697149600500353 ], [ -116.860458217608198, 47.696969809896018 ], [ -116.860858049576777, 47.696970295412385 ], [ -116.860858288955626, 47.696880319031877 ], [ -116.86179122865137, 47.696881446482074 ], [ -116.861924980841039, 47.696701654153863 ], [ -116.862724640738051, 47.696702613568 ], [ -116.862724404571509, 47.696792589958392 ], [ -116.862990722629192, 47.696882884915723 ], [ -116.862990251207563, 47.697062837691426 ], [ -116.863123528780534, 47.6970629967444 ], [ -116.863123293297278, 47.697152973130628 ], [ -116.863523126710959, 47.697153449362318 ], [ -116.863523361506338, 47.697063472974605 ], [ -116.864323026988814, 47.697064421255547 ], [ -116.864322793569187, 47.697154397646216 ], [ -116.864855904830733, 47.69715502673958 ], [ -116.864855672327124, 47.69724500313081 ], [ -116.864988950374638, 47.697245160017658 ], [ -116.864988718099156, 47.697335136407958 ], [ -116.865121996377098, 47.69733529314049 ], [ -116.865121764329814, 47.69742526952988 ], [ -116.865255042838172, 47.697425426108111 ], [ -116.865387858166841, 47.697605535308 ], [ -116.865654416106395, 47.697605847692436 ], [ -116.865654184972897, 47.697695824079524 ], [ -116.865920512699489, 47.697786112232379 ], [ -116.865919128619723, 47.698325970522426 ], [ -116.866052409427837, 47.698326126176745 ], [ -116.866052178973248, 47.698416102553949 ], [ -116.866185460011806, 47.69841625805396 ], [ -116.866185229785387, 47.698506234430234 ], [ -116.86645156255554, 47.698596521342644 ], [ -116.866450643468724, 47.698956426831728 ], [ -116.866583925886474, 47.698956581870256 ], [ -116.86658369634128, 47.699046558239466 ], [ -116.866716978989459, 47.699046713123685 ], [ -116.866849803462301, 47.699226820589182 ], [ -116.867516219018697, 47.699227591918913 ], [ -116.867515991075393, 47.699317568287249 ], [ -116.867915841110516, 47.699318029228849 ], [ -116.867915613854038, 47.699408005597235 ], [ -116.868582031747934, 47.699408770739488 ], [ -116.868581805636964, 47.699498747108834 ], [ -116.869781359979157, 47.699500114616299 ], [ -116.869781135930964, 47.699590090988508 ], [ -116.870447556194819, 47.699590845298964 ], [ -116.870447779096409, 47.699500868924382 ], [ -116.87191390124967, 47.699502514779027 ], [ -116.871913680870591, 47.699592491158775 ], [ -116.872180029085968, 47.69968276477276 ], [ -116.872180249007457, 47.699592788393488 ], [ -116.872446817148628, 47.699593085008985 ], [ -116.87244703661041, 47.69950310862739 ], [ -116.872846888142206, 47.699503552388165 ], [ -116.872847106914975, 47.699413576003757 ], [ -116.873380241388318, 47.699414165515634 ], [ -116.873380459242753, 47.699324189127957 ], [ -116.873780309420937, 47.699324629635001 ], [ -116.873780526586359, 47.699234653244531 ], [ -116.873913809751897, 47.699234799770139 ], [ -116.873914026686947, 47.699144823377786 ], [ -116.874047309624203, 47.699144969748133 ], [ -116.87404752632888, 47.699054993353904 ], [ -116.874314307992947, 47.69896530923269 ], [ -116.87431474047979, 47.698785356435316 ], [ -116.874448022502975, 47.698785502339412 ], [ -116.874448454526956, 47.698605549535436 ], [ -116.874715233211049, 47.698515864472363 ], [ -116.874715664311495, 47.698335911658049 ], [ -116.874848945191275, 47.698336057095446 ], [ -116.874849375828916, 47.69815610427456 ], [ -116.874982656251163, 47.698156249556241 ], [ -116.874983086425999, 47.697976296728775 ], [ -116.875116366390671, 47.697976441854749 ], [ -116.875116796102745, 47.697796489020696 ], [ -116.875250075609856, 47.697796633990968 ], [ -116.875384212695195, 47.69743687311766 ], [ -116.875650983813387, 47.697347185853943 ], [ -116.875785116983025, 47.696987424480177 ], [ -116.87605188512147, 47.6968977362747 ], [ -116.876052311598372, 47.69671778340026 ], [ -116.876319077903574, 47.69662809456775 ], [ -116.876319503457125, 47.696448141682986 ], [ -116.876452779534262, 47.696448285253311 ], [ -116.876452992080218, 47.696358308808364 ], [ -116.876586267929099, 47.69635845222345 ], [ -116.876586480244711, 47.69626847577662 ], [ -116.876719755865366, 47.696268619036474 ], [ -116.876853455198088, 47.696088809241829 ], [ -116.877120005527388, 47.696089094985787 ], [ -116.877120216922805, 47.69599911853291 ], [ -116.877653527153953, 47.695909711705468 ], [ -116.877653737630212, 47.695819735247973 ], [ -116.877787012112705, 47.695819877267255 ], [ -116.877920706628572, 47.695640066210757 ], [ -116.878187254681535, 47.695640349473628 ], [ -116.878187464237641, 47.695550373010093 ], [ -116.878720559438733, 47.695550937676622 ], [ -116.878720768076732, 47.695460961209903 ], [ -116.879387135954644, 47.695461663558142 ], [ -116.879386928462992, 47.695551640027055 ], [ -116.880319845139326, 47.695552616816613 ], [ -116.880320051026075, 47.695462640344651 ], [ -116.880853350343358, 47.695373218627921 ], [ -116.880987033179565, 47.695193403974741 ], [ -116.885251766559023, 47.695197747890887 ], [ -116.885251963958908, 47.695107771397446 ], [ -116.888717054595318, 47.69511118411053 ], [ -116.888716863156347, 47.695201160614666 ], [ -116.888983409074811, 47.695201418797893 ], [ -116.889116300530333, 47.695381500663743 ], [ -116.889249573950423, 47.695381629369201 ], [ -116.889249764474172, 47.695291652866295 ], [ -116.890182676835821, 47.695292549467652 ], [ -116.890182487916945, 47.695382525973372 ], [ -116.89298123008551, 47.695385170278705 ], [ -116.892981045980406, 47.695475146791289 ], [ -116.893380867010521, 47.69547551897805 ], [ -116.893380683592326, 47.695565495490378 ], [ -116.89351395750009, 47.695565619243446 ], [ -116.893514140689021, 47.695475642730727 ], [ -116.894580330149012, 47.695476627179843 ], [ -116.894713241583659, 47.695656702570382 ], [ -116.894979789876359, 47.695656946826759 ], [ -116.894979609207638, 47.695746923340884 ], [ -116.895112883584588, 47.695747045237262 ], [ -116.895112703144292, 47.695837021750336 ], [ -116.895379072376727, 47.695927241591932 ], [ -116.895378712408828, 47.696107194612537 ], [ -116.895511987705518, 47.696107316046074 ], [ -116.895644544891027, 47.696467343352047 ], [ -116.895777821106577, 47.696467464477514 ], [ -116.89577764180568, 47.696557440981152 ], [ -116.895910918251388, 47.696557561952218 ], [ -116.895910739178888, 47.696647538454819 ], [ -116.896044015854741, 47.696647659271477 ], [ -116.896043837010652, 47.696737635773033 ], [ -116.896177113916679, 47.696737756435269 ], [ -116.896176935301014, 47.69682773293578 ], [ -116.896443311416292, 47.696917950296488 ], [ -116.896442598775735, 47.697277856281723 ], [ -116.896575877060116, 47.697277976481843 ], [ -116.896576054992252, 47.697187999987293 ], [ -116.897509001402014, 47.697188837051151 ], [ -116.897508825074922, 47.697278813548337 ], [ -116.897642103366195, 47.697278932510073 ], [ -116.897641927267529, 47.697368909006215 ], [ -116.897775205788946, 47.697369027813522 ], [ -116.897775029918733, 47.697459004308627 ], [ -116.897908308670296, 47.697459122961519 ], [ -116.89804123659691, 47.697639194447028 ], [ -116.898307795021509, 47.697639430980296 ], [ -116.898307620065907, 47.697729407472615 ], [ -116.898574178952529, 47.69772964338744 ], [ -116.898574004454645, 47.697819619879084 ], [ -116.898973843478842, 47.697819972591418 ], [ -116.898973669668038, 47.697909949082742 ], [ -116.899106949573763, 47.697910066344299 ], [ -116.899106775991427, 47.698000042834572 ], [ -116.899240056127297, 47.698000159941699 ], [ -116.899239882773415, 47.698090136430928 ], [ -116.899373163139416, 47.698090253383604 ], [ -116.899372990014001, 47.698180229871781 ], [ -116.899506270610146, 47.698180346670028 ], [ -116.899506097713186, 47.698270323157146 ], [ -116.899639378539518, 47.698270439800964 ], [ -116.899639205870997, 47.698360416287038 ], [ -116.899772486927475, 47.698360532776412 ], [ -116.899772314487421, 47.698450509261427 ], [ -116.89990559577403, 47.698450625596358 ], [ -116.900038533096136, 47.698630694743741 ], [ -116.900971505341957, 47.698631503675244 ], [ -116.900971334963202, 47.698721480159271 ], [ -116.901237898928088, 47.698721709890044 ], [ -116.901237729007136, 47.698811686373375 ], [ -116.901504293433973, 47.698811915485642 ], [ -116.901504123970824, 47.698901891968291 ], [ -116.901770688859571, 47.698902120462044 ], [ -116.90177051985421, 47.698992096943975 ], [ -116.90203708520491, 47.69899232481923 ], [ -116.902036916657352, 47.699082301300464 ], [ -116.902170199563258, 47.699082415006238 ], [ -116.902170367881496, 47.698992438524648 ], [ -116.904702738890961, 47.698994569514532 ], [ -116.904702574929701, 47.699084546002787 ], [ -116.90670181884407, 47.699086188892814 ], [ -116.906701979365593, 47.698996212399415 ], [ -116.907235110188708, 47.698996644619413 ], [ -116.907235269792167, 47.69890666812325 ], [ -116.908834659584045, 47.698907949917867 ], [ -116.908834502732319, 47.698997926418059 ], [ -116.90976748176702, 47.698998663839319 ], [ -116.90976763701353, 47.698908687336825 ], [ -116.910300921318424, 47.698819128808132 ], [ -116.91030107564616, 47.698729152301475 ], [ -116.910434357683513, 47.698729256407937 ], [ -116.910567947457636, 47.698549407340735 ], [ -116.911367636950189, 47.698550027795939 ], [ -116.911501223057599, 47.698370177634253 ], [ -116.912034347569346, 47.698370587553178 ], [ -116.91203480159615, 47.698100657995099 ], [ -116.91230151336282, 47.698010885500985 ], [ -116.912301815124991, 47.697830932451048 ], [ -116.912435094880408, 47.697831034232259 ], [ -116.912568675478624, 47.697651182801792 ], [ -116.913501630582019, 47.697651889847826 ], [ -116.91350148176646, 47.697741866379189 ], [ -116.913901320366705, 47.697742167077877 ], [ -116.914034895697583, 47.697562313934498 ], [ -116.914301453852261, 47.697562513315454 ], [ -116.914301601290589, 47.697472536779372 ], [ -116.914568158989567, 47.697472735540494 ], [ -116.91470173133888, 47.697292881610579 ], [ -116.914968288124925, 47.697293079441678 ], [ -116.91496872699193, 47.697023149811763 ], [ -116.91510200469817, 47.69702324849419 ], [ -116.915235574062407, 47.696843393926876 ], [ -116.916035237567456, 47.696843981838278 ], [ -116.916035093114886, 47.696933958388314 ], [ -116.916168370597489, 47.69693405583206 ], [ -116.916168514820754, 47.696844079281739 ], [ -116.916301792074762, 47.696844176570387 ], [ -116.916301936068038, 47.696754200018326 ], [ -116.916435213093479, 47.696754297151898 ], [ -116.91656877718691, 47.696574441021085 ], [ -116.916968606893747, 47.6965747310268 ], [ -116.917102168694328, 47.696394874268123 ], [ -116.917768549263613, 47.69639535373814 ], [ -116.917768690731265, 47.696305377175676 ], [ -116.918568346061434, 47.696305947429778 ], [ -116.91856820596945, 47.696395923994025 ], [ -116.920167519454608, 47.696397047788231 ], [ -116.920167382113348, 47.696487024354589 ], [ -116.921366869354046, 47.696487852574961 ], [ -116.92136673407569, 47.696577829142498 ], [ -116.921633287261699, 47.696578011489322 ], [ -116.92163315244126, 47.696667988056014 ], [ -116.922166125834309, 47.69675832745969 ], [ -116.922165991929702, 47.696848304024677 ], [ -116.922299269214164, 47.696848394347576 ], [ -116.922299135538211, 47.696938370911425 ], [ -116.922565557349614, 47.697028527656393 ], [ -116.922564358358017, 47.697838316659556 ], [ -116.922431078550005, 47.697838226643142 ], [ -116.922430945096167, 47.697928203191672 ], [ -116.922297665059531, 47.697928113020176 ], [ -116.922297531375733, 47.698018089567007 ], [ -116.922030836702731, 47.698107885303898 ], [ -116.922030568414684, 47.698287838389348 ], [ -116.921897287462755, 47.698287747752318 ], [ -116.921897153088466, 47.698377724292619 ], [ -116.922030434269672, 47.698377814929941 ], [ -116.922029495236373, 47.699007650674396 ], [ -116.92216277802342, 47.699007741158894 ], [ -116.922162644102499, 47.699097717688431 ], [ -116.922295927119521, 47.699097808018408 ], [ -116.922295793427267, 47.699187784546815 ], [ -116.922429076674291, 47.699187874722263 ], [ -116.922428943210676, 47.699277851249519 ], [ -116.92256222668766, 47.699277941270445 ], [ -116.92256209345274, 47.699367917796572 ], [ -116.922828528090307, 47.699458073899848 ], [ -116.922828262534523, 47.699638026946118 ], [ -116.922961546930736, 47.699638116503749 ], [ -116.922961414381192, 47.699728093025051 ], [ -116.923094699007351, 47.699728182428146 ], [ -116.923094566686473, 47.699818158948318 ], [ -116.92322785154262, 47.69981824819687 ], [ -116.923227719450438, 47.699908224715898 ], [ -116.923361004536531, 47.699908313809935 ], [ -116.923360872673044, 47.699998290327812 ], [ -116.923627311900333, 47.700088444569033 ], [ -116.923627049087457, 47.700268397598833 ], [ -116.923760335092766, 47.70026848622954 ], [ -116.923760203914711, 47.700358462742592 ], [ -116.923893490150022, 47.700358551218756 ], [ -116.923893359200648, 47.700448527730664 ], [ -116.924026645665933, 47.700448616052306 ], [ -116.924026514945226, 47.700538592563063 ], [ -116.924292958073707, 47.700628745252352 ], [ -116.924292697546534, 47.700808698267892 ], [ -116.924425984931034, 47.700808786126196 ], [ -116.924425854895844, 47.700898762632121 ], [ -116.924559142510347, 47.700898850335875 ], [ -116.924692170970502, 47.701078890893498 ], [ -116.924958747120002, 47.70107906552802 ], [ -116.924958618000261, 47.701169042030791 ], [ -116.925358482917247, 47.701169302822265 ], [ -116.925491514817537, 47.701349342446562 ], [ -116.925891381118092, 47.70134960138185 ], [ -116.925891253601876, 47.701439577882255 ], [ -116.92615770453925, 47.701529726231755 ], [ -116.926157450421101, 47.70170967922656 ], [ -116.926290740107817, 47.701709764920118 ], [ -116.926423776591946, 47.701889803449056 ], [ -116.926690356885857, 47.701889974063135 ], [ -116.926690483029077, 47.701799997568216 ], [ -116.927223642706892, 47.701800336937467 ], [ -116.927223767932091, 47.701710360440046 ], [ -116.927490347315967, 47.701710529195218 ], [ -116.927490472081843, 47.70162055269585 ], [ -116.928823366743984, 47.701621387179799 ], [ -116.928823489215802, 47.701531410676402 ], [ -116.930156381644125, 47.701532229675742 ], [ -116.930156261465783, 47.701622206181703 ], [ -116.93068941937095, 47.701622529447484 ], [ -116.930689300109407, 47.701712505953033 ], [ -116.931222458941264, 47.701712826742693 ], [ -116.931222577285411, 47.701622850236134 ], [ -116.931889024691429, 47.701623247738503 ], [ -116.931889141888249, 47.701533271229287 ], [ -116.933488612968517, 47.701534209440318 ], [ -116.933488727412637, 47.701444232926747 ], [ -116.933622016443621, 47.701444310104428 ], [ -116.933622130657824, 47.701354333589187 ], [ -116.933888822017721, 47.701264510962474 ], [ -116.933889618286898, 47.700634675302808 ], [ -116.934022905255489, 47.700634752013862 ], [ -116.934156418807788, 47.700454875510765 ], [ -116.93442299183036, 47.70045502815784 ], [ -116.934423104662443, 47.700365051625568 ], [ -116.935489394940092, 47.70036565601945 ], [ -116.935489283942673, 47.70045563255362 ], [ -116.935622570459145, 47.700455707406419 ], [ -116.935622459690521, 47.70054568393941 ], [ -116.935888922873289, 47.700635809713084 ], [ -116.936021769520067, 47.700995790216822 ], [ -116.936288345309904, 47.700995938531882 ], [ -116.936288235684728, 47.701085915057526 ], [ -116.937354540700099, 47.701086502126991 ], [ -116.93735464849054, 47.700996525599507 ], [ -116.937887800093492, 47.700996815417703 ], [ -116.937887906966054, 47.700906838887889 ], [ -116.938687633010019, 47.700907268969324 ], [ -116.938687527513522, 47.700997245500481 ], [ -116.940420270320033, 47.700998158226568 ], [ -116.940420167804447, 47.701088134759168 ], [ -116.940820032229112, 47.701088341673305 ], [ -116.940819930401062, 47.701178318205145 ], [ -116.94161956018732, 47.701268704386315 ], [ -116.941619459734341, 47.701358680916577 ], [ -116.941885937407093, 47.701448792758001 ], [ -116.941885737416058, 47.701628745812314 ], [ -116.94201902693861, 47.701628813236788 ], [ -116.942018927171702, 47.701718789762026 ], [ -116.942285506676953, 47.701718924146917 ], [ -116.942285407368274, 47.701808900671168 ], [ -116.942418697350959, 47.701808967631607 ], [ -116.942418796430303, 47.701718991107136 ], [ -116.942685375938439, 47.701719124563105 ], [ -116.942685474558616, 47.701629148036815 ], [ -116.943351922190629, 47.701629478966339 ], [ -116.943351824717212, 47.701719455493667 ], [ -116.943485114474385, 47.701719521215317 ], [ -116.943485017229847, 47.701809497741436 ], [ -116.943618307216866, 47.701809563308466 ], [ -116.943618210201194, 47.701899539833377 ], [ -116.94388469407788, 47.701989647027276 ], [ -116.94388450096163, 47.70216960007081 ], [ -116.944017791867438, 47.702169665174203 ], [ -116.94401769553798, 47.702259641694042 ], [ -116.944150986673634, 47.702259706642806 ], [ -116.944150890573027, 47.702349683161444 ], [ -116.944284181938514, 47.702349747955587 ], [ -116.944284086066801, 47.702439724472995 ], [ -116.944417377662106, 47.702439789112532 ], [ -116.944417282019288, 47.702529765628725 ], [ -116.94455057384441, 47.702529830113612 ], [ -116.944550478430486, 47.702619806628618 ], [ -116.944683770485454, 47.702619870958891 ], [ -116.944683675300425, 47.702709847472654 ], [ -116.944816967585197, 47.702709911648313 ], [ -116.944816872629076, 47.702799888160854 ], [ -116.944950165143666, 47.702799952181877 ], [ -116.944950070416439, 47.702889928693224 ], [ -116.945083363160876, 47.702889992559612 ], [ -116.945083268662543, 47.702979969069737 ], [ -116.945216561636784, 47.702980032781511 ], [ -116.945349666530944, 47.703160049355219 ], [ -116.945616253399209, 47.703160176005412 ], [ -116.945616159816993, 47.703250152512076 ], [ -116.945749453481156, 47.703250215605131 ], [ -116.945749360127834, 47.703340192110566 ], [ -116.946015855021258, 47.703430294336982 ], [ -116.946015390539316, 47.703880176837799 ], [ -116.94588209526863, 47.703880114053035 ], [ -116.945881909013934, 47.704060067043045 ], [ -116.94574861328492, 47.704060004103049 ], [ -116.94588172275742, 47.704240020027378 ], [ -116.946414815301551, 47.704330246731416 ], [ -116.946414723089688, 47.704420223220822 ], [ -116.946548019738458, 47.704420285387428 ], [ -116.946547927755518, 47.704510261875605 ], [ -116.94681452151319, 47.704510385744697 ], [ -116.946814429988578, 47.704600362231865 ], [ -116.946947727097466, 47.704600423934345 ], [ -116.947081206338041, 47.704420532505495 ], [ -116.947347799640468, 47.704420655135515 ], [ -116.94748127704554, 47.704240763234949 ], [ -116.949080743773251, 47.704331460640944 ], [ -116.94908065614905, 47.704421437134158 ], [ -116.949213952806574, 47.704421496204056 ], [ -116.949213865411323, 47.704511472696026 ], [ -116.949480459186404, 47.704511590371673 ], [ -116.949613582659097, 47.704691601958046 ], [ -116.950146686260283, 47.704781811322427 ], [ -116.950146600469054, 47.704871787810013 ], [ -116.950279898276875, 47.704871845642124 ], [ -116.950279812714612, 47.704961822128489 ], [ -116.950413110752208, 47.704961879805936 ], [ -116.950413025418925, 47.70505185629105 ], [ -116.950546323686368, 47.705051913813847 ], [ -116.950546238582035, 47.705141890297725 ], [ -116.950679537079296, 47.705141947665858 ], [ -116.950679452203929, 47.705231924148514 ], [ -116.950812750930979, 47.705231981361983 ], [ -116.950812666284605, 47.705321957843395 ], [ -116.950945965241473, 47.705322014902201 ], [ -116.950945880824079, 47.705411991382356 ], [ -116.951079180010765, 47.705412048286505 ], [ -116.951079095822365, 47.70550202476543 ], [ -116.951345610925685, 47.705592114587432 ], [ -116.951344606133731, 47.706671832211178 ], [ -116.951477908533249, 47.706671888653275 ], [ -116.951477825027354, 47.706761865112881 ], [ -116.95161112765669, 47.706761921400322 ], [ -116.951611044379788, 47.706851897858684 ], [ -116.951744347238971, 47.706851953991446 ], [ -116.951744264191078, 47.706941930448572 ], [ -116.952010787779997, 47.707032018705945 ], [ -116.952010622599843, 47.707211971613809 ], [ -116.9521439263779, 47.707212027282715 ], [ -116.952143844016646, 47.707302003734704 ], [ -116.952277148024493, 47.707302059248939 ], [ -116.952276983759631, 47.707482012148986 ], [ -116.952410288226716, 47.707482067508714 ], [ -116.9524100425147, 47.707751996848671 ], [ -116.952543347670456, 47.707752052054069 ], [ -116.952543265995061, 47.707842028498057 ], [ -116.952676571380664, 47.707842083548783 ], [ -116.952676489934291, 47.707932059991514 ], [ -116.952809795549712, 47.707932114887548 ], [ -116.952942939189327, 47.708112122510663 ], [ -116.953209551339839, 47.708112231529142 ] ] ] } }
]
}
