{
"type": "FeatureCollection",
"name": "spokane_river_95_bridge_to_post_falls_dam_no_wake",
"crs": { "type": "name", "properties": { "name": "urn:ogc:def:crs:OGC:1.3:CRS84" } },
"features": [
{ "type": "Feature", "properties": { "name": "Hwy 95 bridge no-wake (300 ft below bridge; extends upstream to CdA Lake)", "note": "approximate, pending official HLWID boundaries" }, "geometry": { "type": "Polygon", "coordinates": [ [ [ -116.799386937957891, 47.687668809686947, 0.0 ], [ -116.798918437791116, 47.687334989043705, 0.0 ], [ -116.798647870617415, 47.687092809711132, 0.0 ], [ -116.798174588718396, 47.686626212297369, 0.0 ], [ -116.799769255539061, 47.686017954526861, 0.0 ], [ -116.799769255539061, 47.686017954526868, 0.0 ], [ -116.799822886796889, 47.686090117768387, 0.0 ], [ -116.799865784927519, 47.686165483140506, 0.0 ], [ -116.799897536758365, 47.68624332484557, 0.0 ], [ -116.799917836455364, 47.686322893234632, 0.0 ], [ -116.799926488470348, 47.686403422026558, 0.0 ], [ -116.799923409426128, 47.686484135687564, 0.0 ], [ -116.799908628921585, 47.686564256900034, 0.0 ], [ -116.799882289248686, 47.686643014048343, 0.0 ], [ -116.799844644024006, 47.686719648650246, 0.0 ], [ -116.799801532754088, 47.68678510666134, 0.0 ], [ -116.799802777487571, 47.686786648647413, 0.0 ], [ -116.799849438050799, 47.686860987903223, 0.0 ], [ -116.799885083010636, 47.686938057408923, 0.0 ], [ -116.79990936904214, 47.687017114953264, 0.0 ], [ -116.79992206220787, 47.687097399175997, 0.0 ], [ -116.799923040212803, 47.687178136899931, 0.0 ], [ -116.799912293584143, 47.687258550576836, 0.0 ], [ -116.799889925764589, 47.687337865775739, 0.0 ], [ -116.799856152118195, 47.687415318641214, 0.0 ], [ -116.799811297858284, 47.687490163249933, 0.0 ], [ -116.799755794917104, 47.687561678794772, 0.0 ], [ -116.799690177787596, 47.687629176527011, 0.0 ], [ -116.799615078377201, 47.687692006389966, 0.0 ], [ -116.799544688792693, 47.687740318831224, 0.0 ], [ -116.799386937957891, 47.687668809686947, 0.0 ] ] ] } },
{ "type": "Feature", "properties": { "name": "Black Bay no-wake", "note": "approximate, pending official HLWID boundaries" }, "geometry": { "type": "Polygon", "coordinates": [ [ [ -116.927830188983464, 47.702020046075475, 0.0 ], [ -116.927681420785902, 47.70205863595222, 0.0 ], [ -116.927449195505147, 47.702126922649668, 0.0 ], [ -116.927005022614608, 47.702161168738741, 0.0 ], [ -116.927027975468434, 47.702240057926289, 0.0 ], [ -116.927163113528195, 47.702302833301999, 0.0 ], [ -116.927282123235372, 47.702517439298404, 0.0 ], [ -116.927378717281229, 47.702625792365716, 0.0 ], [ -116.927600695479512, 47.702726258908299, 0.0 ], [ -116.927776243354018, 47.702861568780861, 0.0 ], [ -116.927837570440147, 47.703002273240742, 0.0 ], [ -116.927768172889486, 47.703059221123624, 0.0 ], [ -116.927483185958891, 47.703167397143481, 0.0 ], [ -116.927417466111024, 47.703282208967885, 0.0 ], [ -116.92740806434324, 47.703392330533163, 0.0 ], [ -116.927476266236241, 47.703530900755815, 0.0 ], [ -116.927570223726747, 47.703572345342302, 0.0 ], [ -116.92761293951682, 47.703630065803083, 0.0 ], [ -116.927503259712211, 47.703690108822052, 0.0 ], [ -116.927324248832278, 47.703685183678147, 0.0 ], [ -116.927169630805579, 47.703661482285668, 0.0 ], [ -116.927048075272921, 47.703587186698975, 0.0 ], [ -116.926911092073553, 47.703541383417324, 0.0 ], [ -116.926801587440437, 47.703496217277312, 0.0 ], [ -116.926780074586006, 47.703385290686683, 0.0 ], [ -116.926721745177971, 47.703252766683441, 0.0 ], [ -116.926831456423614, 47.703183314697576, 0.0 ], [ -116.927016802222923, 47.703048841137289, 0.0 ], [ -116.927156884610014, 47.702996378345446, 0.0 ], [ -116.927109435596705, 47.70286725089192, 0.0 ], [ -116.926984365854636, 47.70278929425745, 0.0 ], [ -116.926882566071697, 47.702750530207929, 0.0 ], [ -116.926608905998506, 47.702697931092921, 0.0 ], [ -116.926423146974159, 47.70261390817992, 0.0 ], [ -116.926566571992424, 47.702432266846408, 0.0 ], [ -116.926437434678732, 47.702319914879823, 0.0 ], [ -116.926151298802878, 47.702399397494908, 0.0 ], [ -116.926161439884112, 47.702167454873823, 0.0 ], [ -116.925941997629891, 47.702088146016514, 0.0 ], [ -116.925614716219044, 47.70193425253737, 0.0 ], [ -116.925636503490679, 47.70188929597127, 0.0 ], [ -116.928289838700692, 47.701890984742604, 0.0 ], [ -116.928289668719003, 47.702014934353755, 0.0 ], [ -116.927830188983464, 47.702020046075475, 0.0 ] ] ] } },
{ "type": "Feature", "properties": { "name": "Templins Marina to Post Falls Dam no-wake", "note": "approximate, pending official HLWID boundaries" }, "geometry": { "type": "Polygon", "coordinates": [ [ [ -116.94296877691616, 47.700799067260846, 0.0 ], [ -116.943437189048026, 47.700851785577825, 0.0 ], [ -116.943832936456559, 47.70086953688719, 0.0 ], [ -116.944220166937868, 47.700851765627057, 0.0 ], [ -116.944317664688938, 47.700779767023292, 0.0 ], [ -116.944227332798889, 47.700544756252796, 0.0 ], [ -116.944099092003881, 47.700372963461369, 0.0 ], [ -116.944097808311355, 47.700184648877666, 0.0 ], [ -116.944294005759289, 47.700225974000382, 0.0 ], [ -116.94432235479303, 47.700140246431431, 0.0 ], [ -116.944319130739487, 47.70000312664574, 0.0 ], [ -116.944169923265733, 47.699961942817602, 0.0 ], [ -116.94429732233931, 47.699676928916851, 0.0 ], [ -116.944360101102959, 47.69960243599887, 0.0 ], [ -116.94450144921629, 47.699541799408159, 0.0 ], [ -116.944605736434255, 47.699517030856555, 0.0 ], [ -116.94466026147704, 47.699665111167306, 0.0 ], [ -116.94509068385554, 47.699652514109601, 0.0 ], [ -116.945181437953735, 47.69963226788181, 0.0 ], [ -116.945381926653795, 47.699536927075627, 0.0 ], [ -116.945527769038506, 47.699527381316948, 0.0 ], [ -116.946000190351484, 47.699683219583576, 0.0 ], [ -116.946100825019471, 47.699708657327164, 0.0 ], [ -116.946387587021121, 47.699670658805097, 0.0 ], [ -116.946522496908784, 47.69968083209276, 0.0 ], [ -116.946590590105643, 47.69971004484011, 0.0 ], [ -116.946469560087422, 47.699918502670506, 0.0 ], [ -116.946366319406778, 47.699974715128086, 0.0 ], [ -116.94618077957135, 47.700010593780561, 0.0 ], [ -116.946202732600256, 47.700151279938638, 0.0 ], [ -116.946124730087519, 47.700212120166846, 0.0 ], [ -116.946128989898597, 47.700264796152588, 0.0 ], [ -116.946268428193633, 47.700284238051097, 0.0 ], [ -116.946276853492677, 47.70044663850129, 0.0 ], [ -116.946348390830309, 47.700551129036455, 0.0 ], [ -116.946306697323053, 47.700647931651751, 0.0 ], [ -116.946440522045862, 47.700710902406783, 0.0 ], [ -116.946583108037643, 47.70083793976994, 0.0 ], [ -116.946447512735389, 47.700877844246385, 0.0 ], [ -116.946599376527431, 47.700977014340488, 0.0 ], [ -116.946749446383848, 47.701202462596413, 0.0 ], [ -116.946882962086207, 47.701387640666916, 0.0 ], [ -116.946951662544208, 47.701407962387691, 0.0 ], [ -116.947530462353114, 47.70162997186489, 0.0 ], [ -116.948040791672796, 47.701793491389239, 0.0 ], [ -116.948339151823035, 47.702005224222894, 0.0 ], [ -116.948578070450949, 47.702150719654632, 0.0 ], [ -116.948632763478699, 47.702172829343489, 0.0 ], [ -116.948782218887445, 47.702056056322164, 0.0 ], [ -116.948965714157296, 47.702115499019392, 0.0 ], [ -116.949146369852514, 47.702212795066956, 0.0 ], [ -116.949327021056149, 47.702292791108974, 0.0 ], [ -116.94938020491422, 47.702359645925171, 0.0 ], [ -116.949341139877447, 47.702430084423668, 0.0 ], [ -116.949355265885316, 47.702484308835579, 0.0 ], [ -116.94931671737983, 47.7025799253664, 0.0 ], [ -116.949063034940238, 47.703134195153332, 0.0 ], [ -116.949118824810952, 47.703266611245404, 0.0 ], [ -116.949282314599387, 47.703322461601402, 0.0 ], [ -116.949436696369176, 47.70321819304619, 0.0 ], [ -116.94962434365226, 47.702854690880578, 0.0 ], [ -116.949729143808241, 47.702556392744754, 0.0 ], [ -116.949915800249542, 47.702541758454558, 0.0 ], [ -116.950374656103421, 47.702740707551193, 0.0 ], [ -116.95074221707327, 47.703006092740836, 0.0 ], [ -116.951110732053962, 47.703297430662346, 0.0 ], [ -116.951240210727448, 47.703561194070055, 0.0 ], [ -116.95136517087505, 47.703704394578033, 0.0 ], [ -116.951732075176437, 47.703751175852396, 0.0 ], [ -116.951893370380631, 47.703739147439435, 0.0 ], [ -116.952597371085659, 47.703660321578525, 0.0 ], [ -116.952663815873947, 47.703798965446389, 0.0 ], [ -116.953403447356408, 47.703895362435148, 0.0 ], [ -116.953518503577982, 47.703682127755229, 0.0 ], [ -116.954014757195438, 47.704328151324432, 0.0 ], [ -116.953883925659156, 47.704448145006175, 0.0 ], [ -116.953938434532262, 47.70452932490489, 0.0 ], [ -116.954057764938, 47.704607271682903, 0.0 ], [ -116.954041933927726, 47.70473445068189, 0.0 ], [ -116.953829083511067, 47.704861971529532, 0.0 ], [ -116.953597425067272, 47.704954659636172, 0.0 ], [ -116.95314004784035, 47.705053467122447, 0.0 ], [ -116.952969850331684, 47.70509753108535, 0.0 ], [ -116.952950170938749, 47.705207127722026, 0.0 ], [ -116.953057233052633, 47.70539737191033, 0.0 ], [ -116.953755447708886, 47.705782725116961, 0.0 ], [ -116.953961651490786, 47.705910408431031, 0.0 ], [ -116.954079574236445, 47.706055198384483, 0.0 ], [ -116.954336734054536, 47.70616247593636, 0.0 ], [ -116.954350396531694, 47.706256808401768, 0.0 ], [ -116.954492004258128, 47.706387523347921, 0.0 ], [ -116.954504671401935, 47.706540802201395, 0.0 ], [ -116.954435168748404, 47.706752458325717, 0.0 ], [ -116.954106362896539, 47.707020514912351, 0.0 ], [ -116.953955437843973, 47.707189350374627, 0.0 ], [ -116.953860971907005, 47.707351595116748, 0.0 ], [ -116.953738871096959, 47.70769234382157, 0.0 ], [ -116.953723438040385, 47.707852169657045, 0.0 ], [ -116.953791930987549, 47.708047770801478, 0.0 ], [ -116.953909576153748, 47.708174064301815, 0.0 ], [ -116.953935685687497, 47.708256111873794, 0.0 ], [ -116.953898154074921, 47.708360271821498, 0.0 ], [ -116.953974309651471, 47.708432641986832, 0.0 ], [ -116.953367795917714, 47.708498445598138, 0.0 ], [ -116.953483487248207, 47.709085431170784, 0.0 ], [ -116.953039186796914, 47.7091058206139, 0.0 ], [ -116.95269903971456, 47.709108468200441, 0.0 ], [ -116.952579586239651, 47.709088061228634, 0.0 ], [ -116.952502942877928, 47.709049564808609, 0.0 ], [ -116.952398771542633, 47.708931395141029, 0.0 ], [ -116.95252877123896, 47.708508599028683, 0.0 ], [ -116.95252327175281, 47.708371567142358, 0.0 ], [ -116.952467953497603, 47.708233362200808, 0.0 ], [ -116.952213823696994, 47.708196806746912, 0.0 ], [ -116.952042994672667, 47.708143162536011, 0.0 ], [ -116.951956486910817, 47.707910550917482, 0.0 ], [ -116.951666904199172, 47.707499995315445, 0.0 ], [ -116.951478862555717, 47.707267716320153, 0.0 ], [ -116.951312158595172, 47.707099591997995, 0.0 ], [ -116.951082717193515, 47.706959111380471, 0.0 ], [ -116.950744339792294, 47.706722543469247, 0.0 ], [ -116.950777738256221, 47.705759305171142, 0.0 ], [ -116.949725503834699, 47.705112307324335, 0.0 ], [ -116.949454068888457, 47.705042002421713, 0.0 ], [ -116.949061025408952, 47.704873834649135, 0.0 ], [ -116.94884179066554, 47.704716416562889, 0.0 ], [ -116.948538267897334, 47.704657252494066, 0.0 ], [ -116.948339087144319, 47.704680101660649, 0.0 ], [ -116.947849892488378, 47.704636852242793, 0.0 ], [ -116.947787684154946, 47.704622692483298, 0.0 ], [ -116.947372953547841, 47.704835410077109, 0.0 ], [ -116.947005795921541, 47.705089030348155, 0.0 ], [ -116.945847902554618, 47.704637395709561, 0.0 ], [ -116.944880969457529, 47.704264528421277, 0.0 ], [ -116.945478797380773, 47.703625423576071, 0.0 ], [ -116.945141689299049, 47.703510686865613, 0.0 ], [ -116.944134010417301, 47.702821009891842, 0.0 ], [ -116.943664470001437, 47.702511475429766, 0.0 ], [ -116.943022785427686, 47.701985981260002, 0.0 ], [ -116.942684935078859, 47.702121339350661, 0.0 ], [ -116.942686527368195, 47.700668585269469, 0.0 ], [ -116.94296877691616, 47.700799067260846, 0.0 ] ] ] } }
]
}
